,Unnamed: 0,formatted_address,Address,latitude,longitude,License_Type,Entity_Name,Trade_Name,Concate
0,0,"110 Yuma St, Denver, CO 80223, USA",110 N Yuma  Denver CO,39.7185604,-105.0147409,Retail Marij Opt. Prem. Cultiv,"KTA, LLC",,"Retail Marij Opt. Prem. Cultiv-KTA, LLC"
1,1,"5020 E 41st Ave, Denver, CO 80216, USA",5020 E 41ST AVE DENVER CO,39.7735169,-104.9293195,Retail Marijuana Inf Prod Mfg,GHT LLC,SUMMIT CONCENTRATES,Retail Marijuana Inf Prod Mfg-GHT LLC
2,1,"5020 E 41st Ave, Denver, CO 80216, USA",5020 E 41ST AVE DENVER CO,39.7735169,-104.9293195,Retail Marij Opt. Prem. Cultiv,GHT LLC,SUMMIT CONCENTRATES,Retail Marij Opt. Prem. Cultiv-GHT LLC
5,2,"1275 S Cherokee St, Denver, CO 80223, USA",1275 S Cherokee ST Denver CO,39.6935163,-104.9917568,Retail Marijuana Inf Prod Mfg,SUSAN & STEPH INC,JADE & JANE,Retail Marijuana Inf Prod Mfg-SUSAN & STEPH INC
6,3,"5475 Peoria St, Denver, CO 80239, USA",5475 N PEORIA ST DENVER CO,39.7952228,-104.8486775,Med Marijuana Inf Prod Manuf,"PEORIA PARTNERS, LLC",,"Med Marijuana Inf Prod Manuf-PEORIA PARTNERS, LLC"
7,3,"5475 Peoria St, Denver, CO 80239, USA",5475 N PEORIA ST DENVER CO,39.7952228,-104.8486775,Med Marijuana Opt Prem Cultiv,"WONDERLAND EDIBLES, LTD",WONDERLAND EDIBLES,"Med Marijuana Opt Prem Cultiv-WONDERLAND EDIBLES, LTD"
8,3,"5475 Peoria St, Denver, CO 80239, USA",5475 N PEORIA ST DENVER CO,39.7952228,-104.8486775,Retail Marij Opt. Prem. Cultiv,COLORADO CANNABIS COMPANY LLC,PURE MEDICAL DISPENSARY,Retail Marij Opt. Prem. Cultiv-COLORADO CANNABIS COMPANY LLC
9,3,"5475 Peoria St, Denver, CO 80239, USA",5475 N PEORIA ST DENVER CO,39.7952228,-104.8486775,Retail Marijuana Inf Prod Mfg,"GOOD LIFE, COLORADO LLC",GOOD LIFE PRODUCTS,"Retail Marijuana Inf Prod Mfg-GOOD LIFE, COLORADO LLC"
10,3,"5475 Peoria St, Denver, CO 80239, USA",5475 N PEORIA ST DENVER CO,39.7952228,-104.8486775,Med Marijuana Inf Prod Manuf,"COLORADO MEDICAL PROCESSING, LLC",COLORADO'S BEST DABS,"Med Marijuana Inf Prod Manuf-COLORADO MEDICAL PROCESSING, LLC"
11,3,"5475 Peoria St, Denver, CO 80239, USA",5475 N PEORIA ST DENVER CO,39.7952228,-104.8486775,Med Marijuana Inf Prod Manuf,"WONDERLAND EDIBLES, LTD.",,"Med Marijuana Inf Prod Manuf-WONDERLAND EDIBLES, LTD."
42,4,"2282 N Broadway, Denver, CO 80205, USA",2282 N Broadway  Denver CO,39.7543352,-104.9873476,Retail Marijuana Inf Prod Mfg,GENTLEMAN QUINNS LLC,GENTLEMAN QUINNS,Retail Marijuana Inf Prod Mfg-GENTLEMAN QUINNS LLC
43,5,"2186 S Jason St, Denver, CO 80223, USA",2186 S Jason St Denver CO,39.6769079,-104.9990602,Marijuana Transporter,"GPS TRANSPORTATION, LLC",,"Marijuana Transporter-GPS TRANSPORTATION, LLC"
47,6,"3855 Quentin St, Denver, CO 80239, USA",3855 N Quentin St Denver CO,39.7702777,-104.8452339,Retail Marij Opt. Prem. Cultiv,MX LLC,,Retail Marij Opt. Prem. Cultiv-MX LLC
48,6,"3855 Quentin St, Denver, CO 80239, USA",3855 N Quentin St Denver CO,39.7702777,-104.8452339,Retail Marijuana Inf Prod Mfg,MX LLC,,Retail Marijuana Inf Prod Mfg-MX LLC
51,7,"2218 S Kalamath St, Denver, CO 80223, USA",2218 S KALAMATH ST DENVER CO,39.6763287,-105.0003155,Med Marijuana Opt Prem Cultiv,"PINEAPPLE EXCHANGE, LLC",PINEAPPLE EXCHANGE,"Med Marijuana Opt Prem Cultiv-PINEAPPLE EXCHANGE, LLC"
52,8,"6359 E Evans Ave, Denver, CO 80222, USA",6359 E EVANS AVE DENVER CO,39.6787491,-104.914581,Retail Marijuana Store,"MEDICINAL WELLNESS CENTER, LLC",OASIS CANNABIS SUPERSTORE,"Retail Marijuana Store-MEDICINAL WELLNESS CENTER, LLC"
53,8,"6359 E Evans Ave, Denver, CO 80222, USA",6359 E EVANS AVE DENVER CO,39.6787491,-104.914581,Medical Marijuana Center,"MEDICINAL WELLNESS CENTER, LLC",OASIS CANNABIS SUPER STORE,"Medical Marijuana Center-MEDICINAL WELLNESS CENTER, LLC"
56,9,"5156 N Clarkson St, Denver, CO 80205, USA",5156 N Clarkson  Denver CO,39.7546312,-104.9769565,Med Marijuana Opt Prem Cultiv,LEVELS IV INC,LEVELS IV INC,Med Marijuana Opt Prem Cultiv-LEVELS IV INC
57,10,"4800 Nome St, Denver, CO 80239, USA",4800 N NOME ST DENVER CO,39.7843319,-104.8524045,Retail Marij Opt. Prem. Cultiv,"NUTRITIONAL ELEMENTS, LLC",THE HEALTH CENTER,"Retail Marij Opt. Prem. Cultiv-NUTRITIONAL ELEMENTS, LLC"
58,10,"4800 Nome St, Denver, CO 80239, USA",4800 N NOME ST DENVER CO,39.7843319,-104.8524045,Med Marijuana Opt Prem Cultiv,NUTRITIONAL ELEMENTS LLC,THE HEALTH CENTER,Med Marijuana Opt Prem Cultiv-NUTRITIONAL ELEMENTS LLC
61,11,"5775 E 39th Ave, Denver, CO 80207, USA",5775 E 39TH AVE DENVER CO,39.7713976,-104.9207255,Med Marijuana Opt Prem Cultiv,JET BLACK ENTERPRISES,LEIFFA,Med Marijuana Opt Prem Cultiv-JET BLACK ENTERPRISES
62,11,"5775 E 39th Ave, Denver, CO 80207, USA",5775 E 39TH AVE DENVER CO,39.7713976,-104.9207255,Retail Marij Opt. Prem. Cultiv,JET BLACK ENTERPRISES,LEIFFA,Retail Marij Opt. Prem. Cultiv-JET BLACK ENTERPRISES
65,12,"4571 Ivy St, Denver, CO 80216, USA",4571 N IVY ST DENVER CO,39.7796332,-104.9203605,Medical Marijuana Center,PRIMA BRANDS LLC,PRIMA CANNABIS COMPANY,Medical Marijuana Center-PRIMA BRANDS LLC
66,12,"4571 Ivy St, Denver, CO 80216, USA",4571 N IVY ST DENVER CO,39.7796332,-104.9203605,Med Marijuana Opt Prem Cultiv,PRIMA BRANDS LLC,PRIMA CANNABIS COMPANY,Med Marijuana Opt Prem Cultiv-PRIMA BRANDS LLC
67,12,"4571 Ivy St, Denver, CO 80216, USA",4571 N IVY ST DENVER CO,39.7796332,-104.9203605,Retail Marij Opt. Prem. Cultiv,PRIMA BRANDS LLC,PRIMA CANNABIS COMPANY,Retail Marij Opt. Prem. Cultiv-PRIMA BRANDS LLC
74,13,"680 Lipan St, Denver, CO 80204, USA",680 N LIPAN ST DENVER CO,39.7270824,-105.0011828,Retail Marijuana Inf Prod Mfg,"CONSCIOUS CONFECTIONS, LLC",NATIVE ROOTS EXTRACTS,"Retail Marijuana Inf Prod Mfg-CONSCIOUS CONFECTIONS, LLC"
75,13,"680 Lipan St, Denver, CO 80204, USA",680 N LIPAN ST DENVER CO,39.7270824,-105.0011828,Med Marijuana Inf Prod Manuf,"CONSCIOUS CONFECTIONS, LLC",NATIVE ROOTS EXTRACTS,"Med Marijuana Inf Prod Manuf-CONSCIOUS CONFECTIONS, LLC"
76,13,"680 Lipan St, Denver, CO 80204, USA",680 N LIPAN ST DENVER CO,39.7270824,-105.0011828,Med Marijuana Opt Prem Cultiv,"CONSCIOUS CONFECTIONS, LLC",NATIVE ROOTS EXTRACTS,"Med Marijuana Opt Prem Cultiv-CONSCIOUS CONFECTIONS, LLC"
77,13,"680 Lipan St, Denver, CO 80204, USA",680 N LIPAN ST DENVER CO,39.7270824,-105.0011828,Retail Marij Opt. Prem. Cultiv,"CONSCIOUS CONFECTIONS, LLC",NATIVE ROOTS EXTRACTS,"Retail Marij Opt. Prem. Cultiv-CONSCIOUS CONFECTIONS, LLC"
90,14,"1325 S Inca St, Denver, CO 80223, USA",1325 S INCA ST DENVER CO,39.6925979,-104.998358,Retail Marijuana Store,"BUD BUM, LLC",BUD BUM,"Retail Marijuana Store-BUD BUM, LLC"
91,14,"1325 S Inca St, Denver, CO 80223, USA",1325 S INCA ST DENVER CO,39.6925979,-104.998358,Medical Marijuana Center,"BUD BUM, LLC",BUD BUM,"Medical Marijuana Center-BUD BUM, LLC"
92,14,"1325 S Inca St, Denver, CO 80223, USA",1325 S INCA ST DENVER CO,39.6925979,-104.998358,Retail Marij Opt. Prem. Cultiv,"BUD BUM, LLC",BUD BUM,"Retail Marij Opt. Prem. Cultiv-BUD BUM, LLC"
93,14,"1325 S Inca St, Denver, CO 80223, USA",1325 S INCA ST DENVER CO,39.6925979,-104.998358,Med Marijuana Opt Prem Cultiv,"BUD BUM, LLC",BUD BUM,"Med Marijuana Opt Prem Cultiv-BUD BUM, LLC"
106,15,"4800 Oakland St, Denver, CO 80239, USA",4800 N OAKLAND ST DENVER CO,39.7844155,-104.8503416,Retail Marij Opt. Prem. Cultiv,HG LTD,HIGHER GRADE,Retail Marij Opt. Prem. Cultiv-HG LTD
107,15,"4800 Oakland St, Denver, CO 80239, USA",4800 N OAKLAND ST DENVER CO,39.7844155,-104.8503416,Med Marijuana Opt Prem Cultiv,HG LTD,HIGHER GRADE,Med Marijuana Opt Prem Cultiv-HG LTD
108,15,"4800 Oakland St, Denver, CO 80239, USA",4800 N OAKLAND ST DENVER CO,39.7844155,-104.8503416,Retail Marijuana Inf Prod Mfg,GUARANTEED GREEN LTD,OLIO,Retail Marijuana Inf Prod Mfg-GUARANTEED GREEN LTD
109,15,"4800 Oakland St, Denver, CO 80239, USA",4800 N OAKLAND ST DENVER CO,39.7844155,-104.8503416,Med Marijuana Inf Prod Manuf,GUARANTEED GREEN LTD,OLIO,Med Marijuana Inf Prod Manuf-GUARANTEED GREEN LTD
110,15,"4800 Oakland St, Denver, CO 80239, USA",4800 N OAKLAND ST DENVER CO,39.7844155,-104.8503416,Retail Marij Opt. Prem. Cultiv,GUARANTEED GREEN LTD,OLIO,Retail Marij Opt. Prem. Cultiv-GUARANTEED GREEN LTD
111,15,"4800 Oakland St, Denver, CO 80239, USA",4800 N OAKLAND ST DENVER CO,39.7844155,-104.8503416,Med Marijuana Opt Prem Cultiv,GUARANTEED GREEN LTD,OLIO,Med Marijuana Opt Prem Cultiv-GUARANTEED GREEN LTD
142,16,"2426 S Federal Blvd, Denver, CO 80219, USA",2426 S FEDERAL BLVD DENVER CO,39.6725537,-105.0246248,Medical Marijuana Center,"TWOG-FEDERAL, LLC",BUDDY BOY,"Medical Marijuana Center-TWOG-FEDERAL, LLC"
143,16,"2426 S Federal Blvd, Denver, CO 80219, USA",2426 S FEDERAL BLVD DENVER CO,39.6725537,-105.0246248,Retail Marijuana Store,"TWO G-FEDERAL, LLC",BUDDY BOY,"Retail Marijuana Store-TWO G-FEDERAL, LLC"
146,17,"4690 Brighton Blvd, Denver, CO 80216, USA",4690 N BRIGHTON BLVD DENVER CO,39.7818046,-104.9664941,Retail Marijuana Store,"COLORADO HEALTH CONSULTANTS, LLC",STARBUDS,"Retail Marijuana Store-COLORADO HEALTH CONSULTANTS, LLC"
147,18,"1197 S Bannock St, Denver, CO 80223, USA",1197 S BANNOCK ST DENVER CO,39.6949849,-104.9904787,Retail Marij Opt. Prem. Cultiv,LEAN LLC,"LEAN, LLC",Retail Marij Opt. Prem. Cultiv-LEAN LLC
148,19,"4095 Jackson St, Denver, CO 80216, USA",4095 N JACKSON ST DENVER CO,39.7736715,-104.9433116,Retail Marijuana Store,"4095 SHELTER, LLC",EVERBLOOM,"Retail Marijuana Store-4095 SHELTER, LLC"
149,20,"1075 S Jason St, Denver, CO 80223, USA",1075 S JASON ST DENVER CO,39.6973825,-104.9993569,Med Marijuana Inf Prod Manuf,"JVT ENTERPRISES, INC.",SPACE LAB,"Med Marijuana Inf Prod Manuf-JVT ENTERPRISES, INC."
150,20,"1075 S Jason St, Denver, CO 80223, USA",1075 S JASON ST DENVER CO,39.6973825,-104.9993569,Med Marijuana Opt Prem Cultiv,"JVT ENTERPRISES, INC.",COLORADO CANNABIS CONNECTION,"Med Marijuana Opt Prem Cultiv-JVT ENTERPRISES, INC."
151,20,"1075 S Jason St, Denver, CO 80223, USA",1075 S JASON ST DENVER CO,39.6973825,-104.9993569,Retail Marij Opt. Prem. Cultiv,"JVT ENTERPRISES, INC.",COLORADO CANNABIS CONNECTION,"Retail Marij Opt. Prem. Cultiv-JVT ENTERPRISES, INC."
158,21,"3814 Walnut St, Denver, CO 80205, USA",3814  WALNUT ST DENVER CO,39.7703141,-104.9712528,Retail Marij Opt. Prem. Cultiv,"TWOG-WALNUT, LLC",BUDDY BOY,"Retail Marij Opt. Prem. Cultiv-TWOG-WALNUT, LLC"
159,21,"3814 Walnut St, Denver, CO 80205, USA",3814  WALNUT ST DENVER CO,39.7703141,-104.9712528,Medical Marijuana Center,"TWOG-WALNUT, LLC",BUDDY BOY,"Medical Marijuana Center-TWOG-WALNUT, LLC"
160,21,"3814 Walnut St, Denver, CO 80205, USA",3814  WALNUT ST DENVER CO,39.7703141,-104.9712528,Retail Marijuana Store,"TWOG-WALNUT, LLC",BUDDY BOY,"Retail Marijuana Store-TWOG-WALNUT, LLC"
161,21,"3814 Walnut St, Denver, CO 80205, USA",3814  WALNUT ST DENVER CO,39.7703141,-104.9712528,Med Marijuana Opt Prem Cultiv,"TWOG-WALNUT, LLC",BUDDY BOY,"Med Marijuana Opt Prem Cultiv-TWOG-WALNUT, LLC"
174,22,"2704 W 8th Ave, Denver, CO 80204, USA",2704 W 8th AVE Denver CO,39.7291222,-105.0205159,Retail Marijuana Inf Prod Mfg,ROC LABS LLC,STANLEY BROTHERS,Retail Marijuana Inf Prod Mfg-ROC LABS LLC
175,23,"5353 Joliet St, Denver, CO 80239, USA",5353 N JOLIET ST DENVER CO,39.7941957,-104.8619712,Med Marijuana Opt Prem Cultiv,"BIG TOE, LLC",FINE TREES,"Med Marijuana Opt Prem Cultiv-BIG TOE, LLC"
176,24,"Quivas St, Denver, CO, USA",400 N QUIVAS ST DENVER CO,39.7801532,-105.0080066,Med Marijuana Opt Prem Cultiv,KGBI COLORADO LLC,SENSE OF HEALING,Med Marijuana Opt Prem Cultiv-KGBI COLORADO LLC
178,24,"Quivas St, Denver, CO, USA",400 N QUIVAS ST DENVER CO,39.7801532,-105.0080066,Retail Marij Opt. Prem. Cultiv,KGBI COLORADO LLC,SENSE OF HEALING,Retail Marij Opt. Prem. Cultiv-KGBI COLORADO LLC
179,24,"Quivas St, Denver, CO, USA",400 N QUIVAS ST DENVER CO,39.7801532,-105.0080066,Med Marijuana Inf Prod Manuf,KGBI COLORADO LLC,SENSE OF HEALING,Med Marijuana Inf Prod Manuf-KGBI COLORADO LLC
192,25,"2675 S Santa Fe Dr, Denver, CO 80223, USA",2675 S SANTA FE DR  DENVER CO,39.6684632,-104.9979586,Med Marijuana Opt Prem Cultiv,"HOLLY MEDICINAL SERVICES, LLC",THE CLINIC ON COLORADO,"Med Marijuana Opt Prem Cultiv-HOLLY MEDICINAL SERVICES, LLC"
193,26,"1150 W 5th Ave, Denver, CO 80204, USA",1150 W 5TH AVE DENVER CO,39.7241189,-105.0019974,Med Marijuana Opt Prem Cultiv,"MEDICALLY CORRECT, LLC",INCREDIBLES,"Med Marijuana Opt Prem Cultiv-MEDICALLY CORRECT, LLC"
194,27,"5051 E 41st Ave, Denver, CO 80216, USA",5051 E 41ST AVE DENVER CO,39.7734888,-104.928973,Retail Marijuana Inf Prod Mfg,"COLORADO MANAGEMENT HOLDINGS, INC",CMH,"Retail Marijuana Inf Prod Mfg-COLORADO MANAGEMENT HOLDINGS, INC"
195,27,"5051 E 41st Ave, Denver, CO 80216, USA",5051 E 41ST AVE DENVER CO,39.7734888,-104.928973,Med Marijuana Opt Prem Cultiv,COLORADO MANAGEMENT HOLDINGS.INC,CMH,Med Marijuana Opt Prem Cultiv-COLORADO MANAGEMENT HOLDINGS.INC
196,27,"5051 E 41st Ave, Denver, CO 80216, USA",5051 E 41ST AVE DENVER CO,39.7734888,-104.928973,Retail Marij Opt. Prem. Cultiv,"COLORADO MANAGEMENT HOLDINGS, INC",CMH,"Retail Marij Opt. Prem. Cultiv-COLORADO MANAGEMENT HOLDINGS, INC"
197,27,"5051 E 41st Ave, Denver, CO 80216, USA",5051 E 41ST AVE DENVER CO,39.7734888,-104.928973,Med Marijuana Inf Prod Manuf,"COLORADO MANAGEMENT HOLDINGS, INC",CMH,"Med Marijuana Inf Prod Manuf-COLORADO MANAGEMENT HOLDINGS, INC"
210,28,"755 S Jason St, Denver, CO 80223, USA",755 S JASON ST DENVER CO,39.7028464,-104.9996373,Medical Marijuana Center,"UNIVERSAL HERBS, LLC",UNIVERSAL HERBS,"Medical Marijuana Center-UNIVERSAL HERBS, LLC"
211,28,"755 S Jason St, Denver, CO 80223, USA",755 S JASON ST DENVER CO,39.7028464,-104.9996373,Med Marijuana Opt Prem Cultiv,"ROYAL ASSET MANAGEMENT, LLC",ROYAL RESIN,"Med Marijuana Opt Prem Cultiv-ROYAL ASSET MANAGEMENT, LLC"
212,28,"755 S Jason St, Denver, CO 80223, USA",755 S JASON ST DENVER CO,39.7028464,-104.9996373,Retail Marij Opt. Prem. Cultiv,"ROYAL ASSET MANAGEMENT, LLC",ROYAL RESIN,"Retail Marij Opt. Prem. Cultiv-ROYAL ASSET MANAGEMENT, LLC"
213,28,"755 S Jason St, Denver, CO 80223, USA",755 S JASON ST DENVER CO,39.7028464,-104.9996373,Retail Marijuana Store,"UNIVERSAL HERBS, LLC",UNIVERSAL HERBS,"Retail Marijuana Store-UNIVERSAL HERBS, LLC"
226,29,"5231 Monroe St, Denver, CO 80216, USA",5231 N MONROE ST DENVER CO,39.7925207,-104.94573,Retail Marijuana Inf Prod Mfg,"THCHOCOLATE, LLC",EVOLAB,"Retail Marijuana Inf Prod Mfg-THCHOCOLATE, LLC"
227,29,"5231 Monroe St, Denver, CO 80216, USA",5231 N MONROE ST DENVER CO,39.7925207,-104.94573,Med Marijuana Inf Prod Manuf,THCHOCOLATE LLC,,Med Marijuana Inf Prod Manuf-THCHOCOLATE LLC
230,30,"745 E 6th Ave, Denver, CO 80203, USA",745 E 6TH AVE DENVER CO,39.7258971,-104.9780181,Retail Marijuana Store,"LIGHTSHADE LABS, LLC",LIGHTSHADE,"Retail Marijuana Store-LIGHTSHADE LABS, LLC"
231,31,"4990 Dahlia St, Denver, CO 80216, USA",4990 N Dahlia St Denver CO,39.7860746,-104.9306721,Med Marijuana Inf Prod Manuf,"CONSCIOUS CONFECTIONS II, LLC",NATIVE ROOTS EXTRACT,"Med Marijuana Inf Prod Manuf-CONSCIOUS CONFECTIONS II, LLC"
232,32,"120 S Kalamath St, Denver, CO 80223, USA",120 S KALAMATH ST DENVER CO,39.7144031,-104.9997822,Medical Marijuana Center,"3B-KALAMATH, LLC",BUDDY BOY,"Medical Marijuana Center-3B-KALAMATH, LLC"
233,33,"755 S Federal Blvd, Denver, CO 80219, USA",755 S Federal BLVD Denver CO,39.7029243,-105.0254694,Medical Marijuana Center,"AMERICAN INDUSTRY, LLC",DENVER CLONE STORE,"Medical Marijuana Center-AMERICAN INDUSTRY, LLC"
234,33,"755 S Federal Blvd, Denver, CO 80219, USA",755 S Federal BLVD Denver CO,39.7029243,-105.0254694,Retail Marijuana Store,"AMERICAN INDUSTRY, LLC",DENVER CLONE STORE,"Retail Marijuana Store-AMERICAN INDUSTRY, LLC"
237,34,"1201 W Custer Pl, Denver, CO 80223, USA",1201 W CUSTER PL DENVER CO,39.7068749,-105.0017763,Med Marijuana Opt Prem Cultiv,"2251SB, LLC",,"Med Marijuana Opt Prem Cultiv-2251SB, LLC"
238,35,"4401 E 46th Ave, Denver, CO 80216, USA",4401 E 46th  Denver CO,39.7811727,-104.9362388,Medical Marijuana Center,DELTA-9 DELIGHTS LLC,REEFER MADNESS,Medical Marijuana Center-DELTA-9 DELIGHTS LLC
240,36,"3950 Holly St, Denver, CO 80207, USA",3950 N HOLLY ST DENVER CO,39.7721655,-104.9217749,Med Marijuana Opt Prem Cultiv,"LIGHTSHADE LABS, LLC",LIGHTSHADE,"Med Marijuana Opt Prem Cultiv-LIGHTSHADE LABS, LLC"
241,36,"3950 Holly St, Denver, CO 80207, USA",3950 N HOLLY ST DENVER CO,39.7721655,-104.9217749,Retail Marij Opt. Prem. Cultiv,"LIGHTSHADE LABS, LLC",LIGHTSHADE,"Retail Marij Opt. Prem. Cultiv-LIGHTSHADE LABS, LLC"
242,36,"3950 Holly St, Denver, CO 80207, USA",3950 N HOLLY ST DENVER CO,39.7721655,-104.9217749,Medical Marijuana Center,LIGHTSHADE LABS LLC,LIGHTSHADE,Medical Marijuana Center-LIGHTSHADE LABS LLC
255,37,"4240 Kearney St, Denver, CO 80216, USA",4240 N KEARNEY ST DENVER CO,39.7756937,-104.9169444,Retail Marij Opt. Prem. Cultiv,SWEETWATER PARTNERS LLC,THE PREZ,Retail Marij Opt. Prem. Cultiv-SWEETWATER PARTNERS LLC
256,37,"4240 Kearney St, Denver, CO 80216, USA",4240 N KEARNEY ST DENVER CO,39.7756937,-104.9169444,Med Marijuana Opt Prem Cultiv,SWEETWATER PARTNERS LLC,THE PREZ,Med Marijuana Opt Prem Cultiv-SWEETWATER PARTNERS LLC
259,38,"2020 S Colorado Blvd, Denver, CO 80222, USA",2020 S COLORADO BLVD DENVER CO,39.6797481,-104.9403912,Retail Marijuana Store,HOLLY MEDICINAL SERVICES LLC,THE CLINIC ON COLORADO,Retail Marijuana Store-HOLLY MEDICINAL SERVICES LLC
260,38,"2020 S Colorado Blvd, Denver, CO 80222, USA",2020 S COLORADO BLVD DENVER CO,39.6797481,-104.9403912,Medical Marijuana Center,"HOLLY MEDICINAL SERVICES,LLC",THE CLINIC ON COLORADO,"Medical Marijuana Center-HOLLY MEDICINAL SERVICES,LLC"
263,39,"4850 Jackson St, Denver, CO 80216, USA",4850 N JACKSON ST DENVER CO,39.7848786,-104.9424902,Retail Marij Opt. Prem. Cultiv,"URBAN HEALTH & WELLNESS, INC.",URBAN DISPENSARY,"Retail Marij Opt. Prem. Cultiv-URBAN HEALTH & WELLNESS, INC."
264,39,"4850 Jackson St, Denver, CO 80216, USA",4850 N JACKSON ST DENVER CO,39.7848786,-104.9424902,Med Marijuana Opt Prem Cultiv,URBAN HEALTH & WELLNESS INC,URBAN DISPENSARY,Med Marijuana Opt Prem Cultiv-URBAN HEALTH & WELLNESS INC
267,40,"4805 Kingston St, Denver, CO 80239, USA",4805 N KINGSTON ST DENVER CO,39.783777,-104.8594628,Med Marijuana Opt Prem Cultiv,"VIRGINIA'S KITCHEN, LLC",BLUEKUDU,"Med Marijuana Opt Prem Cultiv-VIRGINIA'S KITCHEN, LLC"
268,40,"4805 Kingston St, Denver, CO 80239, USA",4805 N KINGSTON ST DENVER CO,39.783777,-104.8594628,Retail Marij Opt. Prem. Cultiv,VIRGINIAS KITCHEN LLC,BLUEKUDU,Retail Marij Opt. Prem. Cultiv-VIRGINIAS KITCHEN LLC
269,40,"4805 Kingston St, Denver, CO 80239, USA",4805 N KINGSTON ST DENVER CO,39.783777,-104.8594628,Retail Marijuana Inf Prod Mfg,"VIRGINIA'S KITCHEN, LLC",BLUEKUDU,"Retail Marijuana Inf Prod Mfg-VIRGINIA'S KITCHEN, LLC"
270,40,"4805 Kingston St, Denver, CO 80239, USA",4805 N KINGSTON ST DENVER CO,39.783777,-104.8594628,Med Marijuana Inf Prod Manuf,"VIRGINIA'S KITCHEN, LLC",BLUEKUDU,"Med Marijuana Inf Prod Manuf-VIRGINIA'S KITCHEN, LLC"
283,41,"1301 N Marion St, Denver, CO 80218, USA",1301 N MARION ST DENVER CO,39.7369912,-104.971996,Medical Marijuana Center,ALTERNATIVE MEDICINE ON CAPITOL HILL LLC,,Medical Marijuana Center-ALTERNATIVE MEDICINE ON CAPITOL HILL LLC
284,41,"1301 N Marion St, Denver, CO 80218, USA",1301 N MARION ST DENVER CO,39.7369912,-104.971996,Retail Marijuana Store,ALTERNATIVE MEDICINE ON CAPITOL HILL LLC,,Retail Marijuana Store-ALTERNATIVE MEDICINE ON CAPITOL HILL LLC
287,42,"2191 S Jason St, Denver, CO 80223, USA",2191 S JASON ST DENVER CO,39.6769716,-104.9996251,Med Marijuana Opt Prem Cultiv,"URBANE DEVELOPERS, LLC",,"Med Marijuana Opt Prem Cultiv-URBANE DEVELOPERS, LLC"
288,42,"2191 S Jason St, Denver, CO 80223, USA",2191 S JASON ST DENVER CO,39.6769716,-104.9996251,Retail Marij Opt. Prem. Cultiv,URBANE DEVELOPERS LLC,,Retail Marij Opt. Prem. Cultiv-URBANE DEVELOPERS LLC
289,42,"2191 S Jason St, Denver, CO 80223, USA",2191 S JASON ST DENVER CO,39.6769716,-104.9996251,Med Marijuana Inf Prod Manuf,URBANE DEVELOPERS LLC,,Med Marijuana Inf Prod Manuf-URBANE DEVELOPERS LLC
290,42,"2191 S Jason St, Denver, CO 80223, USA",2191 S JASON ST DENVER CO,39.6769716,-104.9996251,Retail Marijuana Inf Prod Mfg,URBANE DEVELOPERS LLC,,Retail Marijuana Inf Prod Mfg-URBANE DEVELOPERS LLC
303,43,"4785 Elati St, Denver, CO 80216, USA",4785 N ELATI ST DENVER CO,39.7833694,-104.9930947,Med Marijuana Inf Prod Manuf,FRONTIER MANUFACTURING AND LOGISTICS LLC,FRONTIER M&L,Med Marijuana Inf Prod Manuf-FRONTIER MANUFACTURING AND LOGISTICS LLC
304,44,"4935 York St, Denver, CO 80216, USA",4935 N York ST Denver CO,39.7855193,-104.9597114,Retail Marij Opt. Prem. Cultiv,RIVERROCK LLC,RIVERROCK,Retail Marij Opt. Prem. Cultiv-RIVERROCK LLC
305,45,"2057 S Broadway, Denver, CO 80210, USA",2057 S Broadway  Denver CO,39.6793371,-104.9878913,Med Marijuana Opt Prem Cultiv,E2T2 LLC,DIEGO PELLICER,Med Marijuana Opt Prem Cultiv-E2T2 LLC
306,46,"2042 S Bannock St, Denver, CO 80223, USA",2042 S BANNOCK ST DENVER CO,39.679316,-104.9897484,Retail Marijuana Store,SUMMIT WELLNESS,DEN-REC DENVER RECREATIONAL DISPENSARY,Retail Marijuana Store-SUMMIT WELLNESS
307,46,"2042 S Bannock St, Denver, CO 80223, USA",2042 S BANNOCK ST DENVER CO,39.679316,-104.9897484,Medical Marijuana Center,SUMMIT WELLNESS,DEN-REC DENVER RECREATIONAL DISPENSARY,Medical Marijuana Center-SUMMIT WELLNESS
308,46,"2042 S Bannock St, Denver, CO 80223, USA",2042 S BANNOCK ST DENVER CO,39.679316,-104.9897484,Med Marijuana Opt Prem Cultiv,SUMMIT WELLNESS,DENREC DENVER RECREATIONAL DISPENSARY,Med Marijuana Opt Prem Cultiv-SUMMIT WELLNESS
309,46,"2042 S Bannock St, Denver, CO 80223, USA",2042 S BANNOCK ST DENVER CO,39.679316,-104.9897484,Retail Marij Opt. Prem. Cultiv,SUMMIT WELLNESS,DEN-REC DENVER RECREATIONAL DISPENSARY,Retail Marij Opt. Prem. Cultiv-SUMMIT WELLNESS
322,47,"4625 E Colfax Ave, Denver, CO 80220, USA",4625 E COLFAX AVE DENVER CO,39.7403739,-104.9331588,Medical Marijuana Center,4625 EAST COLFAX LLC,THE CLINIC ON COLFAX,Medical Marijuana Center-4625 EAST COLFAX LLC
323,47,"4625 E Colfax Ave, Denver, CO 80220, USA",4625 E COLFAX AVE DENVER CO,39.7403739,-104.9331588,Retail Marijuana Store,"4625 EAST COLFAX, LLC",THE CLINIC ON COLFAX,"Retail Marijuana Store-4625 EAST COLFAX, LLC"
326,49,"4600 Ironton St, Denver, CO 80239, USA",4600 N IRONTON ST DENVER CO,39.7804258,-104.8625185,Retail Marij Opt. Prem. Cultiv,"COLORADO KIND HOLDINGS, LLC",COLORADO KIND,"Retail Marij Opt. Prem. Cultiv-COLORADO KIND HOLDINGS, LLC"
327,49,"4600 Ironton St, Denver, CO 80239, USA",4600 N IRONTON ST DENVER CO,39.7804258,-104.8625185,Retail Marij Opt. Prem. Cultiv,"3B-38, LLC",BUDDY BOY,"Retail Marij Opt. Prem. Cultiv-3B-38, LLC"
328,49,"4600 Ironton St, Denver, CO 80239, USA",4600 N IRONTON ST DENVER CO,39.7804258,-104.8625185,Retail Marij Opt. Prem. Cultiv,"FRESH BAKED, LLC",FRESH BAKED,"Retail Marij Opt. Prem. Cultiv-FRESH BAKED, LLC"
329,49,"4600 Ironton St, Denver, CO 80239, USA",4600 N IRONTON ST DENVER CO,39.7804258,-104.8625185,Med Marijuana Opt Prem Cultiv,"3B-38, LLC",BUDDY BOY,"Med Marijuana Opt Prem Cultiv-3B-38, LLC"
342,50,"N Mariposa St, Denver, CO, USA",225 N MARIPOSA ST DENVER CO,39.9363392,-105.00246,Retail Marijuana Inf Prod Mfg,"LOVE'S OVEN, LLC",LOVES OVEN,"Retail Marijuana Inf Prod Mfg-LOVE'S OVEN, LLC"
343,50,"N Mariposa St, Denver, CO, USA",225 N MARIPOSA ST DENVER CO,39.9363392,-105.00246,Med Marijuana Inf Prod Manuf,"LOVE'S OVEN, LLC",,"Med Marijuana Inf Prod Manuf-LOVE'S OVEN, LLC"
347,52,"9782 E Girard Ave, Denver, CO 80231, USA",9782 E GIRARD AVE DENVER CO,39.6539121,-104.873806,Retail Marijuana Inf Prod Mfg,THOMASH LLC,ALCHEMY FOOD CO,Retail Marijuana Inf Prod Mfg-THOMASH LLC
348,53,"2059 W 9th Ave, Denver, CO 80204, USA",2059 W 9TH AVE DENVER CO,39.7312738,-105.0124127,Medical Marijuana Center,A CUT OFF THE TOP MEDICAL MARIJUANA LLC,,Medical Marijuana Center-A CUT OFF THE TOP MEDICAL MARIJUANA LLC
349,53,"2059 W 9th Ave, Denver, CO 80204, USA",2059 W 9TH AVE DENVER CO,39.7312738,-105.0124127,Med Marijuana Opt Prem Cultiv,A CUT OFF THE TOP MEDICAL MARIJUANA LLC,,Med Marijuana Opt Prem Cultiv-A CUT OFF THE TOP MEDICAL MARIJUANA LLC
350,53,"2059 W 9th Ave, Denver, CO 80204, USA",2059 W 9TH AVE DENVER CO,39.7312738,-105.0124127,Retail Marij Opt. Prem. Cultiv,"THE CUT OFF THE TOP MEDICAL MARIJUANA, LLC",,"Retail Marij Opt. Prem. Cultiv-THE CUT OFF THE TOP MEDICAL MARIJUANA, LLC"
351,53,"2059 W 9th Ave, Denver, CO 80204, USA",2059 W 9TH AVE DENVER CO,39.7312738,-105.0124127,Retail Marijuana Store,"A CUT OFF THE TOP MEDICAL MARIJUANA, LLC",,"Retail Marijuana Store-A CUT OFF THE TOP MEDICAL MARIJUANA, LLC"
364,54,"5200 Smith Rd, Denver, CO 80216, USA",5200 E Smith  Denver CO,39.7739959,-104.925851,Med Marijuana Opt Prem Cultiv,"GREEN FIELDS, LLC",GREENFIELDS,"Med Marijuana Opt Prem Cultiv-GREEN FIELDS, LLC"
365,54,"5200 Smith Rd, Denver, CO 80216, USA",5200 E Smith  Denver CO,39.7739959,-104.925851,Retail Marij Opt. Prem. Cultiv,GREEN FIELDS LLC,GREENFIELDS,Retail Marij Opt. Prem. Cultiv-GREEN FIELDS LLC
368,55,"Pearl St, Denver, CO 80203, USA",4945 N PEARL ST DENVER CO,39.7320356,-104.9798384,Med Marijuana Inf Prod Manuf,"CC BRANDS, LLC",CHEEBA CHEWS,"Med Marijuana Inf Prod Manuf-CC BRANDS, LLC"
369,55,"Pearl St, Denver, CO 80203, USA",4945 N PEARL ST DENVER CO,39.7320356,-104.9798384,Retail Marijuana Inf Prod Mfg,"CC BRANDS, LLC",CHEEBA CHEWS,"Retail Marijuana Inf Prod Mfg-CC BRANDS, LLC"
372,56,"777 Canosa Ct, Denver, CO 80204, USA",777 N Canosa CT Denver CO,39.7290235,-105.0202192,Med Marijuana Opt Prem Cultiv,"CANOSA PROPERTY INVESTMENTS, LLC",,"Med Marijuana Opt Prem Cultiv-CANOSA PROPERTY INVESTMENTS, LLC"
373,56,"777 Canosa Ct, Denver, CO 80204, USA",777 N Canosa CT Denver CO,39.7290235,-105.0202192,Retail Marij Opt. Prem. Cultiv,"CANOSA PROPERTY INVESTMENTS, LLC",,"Retail Marij Opt. Prem. Cultiv-CANOSA PROPERTY INVESTMENTS, LLC"
376,57,"4570 Jason St, Denver, CO 80211, USA",4570 N JASON ST DENVER CO,39.7795587,-104.9991665,Med Marijuana Opt Prem Cultiv,"METRO DENVER TELLURIDE HEALTH CENTER, LLC",THE HEMP CENTER,"Med Marijuana Opt Prem Cultiv-METRO DENVER TELLURIDE HEALTH CENTER, LLC"
377,57,"4570 Jason St, Denver, CO 80211, USA",4570 N JASON ST DENVER CO,39.7795587,-104.9991665,Med Marijuana Opt Prem Cultiv,KIRKE LLC,THE HEMP CENTER COLORADO SPRINGS,Med Marijuana Opt Prem Cultiv-KIRKE LLC
380,58,"4012 W 38th Ave, Denver, CO 80212, USA",4012 W 38TH AVE DENVER CO,39.7692773,-105.0396581,Retail Marijuana Store,"3B-38, LLC",BUDDY BOY,"Retail Marijuana Store-3B-38, LLC"
381,58,"4012 W 38th Ave, Denver, CO 80212, USA",4012 W 38TH AVE DENVER CO,39.7692773,-105.0396581,Medical Marijuana Center,"3B-38, LLC",BUDDY BOY,"Medical Marijuana Center-3B-38, LLC"
384,59,"2268 S Delaware St, Denver, CO 80223, USA",2268 S DELAWARE ST DENVER CO,39.6754764,-104.9920421,Medical Marijuana Center,"SMOKED COLORADO, INC.",SMOKED,"Medical Marijuana Center-SMOKED COLORADO, INC."
385,59,"2268 S Delaware St, Denver, CO 80223, USA",2268 S DELAWARE ST DENVER CO,39.6754764,-104.9920421,Retail Marijuana Store,"SMOKED COLORADO, INC.",MIGHTY TREE,"Retail Marijuana Store-SMOKED COLORADO, INC."
388,60,"1235 S Huron St, Denver, CO 80223, USA",1235 S HURON ST DENVER CO,39.6942032,-104.9971659,Med Marijuana Inf Prod Manuf,"ALLGREENS, LLC",,"Med Marijuana Inf Prod Manuf-ALLGREENS, LLC"
389,60,"1235 S Huron St, Denver, CO 80223, USA",1235 S HURON ST DENVER CO,39.6942032,-104.9971659,Med Marijuana Opt Prem Cultiv,"ALLGREENS, LLC",,"Med Marijuana Opt Prem Cultiv-ALLGREENS, LLC"
390,60,"1235 S Huron St, Denver, CO 80223, USA",1235 S HURON ST DENVER CO,39.6942032,-104.9971659,Retail Marijuana Inf Prod Mfg,"ALLGREENS, LLC",,"Retail Marijuana Inf Prod Mfg-ALLGREENS, LLC"
397,62,"2563 15th St, Denver, CO 80211, USA",2563  15TH ST DENVER CO,39.7582707,-105.011317,Medical Marijuana Center,"MHFS, LLC",GOOD CHEMISTRY,"Medical Marijuana Center-MHFS, LLC"
398,63,"7870 W Quincy Ave, Littleton, CO 80123, USA",7870 W QUINCY AVE DENVER CO,39.6382756,-105.084793,Retail Marijuana Store,"RJJ SHERIDAN, LLC",NATIVE ROOTS LITTLETON,"Retail Marijuana Store-RJJ SHERIDAN, LLC"
399,63,"7870 W Quincy Ave, Littleton, CO 80123, USA",7870 W QUINCY AVE DENVER CO,39.6382756,-105.084793,Medical Marijuana Center,"RJJ SHERIDAN, LLC",NATIVE ROOTS LITTLETON,"Medical Marijuana Center-RJJ SHERIDAN, LLC"
402,64,"1395 S Acoma St, Denver, CO 80223, USA",1395 S ACOMA ST DENVER CO,39.6914513,-104.9888812,Retail Marij Opt. Prem. Cultiv,"DOCTOR'S ORDERS, LLC",DOCTOR'S ORDERS,"Retail Marij Opt. Prem. Cultiv-DOCTOR'S ORDERS, LLC"
403,64,"1395 S Acoma St, Denver, CO 80223, USA",1395 S ACOMA ST DENVER CO,39.6914513,-104.9888812,Med Marijuana Opt Prem Cultiv,DOCTORS ORDERS LLC,DOCTORS ORDERS,Med Marijuana Opt Prem Cultiv-DOCTORS ORDERS LLC
406,65,"4140 York St, Denver, CO 80216, USA",4140 N YORK ST DENVER CO,39.7751694,-104.9593481,Med Marijuana Inf Prod Manuf,"OVERMOUNT, LLC",,"Med Marijuana Inf Prod Manuf-OVERMOUNT, LLC"
407,65,"4140 York St, Denver, CO 80216, USA",4140 N YORK ST DENVER CO,39.7751694,-104.9593481,Retail Marijuana Inf Prod Mfg,"OVERMOUNT, LLC",,"Retail Marijuana Inf Prod Mfg-OVERMOUNT, LLC"
408,65,"4140 York St, Denver, CO 80216, USA",4140 N YORK ST DENVER CO,39.7751694,-104.9593481,Med Marijuana Opt Prem Cultiv,"OVERMOUNT, LLC",,"Med Marijuana Opt Prem Cultiv-OVERMOUNT, LLC"
415,66,"3770 Paris St, Denver, CO 80239, USA",3770 N PARIS ST DENVER CO,39.7693675,-104.8482894,Retail Marijuana Inf Prod Mfg,"PEAK HOLDINGS GROUP, LLC",PEAK,"Retail Marijuana Inf Prod Mfg-PEAK HOLDINGS GROUP, LLC"
416,66,"3770 Paris St, Denver, CO 80239, USA",3770 N PARIS ST DENVER CO,39.7693675,-104.8482894,Retail Marijuana Inf Prod Mfg,BETTER BAKED LLC,CAFE MARLEY,Retail Marijuana Inf Prod Mfg-BETTER BAKED LLC
417,66,"3770 Paris St, Denver, CO 80239, USA",3770 N PARIS ST DENVER CO,39.7693675,-104.8482894,Med Marijuana Inf Prod Manuf,BETTER BAKED LLC,,Med Marijuana Inf Prod Manuf-BETTER BAKED LLC
418,66,"3770 Paris St, Denver, CO 80239, USA",3770 N PARIS ST DENVER CO,39.7693675,-104.8482894,Med Marijuana Inf Prod Manuf,"PEAK HOLDING GROUP, LLC",PEAK,"Med Marijuana Inf Prod Manuf-PEAK HOLDING GROUP, LLC"
419,66,"3770 Paris St, Denver, CO 80239, USA",3770 N PARIS ST DENVER CO,39.7693675,-104.8482894,Retail Marij Opt. Prem. Cultiv,"PEAK HOLDINGS GROUP, LLC",PEAK,"Retail Marij Opt. Prem. Cultiv-PEAK HOLDINGS GROUP, LLC"
440,67,"4935 York St, Denver, CO 80216, USA",4935 N YORK ST DENVER CO,39.7855193,-104.9597114,Medical Marijuana Center,"RIVERROCK, LLC",RIVERROCK WELLNESS,"Medical Marijuana Center-RIVERROCK, LLC"
441,67,"4935 York St, Denver, CO 80216, USA",4935 N YORK ST DENVER CO,39.7855193,-104.9597114,Retail Marijuana Store,RIVERROCK LLC,RIVERROCK,Retail Marijuana Store-RIVERROCK LLC
442,67,"4935 York St, Denver, CO 80216, USA",4935 N YORK ST DENVER CO,39.7855193,-104.9597114,Med Marijuana Opt Prem Cultiv,RIVERROCK LLC,RIVERROCK WELLNESS,Med Marijuana Opt Prem Cultiv-RIVERROCK LLC
449,69,"1136 Yuma Ct, Denver, CO 80204, USA",1136 N YUMA CT DENVER CO,39.7343123,-105.0143072,Med Marijuana Opt Prem Cultiv,YUMA WAY LLC,1136 YUMA,Med Marijuana Opt Prem Cultiv-YUMA WAY LLC
450,69,"1136 Yuma Ct, Denver, CO 80204, USA",1136 N YUMA CT DENVER CO,39.7343123,-105.0143072,Retail Marijuana Store,"YUMA WAY, LLC",1136 YUMA,"Retail Marijuana Store-YUMA WAY, LLC"
451,69,"1136 Yuma Ct, Denver, CO 80204, USA",1136 N YUMA CT DENVER CO,39.7343123,-105.0143072,Retail Marij Opt. Prem. Cultiv,"YUMA WAY, LLC",1136 YUMA,"Retail Marij Opt. Prem. Cultiv-YUMA WAY, LLC"
458,71,"Wyandot St, Denver, CO, USA",231 N WYANDOT ST DENVER CO,39.7777652,-105.0146377,Retail Marij Opt. Prem. Cultiv,ALTERNATIVE MEDICINE ON CAPITOL HILL LLC,,Retail Marij Opt. Prem. Cultiv-ALTERNATIVE MEDICINE ON CAPITOL HILL LLC
459,71,"Wyandot St, Denver, CO, USA",231 N WYANDOT ST DENVER CO,39.7777652,-105.0146377,Med Marijuana Opt Prem Cultiv,ALTERNATIVE MEDICINE ON CAPITOL HILL LLC,,Med Marijuana Opt Prem Cultiv-ALTERNATIVE MEDICINE ON CAPITOL HILL LLC
462,73,"10625 E 51st Ave, Denver, CO 80239, USA",10625 E 51st AVE Denver CO,39.790871,-104.8645253,Retail Marij Opt. Prem. Cultiv,"SAPPHIRE POINT GROUP, LLC",,"Retail Marij Opt. Prem. Cultiv-SAPPHIRE POINT GROUP, LLC"
463,73,"10625 E 51st Ave, Denver, CO 80239, USA",10625 E 51st AVE Denver CO,39.790871,-104.8645253,Retail Marijuana Store,"SHRED INVESTMENTS, LLC",HIGH WEST CANNABIS,"Retail Marijuana Store-SHRED INVESTMENTS, LLC"
466,74,"1828 S Bannock St, Denver, CO 80223, USA",1828 S BANNOCK ST DENVER CO,39.683411,-104.989611,Retail Marij Opt. Prem. Cultiv,STONE T.M.C LLC,THE STONE DISPENSARY,Retail Marij Opt. Prem. Cultiv-STONE T.M.C LLC
467,74,"1828 S Bannock St, Denver, CO 80223, USA",1828 S BANNOCK ST DENVER CO,39.683411,-104.989611,Med Marijuana Opt Prem Cultiv,"STONE T. M. C., LLC",THE STONE DISPENSARY,"Med Marijuana Opt Prem Cultiv-STONE T. M. C., LLC"
470,76,"4696 Glencoe St, Denver, CO 80216, USA",4696 N GLENCOE ST DENVER CO,39.7810091,-104.9255224,Retail Marijuana Inf Prod Mfg,"SMART CARE, LLC",SMART CARE EXTRACTS,"Retail Marijuana Inf Prod Mfg-SMART CARE, LLC"
471,77,"1755 S Broadway, Denver, CO 80210, USA",1755 S BROADWAY  DENVER CO,39.6847127,-104.9877515,Medical Marijuana Center,"BACK TO THE GARDEN HEALTH & WELLNESS CENTER, LLC.",BACK TO THE GARDEN,"Medical Marijuana Center-BACK TO THE GARDEN HEALTH & WELLNESS CENTER, LLC."
472,77,"1755 S Broadway, Denver, CO 80210, USA",1755 S BROADWAY  DENVER CO,39.6847127,-104.9877515,Retail Marijuana Store,BACK TO THE GARDEN HEALTH & WELLNESS CENTER LLC,,Retail Marijuana Store-BACK TO THE GARDEN HEALTH & WELLNESS CENTER LLC
476,79,"4242 Elizabeth St, Denver, CO 80216, USA",4242 N ELIZABETH ST DENVER CO,39.7758847,-104.9561345,Med Marijuana Inf Prod Manuf,"VENTURE PRODUCT CONSULTING, LLC",RIZE,"Med Marijuana Inf Prod Manuf-VENTURE PRODUCT CONSULTING, LLC"
477,79,"4242 Elizabeth St, Denver, CO 80216, USA",4242 N ELIZABETH ST DENVER CO,39.7758847,-104.9561345,Retail Marijuana Inf Prod Mfg,"VENTURE PRODUCT CONSULTING, LLC",RIZE,"Retail Marijuana Inf Prod Mfg-VENTURE PRODUCT CONSULTING, LLC"
492,80,"2323 S Lipan St, Denver, CO 80223, USA",2323 S LIPAN ST DENVER CO,39.6741962,-105.0021415,Retail Marij Opt. Prem. Cultiv,"DOCTORS ORDERS, LLC",DOCTOR'S ORDERS,"Retail Marij Opt. Prem. Cultiv-DOCTORS ORDERS, LLC"
495,81,"330 E Colfax Ave, Denver, CO 80203, USA",330 E COLFAX AVE DENVER CO,39.7398235,-104.982628,Retail Marijuana Store,SWEETWATER PARTNERS LLC,GOOD CHEMISTRY,Retail Marijuana Store-SWEETWATER PARTNERS LLC
496,81,"330 E Colfax Ave, Denver, CO 80203, USA",330 E COLFAX AVE DENVER CO,39.7398235,-104.982628,Medical Marijuana Center,"SWEETWATER PARTNERS, LLC",GOOD CHEMISTRY,"Medical Marijuana Center-SWEETWATER PARTNERS, LLC"
499,82,"4550 Jackson St, Denver, CO 80216, USA",4550 N JACKSON ST DENVER CO,39.7793899,-104.9426271,Retail Marij Opt. Prem. Cultiv,"TREATMENTS UNLIMITED, LLC",ALTITUDE EAST,"Retail Marij Opt. Prem. Cultiv-TREATMENTS UNLIMITED, LLC"
500,82,"4550 Jackson St, Denver, CO 80216, USA",4550 N JACKSON ST DENVER CO,39.7793899,-104.9426271,Med Marijuana Opt Prem Cultiv,"TREATMENTS UNLIMITED, LLC",ALTITUDE EAST,"Med Marijuana Opt Prem Cultiv-TREATMENTS UNLIMITED, LLC"
503,83,"1930 E 40th Ave, Denver, CO 80205, USA",1930 E 40th AVE Denver CO,39.7727566,-104.9639155,Retail Marij Opt. Prem. Cultiv,"ALTITUDE WELLNESS CENTER, LLC",NATURE'S HERBS & WELLNESS DTC,"Retail Marij Opt. Prem. Cultiv-ALTITUDE WELLNESS CENTER, LLC"
504,84,"1131 S Bannock St, Denver, CO 80223, USA",1131 S BANNOCK ST DENVER CO,39.696064,-104.990467,Med Marijuana Opt Prem Cultiv,"ALTITUDE WELLNESS CENTER, LLC",NATURE'S HERBS AND WELLENESS DTC,"Med Marijuana Opt Prem Cultiv-ALTITUDE WELLNESS CENTER, LLC"
508,85,"10555 E 45th Ave, Denver, CO 80239, USA",10555 E 45TH AVE DENVER CO,39.7795275,-104.8645385,Medical Marijuana Center,"RD INDUSTRIES II, LLC",HOUSE OF DANKNESS,"Medical Marijuana Center-RD INDUSTRIES II, LLC"
509,85,"10555 E 45th Ave, Denver, CO 80239, USA",10555 E 45TH AVE DENVER CO,39.7795275,-104.8645385,Med Marijuana Opt Prem Cultiv,"R.D. INDUSTRIES II, LLC",HOUSE OF DANKNESS,"Med Marijuana Opt Prem Cultiv-R.D. INDUSTRIES II, LLC"
510,85,"10555 E 45th Ave, Denver, CO 80239, USA",10555 E 45TH AVE DENVER CO,39.7795275,-104.8645385,Retail Marijuana Inf Prod Mfg,"R.D. INDUSTRIES, LLC",,"Retail Marijuana Inf Prod Mfg-R.D. INDUSTRIES, LLC"
511,85,"10555 E 45th Ave, Denver, CO 80239, USA",10555 E 45TH AVE DENVER CO,39.7795275,-104.8645385,Retail Marij Opt. Prem. Cultiv,R.D. INDUSTRIES LLC,,Retail Marij Opt. Prem. Cultiv-R.D. INDUSTRIES LLC
512,85,"10555 E 45th Ave, Denver, CO 80239, USA",10555 E 45TH AVE DENVER CO,39.7795275,-104.8645385,Med Marijuana Inf Prod Manuf,"R.D. INDUSTRIES, LLC",,"Med Marijuana Inf Prod Manuf-R.D. INDUSTRIES, LLC"
533,87,"4300 Forest St, Denver, CO 80216, USA",4300 N FOREST ST DENVER CO,39.7769306,-104.9265656,Med Marijuana Opt Prem Cultiv,"EC LABS, LLC",ENDOCANNA,"Med Marijuana Opt Prem Cultiv-EC LABS, LLC"
534,87,"4300 Forest St, Denver, CO 80216, USA",4300 N FOREST ST DENVER CO,39.7769306,-104.9265656,Med Marijuana Inf Prod Manuf,"EC LABS, LLC",ENDOCANNA,"Med Marijuana Inf Prod Manuf-EC LABS, LLC"
535,87,"4300 Forest St, Denver, CO 80216, USA",4300 N FOREST ST DENVER CO,39.7769306,-104.9265656,Retail Marijuana Inf Prod Mfg,"EC LABS, LLC",ENDOCANNA; BETTER CONCENTRATES,"Retail Marijuana Inf Prod Mfg-EC LABS, LLC"
536,87,"4300 Forest St, Denver, CO 80216, USA",4300 N FOREST ST DENVER CO,39.7769306,-104.9265656,Retail Marij Opt. Prem. Cultiv,"EC LABS, LLC",ENDOCANNA,"Retail Marij Opt. Prem. Cultiv-EC LABS, LLC"
549,88,"4735 Oakland St, Denver, CO 80239, USA",4735 N OAKLAND ST DENVER CO,39.7833184,-104.8512081,Med Marijuana Opt Prem Cultiv,"GREEN LIFE SOLUTIONS, LLC",GREEN TREE MEDICINALS,"Med Marijuana Opt Prem Cultiv-GREEN LIFE SOLUTIONS, LLC"
550,89,"3835 Elm St, Denver, CO 80207, USA",3835 N ELM ST DENVER CO,39.7698867,-104.9298508,Retail Marij Opt. Prem. Cultiv,"JGB VENTURES, LLC",DANK,"Retail Marij Opt. Prem. Cultiv-JGB VENTURES, LLC"
551,89,"3835 Elm St, Denver, CO 80207, USA",3835 N ELM ST DENVER CO,39.7698867,-104.9298508,Med Marijuana Opt Prem Cultiv,"JGB VENTURES, LLC","DANK, LLC","Med Marijuana Opt Prem Cultiv-JGB VENTURES, LLC"
552,89,"3835 Elm St, Denver, CO 80207, USA",3835 N ELM ST DENVER CO,39.7698867,-104.9298508,Medical Marijuana Center,"JGB VENTURES, LLC",DANK,"Medical Marijuana Center-JGB VENTURES, LLC"
559,90,"910 16th St Mall, Denver, CO 80202, USA",910  16TH ST DENVER CO,39.7466361,-104.9943582,Retail Marijuana Store,"ALTERNATIVE MEDICINE ON THE MALL, LLC",NATIVE ROOTS SPEER,"Retail Marijuana Store-ALTERNATIVE MEDICINE ON THE MALL, LLC"
560,90,"910 16th St Mall, Denver, CO 80202, USA",910  16TH ST DENVER CO,39.7466361,-104.9943582,Medical Marijuana Center,"ALTERNATIVE MEDICINE ON THE MALL, LLC",NATIVE ROOTS SPEER,"Medical Marijuana Center-ALTERNATIVE MEDICINE ON THE MALL, LLC"
563,91,"5156 N Clarkson St, Denver, CO 80205, USA",5156 N CLARKSON ST DENVER CO,39.7546312,-104.9769565,Med Marijuana Inf Prod Manuf,"CLIINTEL CAPITAL GROUP, LLC",CLEAR COLORADO GROUP,"Med Marijuana Inf Prod Manuf-CLIINTEL CAPITAL GROUP, LLC"
564,91,"5156 N Clarkson St, Denver, CO 80205, USA",5156 N CLARKSON ST DENVER CO,39.7546312,-104.9769565,Retail Marijuana Inf Prod Mfg,"CLIINTEL CAPITAL GROUP, LLC",CLEAR COLORADO GROUP,"Retail Marijuana Inf Prod Mfg-CLIINTEL CAPITAL GROUP, LLC"
565,91,"5156 N Clarkson St, Denver, CO 80205, USA",5156 N CLARKSON ST DENVER CO,39.7546312,-104.9769565,Retail Marij Opt. Prem. Cultiv,SKL HOLDINGS III LLC,SKL HOLDINGS III LLC,Retail Marij Opt. Prem. Cultiv-SKL HOLDINGS III LLC
572,92,"2568 S Broadway, Denver, CO 80210, USA",2568 S BROADWAY  DENVER CO,39.6700384,-104.9873064,Retail Marij Opt. Prem. Cultiv,"HERBAL ALTERNATIVES, LLC",NEW BROADSTERDAM,"Retail Marij Opt. Prem. Cultiv-HERBAL ALTERNATIVES, LLC"
573,92,"2568 S Broadway, Denver, CO 80210, USA",2568 S BROADWAY  DENVER CO,39.6700384,-104.9873064,Med Marijuana Opt Prem Cultiv,"HERBAL ALTERNATIVES, LLC",NEW BROADSTERDAM,"Med Marijuana Opt Prem Cultiv-HERBAL ALTERNATIVES, LLC"
574,92,"2568 S Broadway, Denver, CO 80210, USA",2568 S BROADWAY  DENVER CO,39.6700384,-104.9873064,Retail Marijuana Store,"HERBAL ALTERNATIVES, LLC",NEW BROADSTERDAM,"Retail Marijuana Store-HERBAL ALTERNATIVES, LLC"
581,93,"879 N Federal Blvd, Denver, CO 80204, USA",879 N FEDERAL BLVD DENVER CO,39.7329738,-105.0251809,Retail Marijuana Test Facility,"PHYTATECH CO, LLC",,"Retail Marijuana Test Facility-PHYTATECH CO, LLC"
582,94,"5155 E 46th Ave, Denver, CO 80216, USA",5155 E 46TH AVE DENVER CO,39.7807849,-104.9283907,Retail Marijuana Store,"DENCO, LLC",,"Retail Marijuana Store-DENCO, LLC"
583,94,"5155 E 46th Ave, Denver, CO 80216, USA",5155 E 46TH AVE DENVER CO,39.7807849,-104.9283907,Med Marijuana Opt Prem Cultiv,"DENCO, LLC",,"Med Marijuana Opt Prem Cultiv-DENCO, LLC"
584,94,"5155 E 46th Ave, Denver, CO 80216, USA",5155 E 46TH AVE DENVER CO,39.7807849,-104.9283907,Medical Marijuana Center,"DENCO, LLC",,"Medical Marijuana Center-DENCO, LLC"
585,94,"5155 E 46th Ave, Denver, CO 80216, USA",5155 E 46TH AVE DENVER CO,39.7807849,-104.9283907,Retail Marij Opt. Prem. Cultiv,"DENCO, LLC",,"Retail Marij Opt. Prem. Cultiv-DENCO, LLC"
598,95,"5050 York St, Denver, CO 80216, USA",5050 N YORK ST DENVER CO,39.7883816,-104.9583707,Retail Marijuana Store,"TWOG-YORK, LLC",BUDDY BOY,"Retail Marijuana Store-TWOG-YORK, LLC"
599,95,"5050 York St, Denver, CO 80216, USA",5050 N YORK ST DENVER CO,39.7883816,-104.9583707,Med Marijuana Opt Prem Cultiv,"TWOG-FEDERAL, LLC",BUDDY BOY,"Med Marijuana Opt Prem Cultiv-TWOG-FEDERAL, LLC"
600,95,"5050 York St, Denver, CO 80216, USA",5050 N YORK ST DENVER CO,39.7883816,-104.9583707,Medical Marijuana Center,"TWOG-YORK, LLC",BUDDY BOY,"Medical Marijuana Center-TWOG-YORK, LLC"
607,96,"1308 S Jason St, Denver, CO 80223, USA",1308 S JASON ST DENVER CO,39.6928835,-104.9988092,Med Marijuana Inf Prod Manuf,"MEDICALLY CORRECT, LLC",INCREDIBLES,"Med Marijuana Inf Prod Manuf-MEDICALLY CORRECT, LLC"
608,96,"1308 S Jason St, Denver, CO 80223, USA",1308 S JASON ST DENVER CO,39.6928835,-104.9988092,Retail Marijuana Inf Prod Mfg,"MEDICALLY CORRECT, LLC",INCREDIBLES,"Retail Marijuana Inf Prod Mfg-MEDICALLY CORRECT, LLC"
609,96,"1308 S Jason St, Denver, CO 80223, USA",1308 S JASON ST DENVER CO,39.6928835,-104.9988092,Med Marijuana Opt Prem Cultiv,MEDICALLY CORRECT LLC,INCREDIBLES,Med Marijuana Opt Prem Cultiv-MEDICALLY CORRECT LLC
616,97,"1994 S Cherokee St, Denver, CO 80223, USA",1994 S CHEROKEE ST DENVER CO,39.6804677,-104.9910009,Med Marijuana Opt Prem Cultiv,"SMOKED COLORADO, INC.",MIGHTY TREE,"Med Marijuana Opt Prem Cultiv-SMOKED COLORADO, INC."
617,97,"1994 S Cherokee St, Denver, CO 80223, USA",1994 S CHEROKEE ST DENVER CO,39.6804677,-104.9910009,Retail Marij Opt. Prem. Cultiv,"SMOKED DENVER, LLC",MIGHTY TREE,"Retail Marij Opt. Prem. Cultiv-SMOKED DENVER, LLC"
620,98,"1115 S Bannock St, Denver, CO 80223, USA",1115 S BANNOCK ST DENVER CO,39.6962292,-104.9904559,Retail Marij Opt. Prem. Cultiv,"ANIMAS HERBAL WELLNESS CENTER, INC",PROHIBITION HERB,"Retail Marij Opt. Prem. Cultiv-ANIMAS HERBAL WELLNESS CENTER, INC"
621,98,"1115 S Bannock St, Denver, CO 80223, USA",1115 S BANNOCK ST DENVER CO,39.6962292,-104.9904559,Med Marijuana Opt Prem Cultiv,"ANIMAS HERBAL WELLNESS CENTER, INC",PROHIBITION HERB,"Med Marijuana Opt Prem Cultiv-ANIMAS HERBAL WELLNESS CENTER, INC"
624,99,"3555 S Yosemite St, Denver, CO 80237, USA",3555 S YOSEMITE ST DENVER CO,39.6518281,-104.8853928,Medical Marijuana Center,"ASCEND II, LLC",ASCEND II,"Medical Marijuana Center-ASCEND II, LLC"
625,99,"3555 S Yosemite St, Denver, CO 80237, USA",3555 S YOSEMITE ST DENVER CO,39.6518281,-104.8853928,Retail Marijuana Store,"ASCEND II, LLC",ASCEND II,"Retail Marijuana Store-ASCEND II, LLC"
629,101,"1406 W 38th Ave, Denver, CO 80211, USA",1406 W 38TH AVE DENVER CO,39.7691468,-105.003299,Retail Marijuana Store,"DOCTOR'S ORDERS, LLC",DOCTOR'S ORDERS,"Retail Marijuana Store-DOCTOR'S ORDERS, LLC"
630,101,"1406 W 38th Ave, Denver, CO 80211, USA",1406 W 38TH AVE DENVER CO,39.7691468,-105.003299,Medical Marijuana Center,"DOCTOR'S ORDERS, LLC",DOCTOR'S ORDERS,"Medical Marijuana Center-DOCTOR'S ORDERS, LLC"
633,102,"4750 Nome St, Denver, CO 80239, USA",4750 N NOME ST DENVER CO,39.7835382,-104.8519377,Retail Marij Opt. Prem. Cultiv,"FUTUREVISION, LTD",MEDICINE MAN,"Retail Marij Opt. Prem. Cultiv-FUTUREVISION, LTD"
634,102,"4750 Nome St, Denver, CO 80239, USA",4750 N NOME ST DENVER CO,39.7835382,-104.8519377,Med Marijuana Opt Prem Cultiv,"FUTUREVISION, LTD.",MEDICINE MAN DENVER,"Med Marijuana Opt Prem Cultiv-FUTUREVISION, LTD."
635,102,"4750 Nome St, Denver, CO 80239, USA",4750 N NOME ST DENVER CO,39.7835382,-104.8519377,Retail Marijuana Store,"FUTUREVISION, LTD",MEDICINE MAN,"Retail Marijuana Store-FUTUREVISION, LTD"
636,102,"4750 Nome St, Denver, CO 80239, USA",4750 N NOME ST DENVER CO,39.7835382,-104.8519377,Medical Marijuana Center,"FUTUREVISION, LTD.",MEDICINE MAN,"Medical Marijuana Center-FUTUREVISION, LTD."
649,103,"4455 Garfield St, Denver, CO 80216, USA",4455 N GARFIELD ST DENVER CO,39.7784873,-104.9444067,Retail Marij Opt. Prem. Cultiv,ARMS HOLDINGS,THE HEALING TREE COMPANY,Retail Marij Opt. Prem. Cultiv-ARMS HOLDINGS
650,104,"183 W Alameda Ave, Denver, CO 80223, USA",183 W ALAMEDA AVE DENVER CO,39.7114526,-104.9919286,Retail Marijuana Store,WANNA LLC,NORTHERN LIGHTS CANNABIS CO,Retail Marijuana Store-WANNA LLC
651,105,"4080 Globeville Rd, Denver, CO 80216, USA",4080 N GLOBEVILLE RD DENVER CO,39.7726443,-104.9888583,Med Marijuana Opt Prem Cultiv,"PHYSICIAN PREFERRED PRODUCTS, LLC",DOC'S APOTHECARY,"Med Marijuana Opt Prem Cultiv-PHYSICIAN PREFERRED PRODUCTS, LLC"
652,105,"4080 Globeville Rd, Denver, CO 80216, USA",4080 N GLOBEVILLE RD DENVER CO,39.7726443,-104.9888583,Medical Marijuana Center,"PHYSICIAN PREFERRED PRODUCTS, LLC",DOC'S APOTHECARY,"Medical Marijuana Center-PHYSICIAN PREFERRED PRODUCTS, LLC"
653,105,"4080 Globeville Rd, Denver, CO 80216, USA",4080 N GLOBEVILLE RD DENVER CO,39.7726443,-104.9888583,Med Marijuana Inf Prod Manuf,"PHYSICIAN PREFERRED PRODUCTS, LLC",DOC'S APOTHECARY,"Med Marijuana Inf Prod Manuf-PHYSICIAN PREFERRED PRODUCTS, LLC"
660,106,"Wyandot St, Denver, CO, USA",830 N Wyandot St Denver CO,39.7777652,-105.0146377,Retail Marijuana Inf Prod Mfg,GREENWERKZ LLC,GREEN DRAGON COLORADO,Retail Marijuana Inf Prod Mfg-GREENWERKZ LLC
661,107,"5475 Peoria St, Denver, CO 80239, USA",5475 N Peoria ST Denver CO,39.7952228,-104.8486775,Retail Marijuana Inf Prod Mfg,"WONDERLAND EDIBLES, LTD",WONDERLAND EDIBLES,"Retail Marijuana Inf Prod Mfg-WONDERLAND EDIBLES, LTD"
662,107,"5475 Peoria St, Denver, CO 80239, USA",5475 N Peoria ST Denver CO,39.7952228,-104.8486775,Retail Marijuana Inf Prod Mfg,"COLORADO MEDICAL PROCESSING, LLC",COLORADO BEST DABS,"Retail Marijuana Inf Prod Mfg-COLORADO MEDICAL PROCESSING, LLC"
663,107,"5475 Peoria St, Denver, CO 80239, USA",5475 N Peoria ST Denver CO,39.7952228,-104.8486775,Retail Marij Opt. Prem. Cultiv,505 CENTER LLC,PURE MEDICAL DISPENSARY,Retail Marij Opt. Prem. Cultiv-505 CENTER LLC
665,107,"5475 Peoria St, Denver, CO 80239, USA",5475 N Peoria ST Denver CO,39.7952228,-104.8486775,Retail Marij Opt. Prem. Cultiv,"WONDERLAND EDIBLES, LTD",WONDERLAND EDIBLES,"Retail Marij Opt. Prem. Cultiv-WONDERLAND EDIBLES, LTD"
666,107,"5475 Peoria St, Denver, CO 80239, USA",5475 N Peoria ST Denver CO,39.7952228,-104.8486775,Retail Marijuana Inf Prod Mfg,"PEORIA PARTNERS, LLC",DISTRICT EDIBLES COLORADO,"Retail Marijuana Inf Prod Mfg-PEORIA PARTNERS, LLC"
697,109,"3435 S Yosemite St, Denver, CO 80231, USA",3435 S YOSEMITE ST DENVER CO,39.6547937,-104.8851875,Medical Marijuana Center,"ALTITUDE WELLNESS CENTER, LLC",NATURE'S HERBS AND WELLNESS DTC,"Medical Marijuana Center-ALTITUDE WELLNESS CENTER, LLC"
698,109,"3435 S Yosemite St, Denver, CO 80231, USA",3435 S YOSEMITE ST DENVER CO,39.6547937,-104.8851875,Retail Marijuana Store,ALTITUDE WELLNESS CENTER. LLC,NATURE'S HERBS & WELLENSS DTC,Retail Marijuana Store-ALTITUDE WELLNESS CENTER. LLC
701,111,"4755 Lima St, Denver, CO 80239, USA",4755 N Lima ST Denver CO,39.7832998,-104.8571804,Med Marijuana Opt Prem Cultiv,"DJR COLORADO, LLC",,"Med Marijuana Opt Prem Cultiv-DJR COLORADO, LLC"
702,111,"4755 Lima St, Denver, CO 80239, USA",4755 N Lima ST Denver CO,39.7832998,-104.8571804,Retail Marij Opt. Prem. Cultiv,DJR COLORADO LLC,,Retail Marij Opt. Prem. Cultiv-DJR COLORADO LLC
705,112,"4825 Oakland St, Denver, CO 80239, USA",4825 N OAKLAND ST DENVER CO,39.7847356,-104.8512081,Med Marijuana Opt Prem Cultiv,MAYFLOWER GROUP LLC,THE HEALTH CENTER,Med Marijuana Opt Prem Cultiv-MAYFLOWER GROUP LLC
706,112,"4825 Oakland St, Denver, CO 80239, USA",4825 N OAKLAND ST DENVER CO,39.7847356,-104.8512081,Retail Marij Opt. Prem. Cultiv,"MAYFLOWER GROUP, LLC",THE HEALTH CENTER,"Retail Marij Opt. Prem. Cultiv-MAYFLOWER GROUP, LLC"
709,113,"4414 Vine St, Denver, CO 80216, USA",4414 N VINE ST DENVER CO,39.7780512,-104.9621129,Retail Marij Opt. Prem. Cultiv,CO-AGRONOMICS LLC,THE GREEN DEPOT,Retail Marij Opt. Prem. Cultiv-CO-AGRONOMICS LLC
710,113,"4414 Vine St, Denver, CO 80216, USA",4414 N VINE ST DENVER CO,39.7780512,-104.9621129,Med Marijuana Opt Prem Cultiv,"CO-AGRONOMICS, LLC",THE GREEN DEPOT,"Med Marijuana Opt Prem Cultiv-CO-AGRONOMICS, LLC"
711,113,"4414 Vine St, Denver, CO 80216, USA",4414 N VINE ST DENVER CO,39.7780512,-104.9621129,Medical Marijuana Center,CO-AGRONOMICS LLC,THE GREEN DEPOT,Medical Marijuana Center-CO-AGRONOMICS LLC
718,114,"4773 Fox St, Denver, CO 80216, USA",4773 N FOX ST DENVER CO,39.7832395,-104.9950661,Retail Marij Opt. Prem. Cultiv,FOX STREET WELLNESS LLC,,Retail Marij Opt. Prem. Cultiv-FOX STREET WELLNESS LLC
719,114,"4773 Fox St, Denver, CO 80216, USA",4773 N FOX ST DENVER CO,39.7832395,-104.9950661,Retail Marijuana Inf Prod Mfg,"FOX STREET WELLNESS, LLC",THE PROPER EXTRACTS,"Retail Marijuana Inf Prod Mfg-FOX STREET WELLNESS, LLC"
720,114,"4773 Fox St, Denver, CO 80216, USA",4773 N FOX ST DENVER CO,39.7832395,-104.9950661,Med Marijuana Opt Prem Cultiv,FOX STREET WELLNESS LLC,FOX 5280,Med Marijuana Opt Prem Cultiv-FOX STREET WELLNESS LLC
721,114,"4773 Fox St, Denver, CO 80216, USA",4773 N FOX ST DENVER CO,39.7832395,-104.9950661,Retail Marijuana Store,FOX STREET WELLNESS LLC,FOX CANNABIS,Retail Marijuana Store-FOX STREET WELLNESS LLC
734,115,"3850 E 48th Ave, Denver, CO 80216, USA",3850 E 48TH AVE DENVER CO,39.7832814,-104.9419818,Retail Marijuana Inf Prod Mfg,"J&P INVESTMENTS, LLC",NEWT BROTHERS ARTISANAL,"Retail Marijuana Inf Prod Mfg-J&P INVESTMENTS, LLC"
735,115,"3850 E 48th Ave, Denver, CO 80216, USA",3850 E 48TH AVE DENVER CO,39.7832814,-104.9419818,Med Marijuana Inf Prod Manuf,"J&P INVESTMENTS, LLC",NEWT BROTHERS ARTISANAL,"Med Marijuana Inf Prod Manuf-J&P INVESTMENTS, LLC"
736,115,"3850 E 48th Ave, Denver, CO 80216, USA",3850 E 48TH AVE DENVER CO,39.7832814,-104.9419818,Retail Marij Opt. Prem. Cultiv,"J&P INVESTMENTS, LLC",NEWT BROTHERS ARTISANAL,"Retail Marij Opt. Prem. Cultiv-J&P INVESTMENTS, LLC"
737,115,"3850 E 48th Ave, Denver, CO 80216, USA",3850 E 48TH AVE DENVER CO,39.7832814,-104.9419818,Med Marijuana Opt Prem Cultiv,"J&P INVESTMENTS, LLC",NEWT BROTHERS ARTISANAL,"Med Marijuana Opt Prem Cultiv-J&P INVESTMENTS, LLC"
750,116,"1331 S Broadway, Denver, CO 80210, USA",1331 S BROADWAY  DENVER CO,39.6921675,-104.9877058,Medical Marijuana Center,"LITTLE GREEN PHARMACY, INC",,"Medical Marijuana Center-LITTLE GREEN PHARMACY, INC"
751,117,"985 S Logan St, Denver, CO 80209, USA",985 S LOGAN ST DENVER CO,39.6989641,-104.9837462,Med Marijuana Opt Prem Cultiv,"THE HERBAL CURE, LLC",,"Med Marijuana Opt Prem Cultiv-THE HERBAL CURE, LLC"
752,117,"985 S Logan St, Denver, CO 80209, USA",985 S LOGAN ST DENVER CO,39.6989641,-104.9837462,Retail Marijuana Store,"THE HERBAL CURE, LLC",,"Retail Marijuana Store-THE HERBAL CURE, LLC"
753,117,"985 S Logan St, Denver, CO 80209, USA",985 S LOGAN ST DENVER CO,39.6989641,-104.9837462,Medical Marijuana Center,"THE HERBAL CURE, LLC",,"Medical Marijuana Center-THE HERBAL CURE, LLC"
760,118,"5305 Steele St, Denver, CO 80216, USA",5305  STEELE ST DENVER CO,39.7929663,-104.9501897,Retail Marij Opt. Prem. Cultiv,"ROCKY MOUNTAIN TILLAGE, LLC",,"Retail Marij Opt. Prem. Cultiv-ROCKY MOUNTAIN TILLAGE, LLC"
761,119,"4645 Joliet St, Denver, CO 80239, USA",4645 N JOLIET ST DENVER CO,39.7809934,-104.8617888,Med Marijuana Opt Prem Cultiv,"VIOLA, INC.",VIOLA'S EXTRACTS,"Med Marijuana Opt Prem Cultiv-VIOLA, INC."
762,119,"4645 Joliet St, Denver, CO 80239, USA",4645 N JOLIET ST DENVER CO,39.7809934,-104.8617888,Med Marijuana Inf Prod Manuf,"VIOLA, INC",VIOLA'S EXTRACTS,"Med Marijuana Inf Prod Manuf-VIOLA, INC"
765,120,"1101 S Bannock St, Denver, CO 80223, USA",1101 S BANNOCK ST DENVER CO,39.696425,-104.990459,Med Marijuana Opt Prem Cultiv,"ANIMAS HERBAL WELLNESS CENTER, INC.",PROHIBITION HERB,"Med Marijuana Opt Prem Cultiv-ANIMAS HERBAL WELLNESS CENTER, INC."
766,120,"1101 S Bannock St, Denver, CO 80223, USA",1101 S BANNOCK ST DENVER CO,39.696425,-104.990459,Retail Marij Opt. Prem. Cultiv,ANIMAS HERBAL WELLNESS CENTER INC.,PROHIBITION HERB,Retail Marij Opt. Prem. Cultiv-ANIMAS HERBAL WELLNESS CENTER INC.
769,121,"2057 S Broadway, Denver, CO 80210, USA",2057 S BROADWAY  DENVER CO,39.6793371,-104.9878913,Retail Marijuana Store,E2T2 LLC,DIEGO PELLICER,Retail Marijuana Store-E2T2 LLC
770,121,"2057 S Broadway, Denver, CO 80210, USA",2057 S BROADWAY  DENVER CO,39.6793371,-104.9878913,Medical Marijuana Center,E2T2 LLC,DIEGO PELLICER,Medical Marijuana Center-E2T2 LLC
773,123,"1798 W Mississippi Ave, Denver, CO 80223, USA",1798 W MISSISSIPPI AVE DENVER CO,39.6964176,-105.0083269,Medical Marijuana Center,"GREEN FIELDS, LLC",GREENFIELDS,"Medical Marijuana Center-GREEN FIELDS, LLC"
774,123,"1798 W Mississippi Ave, Denver, CO 80223, USA",1798 W MISSISSIPPI AVE DENVER CO,39.6964176,-105.0083269,Retail Marijuana Store,"GREENFIELDS, LLC",GREENFIELDS,"Retail Marijuana Store-GREENFIELDS, LLC"
777,124,"5395 E 39th Ave, Denver, CO 80207, USA",5395 E 39TH AVE DENVER CO,39.7717684,-104.9251056,Retail Marij Opt. Prem. Cultiv,"SUPER FARM, LLC",SUPER FARM,"Retail Marij Opt. Prem. Cultiv-SUPER FARM, LLC"
778,125,"1770 S Acoma St, Denver, CO 80223, USA",1770 S ACOMA ST DENVER CO,39.6844384,-104.9885554,Med Marijuana Opt Prem Cultiv,"EVERGREEN ENTERPRISES, LTD.",,"Med Marijuana Opt Prem Cultiv-EVERGREEN ENTERPRISES, LTD."
779,125,"1770 S Acoma St, Denver, CO 80223, USA",1770 S ACOMA ST DENVER CO,39.6844384,-104.9885554,Med Marijuana Inf Prod Manuf,"EVERGREEN ENTERPRISES, LTD.",EVERGREEN EXTRACTS,"Med Marijuana Inf Prod Manuf-EVERGREEN ENTERPRISES, LTD."
782,126,"432 S Broadway, Denver, CO 80209, USA",432 S BROADWAY  DENVER CO,39.7087176,-104.9873293,Medical Marijuana Center,BEYOND BROADWAY LLC,LIVWELL,Medical Marijuana Center-BEYOND BROADWAY LLC
783,126,"432 S Broadway, Denver, CO 80209, USA",432 S BROADWAY  DENVER CO,39.7087176,-104.9873293,Med Marijuana Opt Prem Cultiv,"BEYOND BROADWAY, LLC",LIVWELL,"Med Marijuana Opt Prem Cultiv-BEYOND BROADWAY, LLC"
784,126,"432 S Broadway, Denver, CO 80209, USA",432 S BROADWAY  DENVER CO,39.7087176,-104.9873293,Retail Marijuana Store,"BEYOND BROADWAY, LLC",LIVWELL,"Retail Marijuana Store-BEYOND BROADWAY, LLC"
791,128,"4228 York St, Denver, CO 80216, USA",4228 N YORK ST DENVER CO,39.7758136,-104.9584782,Retail Marij Opt. Prem. Cultiv,"CITI-MED, LLC",STARBUDS,"Retail Marij Opt. Prem. Cultiv-CITI-MED, LLC"
792,128,"4228 York St, Denver, CO 80216, USA",4228 N YORK ST DENVER CO,39.7758136,-104.9584782,Med Marijuana Opt Prem Cultiv,"CITI-MED, LLC",STARBUDS,"Med Marijuana Opt Prem Cultiv-CITI-MED, LLC"
793,128,"4228 York St, Denver, CO 80216, USA",4228 N YORK ST DENVER CO,39.7758136,-104.9584782,Retail Marij Opt. Prem. Cultiv,BALLPARK HOLISTIC DISPENSARY CORP,BALLPARK HOLISTIC DISPENSARY,Retail Marij Opt. Prem. Cultiv-BALLPARK HOLISTIC DISPENSARY CORP
794,128,"4228 York St, Denver, CO 80216, USA",4228 N YORK ST DENVER CO,39.7758136,-104.9584782,Med Marijuana Opt Prem Cultiv,BALLPARK HOLISTIC DISPENSARY CORP,BALLPARK HOLISTIC DISPENSARY,Med Marijuana Opt Prem Cultiv-BALLPARK HOLISTIC DISPENSARY CORP
807,129,"5100 Cook St, Denver, CO 80216, USA",5100 N COOK ST DENVER CO,39.7895197,-104.9470078,Med Marijuana Inf Prod Manuf,DENVER PACKAGING COMPANY,,Med Marijuana Inf Prod Manuf-DENVER PACKAGING COMPANY
808,129,"5100 Cook St, Denver, CO 80216, USA",5100 N COOK ST DENVER CO,39.7895197,-104.9470078,Retail Marijuana Inf Prod Mfg,"DENVER PACKAGING, COMPANY",,"Retail Marijuana Inf Prod Mfg-DENVER PACKAGING, COMPANY"
811,131,"750 S Canosa Ct, Denver, CO 80219, USA",750 N CANOSA CT DENVER CO,39.7029246,-105.0188953,Retail Marij Opt. Prem. Cultiv,"ALCC, LLC",THE DAB BY NEXT HARVEST,"Retail Marij Opt. Prem. Cultiv-ALCC, LLC"
812,133,"12585 E 39th Ave, Denver, CO 80239, USA",12585 E 39TH AVE DENVER CO,39.7713831,-104.8415857,Med Marijuana Opt Prem Cultiv,KTA LLC,,Med Marijuana Opt Prem Cultiv-KTA LLC
816,134,"4 S Santa Fe Dr, Denver, CO 80223, USA",4 S SANTA FE DR DENVER CO,39.7164275,-104.9981929,Medical Marijuana Center,KARMACEUTICALS LLC,KARMACEUTICALS,Medical Marijuana Center-KARMACEUTICALS LLC
817,134,"4 S Santa Fe Dr, Denver, CO 80223, USA",4 S SANTA FE DR DENVER CO,39.7164275,-104.9981929,Med Marijuana Opt Prem Cultiv,"KARMACEUTICALS, LLC",KARMACEUTICALS,"Med Marijuana Opt Prem Cultiv-KARMACEUTICALS, LLC"
820,135,"2028 E Colfax Ave, Denver, CO 80206, USA",2028 E COLFAX AVE DENVER CO,39.7398554,-104.9625714,Medical Marijuana Center,"DISCOUNT MEDICAL MARIJUANA, LLC",HIGH LEVEL HEALTH,"Medical Marijuana Center-DISCOUNT MEDICAL MARIJUANA, LLC"
821,135,"2028 E Colfax Ave, Denver, CO 80206, USA",2028 E COLFAX AVE DENVER CO,39.7398554,-104.9625714,Retail Marijuana Store,"DISCOUNT MEDICAL MARIJUANA, LLC",HIGH LEVEL HEALTH,"Retail Marijuana Store-DISCOUNT MEDICAL MARIJUANA, LLC"
824,136,"3819 Quentin St, Denver, CO 80239, USA",3819 N QUENTIN ST DENVER CO,39.7698958,-104.8451427,Med Marijuana Opt Prem Cultiv,LITTLE MAN 54 LLC,,Med Marijuana Opt Prem Cultiv-LITTLE MAN 54 LLC
825,136,"3819 Quentin St, Denver, CO 80239, USA",3819 N QUENTIN ST DENVER CO,39.7698958,-104.8451427,Retail Marij Opt. Prem. Cultiv,LITTLE MAN 54 LLC,,Retail Marij Opt. Prem. Cultiv-LITTLE MAN 54 LLC
826,136,"3819 Quentin St, Denver, CO 80239, USA",3819 N QUENTIN ST DENVER CO,39.7698958,-104.8451427,Medical Marijuana Center,LITTLE MAN 54 LLC,,Medical Marijuana Center-LITTLE MAN 54 LLC
833,137,"3990 Grape St, Denver, CO 80207, USA",3990 N GRAPE ST DENVER CO,39.7728567,-104.9240106,Retail Marij Opt. Prem. Cultiv,GREEN SATIVA LLC,,Retail Marij Opt. Prem. Cultiv-GREEN SATIVA LLC
834,137,"3990 Grape St, Denver, CO 80207, USA",3990 N GRAPE ST DENVER CO,39.7728567,-104.9240106,Med Marijuana Opt Prem Cultiv,GREEN SATIVA LLC,,Med Marijuana Opt Prem Cultiv-GREEN SATIVA LLC
837,139,"2243 N Federal Blvd, Denver, CO 80211, USA",2243 N FEDERAL BLVD DENVER CO,39.7508139,-105.0254462,Medical Marijuana Center,THE PURPLE DRAGON LLC,,Medical Marijuana Center-THE PURPLE DRAGON LLC
838,140,"930 W Byers Pl, Denver, CO 80223, USA",930 W BYERS PL DENVER CO,39.7117465,-104.9982915,Retail Marijuana Store,"CANNABIS KING, LLC",GREEN DRAGON COLORADO,"Retail Marijuana Store-CANNABIS KING, LLC"
839,142,"4500 Jason St, Denver, CO 80211, USA",4500 N JASON ST DENVER CO,39.7784204,-104.9992434,Retail Marij Opt. Prem. Cultiv,BACK TO THE GARDEN HEALTH & WELLNESS CENTER LLC,BACK TO THE GARDEN HEALTH AND WELLNESS CENTER LLC,Retail Marij Opt. Prem. Cultiv-BACK TO THE GARDEN HEALTH & WELLNESS CENTER LLC
840,142,"4500 Jason St, Denver, CO 80211, USA",4500 N JASON ST DENVER CO,39.7784204,-104.9992434,Med Marijuana Opt Prem Cultiv,"HIGH STREET GROWERS, LLC",,"Med Marijuana Opt Prem Cultiv-HIGH STREET GROWERS, LLC"
843,143,"N Bryant St, Denver, CO, USA",660 N BRYANT ST DENVER CO,39.842368,-105.019368,Retail Marijuana Inf Prod Mfg,"GREEN CROSS COLORADO, LLC",GREEN CROSS COLORADO,"Retail Marijuana Inf Prod Mfg-GREEN CROSS COLORADO, LLC"
844,143,"N Bryant St, Denver, CO, USA",660 N BRYANT ST DENVER CO,39.842368,-105.019368,Med Marijuana Inf Prod Manuf,"GREEN CROSS COLORADO, LLC",GREEN CROSS COLORADO,"Med Marijuana Inf Prod Manuf-GREEN CROSS COLORADO, LLC"
847,144,"399 S Harrison St, Denver, CO 80209, USA",399 S HARRISON ST DENVER CO,39.7094332,-104.9416916,Retail Marijuana Store,"SERENITY MOON WELLNESS CENTER, LLC",FROSTED LEAF,"Retail Marijuana Store-SERENITY MOON WELLNESS CENTER, LLC"
848,144,"399 S Harrison St, Denver, CO 80209, USA",399 S HARRISON ST DENVER CO,39.7094332,-104.9416916,Medical Marijuana Center,"ALPINE HERBAL WELLNESS, LLC",FROSTED LEAF,"Medical Marijuana Center-ALPINE HERBAL WELLNESS, LLC"
851,147,"5110 Race St, Denver, CO 80216, USA",5110 N RACE ST DENVER CO,39.7883088,-104.9631169,Medical Marijuana Center,5110 SANCTUARY LLC,EVERBLOOM,Medical Marijuana Center-5110 SANCTUARY LLC
852,147,"5110 Race St, Denver, CO 80216, USA",5110 N RACE ST DENVER CO,39.7883088,-104.9631169,Retail Marijuana Store,"5110 SANCTUARY, LLC",EVERBLOOM,"Retail Marijuana Store-5110 SANCTUARY, LLC"
853,147,"5110 Race St, Denver, CO 80216, USA",5110 N RACE ST DENVER CO,39.7883088,-104.9631169,Med Marijuana Opt Prem Cultiv,5110 SANCTUARY LLC,EVERBLOOM,Med Marijuana Opt Prem Cultiv-5110 SANCTUARY LLC
860,148,"1350 S Sheridan Blvd, Denver, CO 80232, USA",1350 S SHERIDAN BLVD DENVER CO,39.6919117,-105.0527734,Retail Marijuana Store,"MILE HIGH DISPENSARY, LLC",MILE HIGH DISPENSARY,"Retail Marijuana Store-MILE HIGH DISPENSARY, LLC"
861,148,"1350 S Sheridan Blvd, Denver, CO 80232, USA",1350 S SHERIDAN BLVD DENVER CO,39.6919117,-105.0527734,Medical Marijuana Center,"MILE HIGH DISPENSARY, LLC",MILE HIGH DISPENSARY,"Medical Marijuana Center-MILE HIGH DISPENSARY, LLC"
864,149,"4502 N Washington St, Denver, CO 80205, USA",4502 N Washington  Denver CO,39.7543922,-104.9779073,Med Marijuana Inf Prod Manuf,"CC FOODS, LLC",,"Med Marijuana Inf Prod Manuf-CC FOODS, LLC"
865,149,"4502 N Washington St, Denver, CO 80205, USA",4502 N Washington  Denver CO,39.7543922,-104.9779073,Retail Marijuana Inf Prod Mfg,"CC FOODS, LLC",,"Retail Marijuana Inf Prod Mfg-CC FOODS, LLC"
869,151,"4501 Wynkoop St, Denver, CO 80216, USA",4501  WYNKOOP ST DENVER CO,39.7786243,-104.9668416,Med Marijuana Opt Prem Cultiv,"TWOG-YORK, LLC",BUDDY BOY,"Med Marijuana Opt Prem Cultiv-TWOG-YORK, LLC"
870,152,"2252 S Kalamath St, Denver, CO 80223, USA",2252 S KALAMATH ST DENVER CO,39.6756646,-105.0002699,Retail Marij Opt. Prem. Cultiv,RR SERVICES LLC,,Retail Marij Opt. Prem. Cultiv-RR SERVICES LLC
871,152,"2252 S Kalamath St, Denver, CO 80223, USA",2252 S KALAMATH ST DENVER CO,39.6756646,-105.0002699,Med Marijuana Opt Prem Cultiv,MILE HIGH DISPENSARY LLC,,Med Marijuana Opt Prem Cultiv-MILE HIGH DISPENSARY LLC
874,153,"4675 Kingston St, Denver, CO 80239, USA",4675 N Kingston ST Denver CO,39.781594,-104.8595996,Retail Marij Opt. Prem. Cultiv,"ORGANIC GREENS, INC",NATURAL REMEDIES,"Retail Marij Opt. Prem. Cultiv-ORGANIC GREENS, INC"
875,154,"330 Federal Blvd, Denver, CO 80219, USA",330 N FEDERAL BLVD DENVER CO,39.721782,-105.0248074,Retail Marijuana Store,HIGH STREET GROWERS LLC,,Retail Marijuana Store-HIGH STREET GROWERS LLC
876,154,"330 Federal Blvd, Denver, CO 80219, USA",330 N FEDERAL BLVD DENVER CO,39.721782,-105.0248074,Medical Marijuana Center,"HIGH STREET GROWERS, LLC.",,"Medical Marijuana Center-HIGH STREET GROWERS, LLC."
879,156,"3880 Holly St, Denver, CO 80207, USA",3880 N Holly ST Denver CO,39.7705814,-104.9215468,Retail Marij Opt. Prem. Cultiv,"WDG, INC.",BEMINDFUL,"Retail Marij Opt. Prem. Cultiv-WDG, INC."
881,157,"3857 Elm St, Denver, CO 80207, USA",3857 N ELM ST DENVER CO,39.7704224,-104.9295266,Retail Marij Opt. Prem. Cultiv,LEVELS IV INC,LEVELS IV INC,Retail Marij Opt. Prem. Cultiv-LEVELS IV INC
884,158,"3980 Franklin St, Denver, CO 80205, USA",3980 N Franklin  Denver CO,39.7726375,-104.9680612,Retail Marijuana Inf Prod Mfg,"LUCKY SWEETS, LLC",LUCKY EDIBLES,"Retail Marijuana Inf Prod Mfg-LUCKY SWEETS, LLC"
885,158,"3980 Franklin St, Denver, CO 80205, USA",3980 N Franklin  Denver CO,39.7726375,-104.9680612,Med Marijuana Inf Prod Manuf,"LUCKY SWEETS, LLC",LUCKY EDIBLES,"Med Marijuana Inf Prod Manuf-LUCKY SWEETS, LLC"
888,159,"4880 E 41st Ave, Denver, CO 80216, USA",4880 E 41ST AVE DENVER CO,39.7744096,-104.9310828,Retail Marijuana Inf Prod Mfg,"EPMM COLORADO, LLC",EDIPURE,"Retail Marijuana Inf Prod Mfg-EPMM COLORADO, LLC"
889,159,"4880 E 41st Ave, Denver, CO 80216, USA",4880 E 41ST AVE DENVER CO,39.7744096,-104.9310828,Med Marijuana Inf Prod Manuf,"EPMM COLORADO, LLC",EDIPURE,"Med Marijuana Inf Prod Manuf-EPMM COLORADO, LLC"
892,162,"2190 S Jason St, Denver, CO 80223, USA",2190 S JASON ST DENVER CO,39.6768217,-104.9992656,Retail Marijuana Inf Prod Mfg,"WPJJ, LLC",EUREKA VAPOR,"Retail Marijuana Inf Prod Mfg-WPJJ, LLC"
893,162,"2190 S Jason St, Denver, CO 80223, USA",2190 S JASON ST DENVER CO,39.6768217,-104.9992656,Med Marijuana Inf Prod Manuf,WPJJ LLC,EUREKA VAPOR,Med Marijuana Inf Prod Manuf-WPJJ LLC
896,163,"11080 E 47th Ave, Denver, CO 80239, USA",11080 E 47th Ave Denver CO,39.7820957,-104.8596417,Retail Marijuana Store,LYONS FINEST CONFIDENTIAL CARE LLC,TUMBLEWEED,Retail Marijuana Store-LYONS FINEST CONFIDENTIAL CARE LLC
897,165,"1133 Bannock St, Denver, CO 80204, USA",1133  BANNOCK ST DENVER CO,39.7344405,-104.9906157,Retail Marijuana Store,COLORADO CANNABIS COMPANY LLC,PURE MEDICAL DISPENSARY,Retail Marijuana Store-COLORADO CANNABIS COMPANY LLC
898,166,"5098 Paris St, Denver, CO 80239, USA",5098 N PARIS ST DENVER CO,39.7906368,-104.8485174,Med Marijuana Opt Prem Cultiv,"4625 EAST COLFAX, LLC",THE CLINIC ON COLFAX,"Med Marijuana Opt Prem Cultiv-4625 EAST COLFAX, LLC"
899,166,"5098 Paris St, Denver, CO 80239, USA",5098 N PARIS ST DENVER CO,39.7906368,-104.8485174,Retail Marijuana Inf Prod Mfg,"ZUNI WELLNESS CENTER, LLC",THE LAB,"Retail Marijuana Inf Prod Mfg-ZUNI WELLNESS CENTER, LLC"
900,166,"5098 Paris St, Denver, CO 80239, USA",5098 N PARIS ST DENVER CO,39.7906368,-104.8485174,Med Marijuana Inf Prod Manuf,"ZUNI WELLNESS CENTER, LLC",THE LAB,"Med Marijuana Inf Prod Manuf-ZUNI WELLNESS CENTER, LLC"
907,167,"5200 E Smith Rd, Denver, CO 80239, USA",5200 E SMITH RD Denver CO,39.7693259,-104.8766681,Med Marijuana Opt Prem Cultiv,"RME GROUP, LLC",AFFINITY,"Med Marijuana Opt Prem Cultiv-RME GROUP, LLC"
908,168,"400 S Lipan St, Denver, CO 80223, USA",400 S LIPAN ST DENVER CO,39.7093349,-105.0010459,Retail Marijuana Inf Prod Mfg,MOUNTAIN HIGH SUCKERS LLC,MOUNTAIN HIGH SUCKERS,Retail Marijuana Inf Prod Mfg-MOUNTAIN HIGH SUCKERS LLC
909,168,"400 S Lipan St, Denver, CO 80223, USA",400 S LIPAN ST DENVER CO,39.7093349,-105.0010459,Retail Marij Opt. Prem. Cultiv,1 STOP SHOP LLC,,Retail Marij Opt. Prem. Cultiv-1 STOP SHOP LLC
910,168,"400 S Lipan St, Denver, CO 80223, USA",400 S LIPAN ST DENVER CO,39.7093349,-105.0010459,Retail Marij Opt. Prem. Cultiv,"1 STOP SHOP, LLC",,"Retail Marij Opt. Prem. Cultiv-1 STOP SHOP, LLC"
911,168,"400 S Lipan St, Denver, CO 80223, USA",400 S LIPAN ST DENVER CO,39.7093349,-105.0010459,Med Marijuana Inf Prod Manuf,"MOUNTAIN HIGH SUCKERS, LLC",MOUNTAIN HIGH SUCKERS,"Med Marijuana Inf Prod Manuf-MOUNTAIN HIGH SUCKERS, LLC"
912,168,"400 S Lipan St, Denver, CO 80223, USA",400 S LIPAN ST DENVER CO,39.7093349,-105.0010459,Med Marijuana Opt Prem Cultiv,"UNIQUEITMINDS, INC.",CHRONORADO,"Med Marijuana Opt Prem Cultiv-UNIQUEITMINDS, INC."
933,169,"4910 Fox St, Denver, CO 80216, USA",4910 N FOX ST DENVER CO,39.7854475,-104.9932403,Retail Marijuana Test Facility,"BONA FIDES LABORATORY, INC",,"Retail Marijuana Test Facility-BONA FIDES LABORATORY, INC"
934,169,"4910 Fox St, Denver, CO 80216, USA",4910 N FOX ST DENVER CO,39.7854475,-104.9932403,Med Marijuana Test Facility,BONA FIDES MEDICAL,BONA FIDES LABORATORY INC,Med Marijuana Test Facility-BONA FIDES MEDICAL
937,170,"1178 S Kalamath St, Denver, CO 80223, USA",1178 S KALAMATH ST DENVER CO,39.6952492,-104.999996,Medical Marijuana Center,"HIGH COUNTRY SUPPLY, LLC",COLORADO HARVEST COMPANY,"Medical Marijuana Center-HIGH COUNTRY SUPPLY, LLC"
938,170,"1178 S Kalamath St, Denver, CO 80223, USA",1178 S KALAMATH ST DENVER CO,39.6952492,-104.999996,Med Marijuana Opt Prem Cultiv,"HIGH COUNTRY SUPPLY, LLC",COLORADO HARVEST COMPANY,"Med Marijuana Opt Prem Cultiv-HIGH COUNTRY SUPPLY, LLC"
939,170,"1178 S Kalamath St, Denver, CO 80223, USA",1178 S KALAMATH ST DENVER CO,39.6952492,-104.999996,Retail Marijuana Store,HIGH COUNTRY SUPPLY LLC,COLORADO HARVEST COMPANY,Retail Marijuana Store-HIGH COUNTRY SUPPLY LLC
940,170,"1178 S Kalamath St, Denver, CO 80223, USA",1178 S KALAMATH ST DENVER CO,39.6952492,-104.999996,Retail Marij Opt. Prem. Cultiv,HIGH COUNTRY SUPPLY LLC,COLORADO HARVEST COMPANY,Retail Marij Opt. Prem. Cultiv-HIGH COUNTRY SUPPLY LLC
953,171,"3100 Blake St, Denver, CO 80205, USA",3100  Blake St Denver CO,39.764527,-104.9805513,Retail Marijuana Store,RINO SUPPLY CO INC,,Retail Marijuana Store-RINO SUPPLY CO INC
954,172,"4500 N Washington St, Denver, CO 80205, USA",4500 N WASHINGTON ST DENVER CO,39.7543922,-104.9779073,Medical Marijuana Center,"GAS AND GRASS, LLC",ROLLUP,"Medical Marijuana Center-GAS AND GRASS, LLC"
955,172,"4500 N Washington St, Denver, CO 80205, USA",4500 N WASHINGTON ST DENVER CO,39.7543922,-104.9779073,Retail Marijuana Store,"GAS AND GRASS, LLC",ROLLUP,"Retail Marijuana Store-GAS AND GRASS, LLC"
958,173,"3937 W Colfax Ave, Denver, CO 80204, USA",3937 W COLFAX AVE DENVER CO,39.740497,-105.0390523,Medical Marijuana Center,"SOUTHWEST ALTERNATIVE CARE, LLC",,"Medical Marijuana Center-SOUTHWEST ALTERNATIVE CARE, LLC"
959,173,"3937 W Colfax Ave, Denver, CO 80204, USA",3937 W COLFAX AVE DENVER CO,39.740497,-105.0390523,Retail Marijuana Store,SOUTHWEST ALTERNATIVE CARE LLC,,Retail Marijuana Store-SOUTHWEST ALTERNATIVE CARE LLC
962,175,"1031 W Center Ave, Denver, CO 80223, USA",1031 W CENTER AVE DENVER CO,39.7060455,-104.999996,Med Marijuana Opt Prem Cultiv,"BGOOD VENTURES, LLC",BGOOD,"Med Marijuana Opt Prem Cultiv-BGOOD VENTURES, LLC"
963,175,"1031 W Center Ave, Denver, CO 80223, USA",1031 W CENTER AVE DENVER CO,39.7060455,-104.999996,Retail Marij Opt. Prem. Cultiv,"BGOOD VENTURES, LLC",BGOOD APOTHECARY,"Retail Marij Opt. Prem. Cultiv-BGOOD VENTURES, LLC"
966,176,"2145 S Kalamath St, Denver, CO 80223, USA",2145 S KALAMATH ST DENVER CO,39.6776409,-105.0009774,Retail Marij Opt. Prem. Cultiv,"DARK HORSE GENETICS, LLC",,"Retail Marij Opt. Prem. Cultiv-DARK HORSE GENETICS, LLC"
967,176,"2145 S Kalamath St, Denver, CO 80223, USA",2145 S KALAMATH ST DENVER CO,39.6776409,-105.0009774,Med Marijuana Inf Prod Manuf,DARK HORSE GENETICS LLC,,Med Marijuana Inf Prod Manuf-DARK HORSE GENETICS LLC
968,176,"2145 S Kalamath St, Denver, CO 80223, USA",2145 S KALAMATH ST DENVER CO,39.6776409,-105.0009774,Retail Marijuana Inf Prod Mfg,"DARK HORSE GENETICS, LLC",,"Retail Marijuana Inf Prod Mfg-DARK HORSE GENETICS, LLC"
969,176,"2145 S Kalamath St, Denver, CO 80223, USA",2145 S KALAMATH ST DENVER CO,39.6776409,-105.0009774,Med Marijuana Opt Prem Cultiv,DARK HORSE GENETICS LLC,,Med Marijuana Opt Prem Cultiv-DARK HORSE GENETICS LLC
982,179,"4902 Smith Rd, Denver, CO 80216, USA",4902 E SMITH RD DENVER CO,39.7748706,-104.9294354,Med Marijuana Opt Prem Cultiv,"C.G. INDUSTRY, LLC",CROSS GENETICS,"Med Marijuana Opt Prem Cultiv-C.G. INDUSTRY, LLC"
983,179,"4902 Smith Rd, Denver, CO 80216, USA",4902 E SMITH RD DENVER CO,39.7748706,-104.9294354,Retail Marij Opt. Prem. Cultiv,GANJA GOURMET LLC,GANJA GOURMET,Retail Marij Opt. Prem. Cultiv-GANJA GOURMET LLC
984,179,"4902 Smith Rd, Denver, CO 80216, USA",4902 E SMITH RD DENVER CO,39.7748706,-104.9294354,Medical Marijuana Center,"C.G. INDUSTRY, LLC",CROSS GENETICS,"Medical Marijuana Center-C.G. INDUSTRY, LLC"
985,179,"4902 Smith Rd, Denver, CO 80216, USA",4902 E SMITH RD DENVER CO,39.7748706,-104.9294354,Med Marijuana Opt Prem Cultiv,"GANJA GOURMET, LLC",GANJA GOURMET,"Med Marijuana Opt Prem Cultiv-GANJA GOURMET, LLC"
986,179,"4902 Smith Rd, Denver, CO 80216, USA",4902 E SMITH RD DENVER CO,39.7748706,-104.9294354,Retail Marij Opt. Prem. Cultiv,"C.G. INDUSTRY, LLC",CROSS GENETICS,"Retail Marij Opt. Prem. Cultiv-C.G. INDUSTRY, LLC"
987,179,"4902 Smith Rd, Denver, CO 80216, USA",4902 E SMITH RD DENVER CO,39.7748706,-104.9294354,Med Marijuana Inf Prod Manuf,"CG INDUSTRY, LLC",CG LABS,"Med Marijuana Inf Prod Manuf-CG INDUSTRY, LLC"
988,179,"4902 Smith Rd, Denver, CO 80216, USA",4902 E SMITH RD DENVER CO,39.7748706,-104.9294354,Med Marijuana Opt Prem Cultiv,"MWRH, LLC",CROSS GENETICS,"Med Marijuana Opt Prem Cultiv-MWRH, LLC"
989,179,"4902 Smith Rd, Denver, CO 80216, USA",4902 E SMITH RD DENVER CO,39.7748706,-104.9294354,Retail Marijuana Store,"C.G. INDUSTRY, LLC",CROSS GENETICS,"Retail Marijuana Store-C.G. INDUSTRY, LLC"
1046,182,"2601 W Alameda Ave, Denver, CO 80219, USA",2601 W ALAMEDA AVE DENVER CO,39.7113836,-105.0182333,Retail Marijuana Store,"THE GREEN SOLUTION, LLC",,"Retail Marijuana Store-THE GREEN SOLUTION, LLC"
1047,183,"N Bryant St, Denver, CO 80211, USA",688 N BRYANT ST DENVER CO,39.7508151,-105.0183872,Med Marijuana Opt Prem Cultiv,"STAYCON, LLC",CRAFT,"Med Marijuana Opt Prem Cultiv-STAYCON, LLC"
1048,184,"4155 Grape St, Denver, CO 80216, USA",4155 N GRAPE ST DENVER CO,39.7743586,-104.9250557,Med Marijuana Opt Prem Cultiv,TESLA LLC,,Med Marijuana Opt Prem Cultiv-TESLA LLC
1049,185,"5550 Joliet St, Denver, CO 80239, USA",5550 N JOLIET ST DENVER CO,39.7973535,-104.8606942,Med Marijuana Opt Prem Cultiv,TRILL EVOLUTIONS LLC,TRILL EVOLUTIONS,Med Marijuana Opt Prem Cultiv-TRILL EVOLUTIONS LLC
1050,185,"5550 Joliet St, Denver, CO 80239, USA",5550 N JOLIET ST DENVER CO,39.7973535,-104.8606942,Medical Marijuana Center,TRILL EVOLUTIONS LLC,TRILL EVOLUTIONS,Medical Marijuana Center-TRILL EVOLUTIONS LLC
1053,187,"5109 W Alameda Ave, Denver, CO 80219, USA",5109 W ALAMEDA AVE DENVER CO,39.7117286,-105.0525186,Medical Marijuana Center,"COLORADO COLITAS, LLC",HERBAL REMEDIES,"Medical Marijuana Center-COLORADO COLITAS, LLC"
1054,188,"775 S Jason St, Denver, CO 80223, USA",775 S JASON ST DENVER CO,39.7025178,-105.0000039,Med Marijuana Inf Prod Manuf,MILE HIGH DISTRIBUTING LLC,.,Med Marijuana Inf Prod Manuf-MILE HIGH DISTRIBUTING LLC
1055,188,"775 S Jason St, Denver, CO 80223, USA",775 S JASON ST DENVER CO,39.7025178,-105.0000039,Retail Marijuana Inf Prod Mfg,MILE HIGH DISTRIBUTING LLC,,Retail Marijuana Inf Prod Mfg-MILE HIGH DISTRIBUTING LLC
1058,189,"11101 E 51st Ave, Denver, CO 80239, USA",11101 E 51ST AVE DENVER CO,39.7906881,-104.8586875,Med Marijuana Opt Prem Cultiv,"POTCO, LLC",POTCO,"Med Marijuana Opt Prem Cultiv-POTCO, LLC"
1059,189,"11101 E 51st Ave, Denver, CO 80239, USA",11101 E 51ST AVE DENVER CO,39.7906881,-104.8586875,Medical Marijuana Center,"POTCO, LLC",POTCO,"Medical Marijuana Center-POTCO, LLC"
1063,192,"2640 E 43rd Ave, Denver, CO 80216, USA",2640 E 43RD AVE DENVER CO,39.7762155,-104.9555641,Retail Marij Opt. Prem. Cultiv,"GREENLINE FEDERAL, LLC",,"Retail Marij Opt. Prem. Cultiv-GREENLINE FEDERAL, LLC"
1064,194,"1538 Wazee St, Denver, CO 80202, USA",1538  WAZEE ST DENVER CO,39.7506213,-105.0002813,Medical Marijuana Center,"COMPASSIONATE CARE GIVERS, INC.",ROCKY MOUNTAIN HIGH,"Medical Marijuana Center-COMPASSIONATE CARE GIVERS, INC."
1065,194,"1538 Wazee St, Denver, CO 80202, USA",1538  WAZEE ST DENVER CO,39.7506213,-105.0002813,Retail Marijuana Store,"COMPASSIONATE CARE GIVERS, INC",ROCKY MOUNTAIN HIGH,"Retail Marijuana Store-COMPASSIONATE CARE GIVERS, INC"
1069,196,"4980 Jackson St, Denver, CO 80216, USA",4980 N JACKSON ST DENVER CO,39.7870622,-104.9427821,Retail Marij Opt. Prem. Cultiv,4900 JACKSON STREET LLC,CHAMPION CANNABIS,Retail Marij Opt. Prem. Cultiv-4900 JACKSON STREET LLC
1070,197,"1233 W Alameda Ave, Denver, CO 80223, USA",1233 W ALAMEDA AVE DENVER CO,39.711497,-105.0022784,Retail Marij Opt. Prem. Cultiv,KAZIMER LLC,,Retail Marij Opt. Prem. Cultiv-KAZIMER LLC
1072,197,"1233 W Alameda Ave, Denver, CO 80223, USA",1233 W ALAMEDA AVE DENVER CO,39.711497,-105.0022784,Med Marijuana Opt Prem Cultiv,"KAZIMER, LLC",,"Med Marijuana Opt Prem Cultiv-KAZIMER, LLC"
1079,198,"4425 E 46th Ave, Denver, CO 80216, USA",4425 E 46TH AVE DENVER CO,39.7806087,-104.9356868,Retail Marij Opt. Prem. Cultiv,DELTA-9 DELIGHTS LLC,REEFER MADNESS,Retail Marij Opt. Prem. Cultiv-DELTA-9 DELIGHTS LLC
1080,198,"4425 E 46th Ave, Denver, CO 80216, USA",4425 E 46TH AVE DENVER CO,39.7806087,-104.9356868,Med Marijuana Opt Prem Cultiv,DELTA-9 DELIGHTS LLC,REEFER MADNESS,Med Marijuana Opt Prem Cultiv-DELTA-9 DELIGHTS LLC
1083,199,"1015 W Evans Ave, Denver, CO 80223, USA",1015 W EVANS AVE DENVER CO,39.678969,-104.9997221,Med Marijuana Opt Prem Cultiv,"KEENS GREENS EDIBLES, LLC",,"Med Marijuana Opt Prem Cultiv-KEENS GREENS EDIBLES, LLC"
1084,199,"1015 W Evans Ave, Denver, CO 80223, USA",1015 W EVANS AVE DENVER CO,39.678969,-104.9997221,Retail Marij Opt. Prem. Cultiv,"KEENS GREENS EDIBLES, LLC",,"Retail Marij Opt. Prem. Cultiv-KEENS GREENS EDIBLES, LLC"
1085,199,"1015 W Evans Ave, Denver, CO 80223, USA",1015 W EVANS AVE DENVER CO,39.678969,-104.9997221,Med Marijuana Opt Prem Cultiv,SOLACE MEDS LLC,,Med Marijuana Opt Prem Cultiv-SOLACE MEDS LLC
1086,199,"1015 W Evans Ave, Denver, CO 80223, USA",1015 W EVANS AVE DENVER CO,39.678969,-104.9997221,Retail Marijuana Inf Prod Mfg,"KEENS GREENS EDIBLES, LLC",,"Retail Marijuana Inf Prod Mfg-KEENS GREENS EDIBLES, LLC"
1087,199,"1015 W Evans Ave, Denver, CO 80223, USA",1015 W EVANS AVE DENVER CO,39.678969,-104.9997221,Med Marijuana Inf Prod Manuf,"KEEN'S GREENS EDIBLES, LLC",,"Med Marijuana Inf Prod Manuf-KEEN'S GREENS EDIBLES, LLC"
1112,201,"4707 Lipan St, Denver, CO 80211, USA",4707 N LIPAN ST DENVER CO,39.7822681,-105.0021415,Medical Marijuana Center,"JPJR AND ASSOCIATES, LLC",STASH HOUSE,"Medical Marijuana Center-JPJR AND ASSOCIATES, LLC"
1113,201,"4707 Lipan St, Denver, CO 80211, USA",4707 N LIPAN ST DENVER CO,39.7822681,-105.0021415,Med Marijuana Opt Prem Cultiv,"JPJR AND ASSOCIATES, LLC",STASH HOUSE,"Med Marijuana Opt Prem Cultiv-JPJR AND ASSOCIATES, LLC"
1116,203,"419 W 13th Ave, Denver, CO 80204, USA",419 W 13TH AVE DENVER CO,39.7369935,-104.9934343,Medical Marijuana Center,"HERBAL HEALTH, LLC",LOCAL PRODUCT OF COLORADO,"Medical Marijuana Center-HERBAL HEALTH, LLC"
1117,203,"419 W 13th Ave, Denver, CO 80204, USA",419 W 13TH AVE DENVER CO,39.7369935,-104.9934343,Retail Marijuana Store,"HERBAL HEALTH, LLC",LOCAL PRODUCT OF COLORADO,"Retail Marijuana Store-HERBAL HEALTH, LLC"
1120,206,"1001 W Center Ave, Denver, CO 80223, USA",1001 W CENTER AVE DENVER CO,39.7060148,-104.9996308,Retail Marij Opt. Prem. Cultiv,"BELLFLOWER, LLC",,"Retail Marij Opt. Prem. Cultiv-BELLFLOWER, LLC"
1121,206,"1001 W Center Ave, Denver, CO 80223, USA",1001 W CENTER AVE DENVER CO,39.7060148,-104.9996308,Med Marijuana Opt Prem Cultiv,"BELLFLOWER, LLC",,"Med Marijuana Opt Prem Cultiv-BELLFLOWER, LLC"
1122,206,"1001 W Center Ave, Denver, CO 80223, USA",1001 W CENTER AVE DENVER CO,39.7060148,-104.9996308,Med Marijuana Inf Prod Manuf,"BELLFLOWER, LLC",,"Med Marijuana Inf Prod Manuf-BELLFLOWER, LLC"
1123,206,"1001 W Center Ave, Denver, CO 80223, USA",1001 W CENTER AVE DENVER CO,39.7060148,-104.9996308,Retail Marijuana Inf Prod Mfg,"BELLFLOWER, LLC",,"Retail Marijuana Inf Prod Mfg-BELLFLOWER, LLC"
1136,207,"990 6th Ave, Denver, CO 80204, USA",990 W 6TH AVE DENVER CO,39.7254991,-104.9994482,Retail Marijuana Store,CURE MEDICAL PHARM INC.,RIVERROCK,Retail Marijuana Store-CURE MEDICAL PHARM INC.
1137,207,"990 6th Ave, Denver, CO 80204, USA",990 W 6TH AVE DENVER CO,39.7254991,-104.9994482,Medical Marijuana Center,"CURE MEDICAL PHARM, INC.",RIVERROCK,"Medical Marijuana Center-CURE MEDICAL PHARM, INC."
1140,209,"5000 E 41st Ave, Denver, CO 80216, USA",5000 E 41ST AVE DENVER CO,39.7729024,-104.9296683,Retail Marijuana Inf Prod Mfg,"ECO GREEN GROW, LLC",FUEGO EXTRACTS,"Retail Marijuana Inf Prod Mfg-ECO GREEN GROW, LLC"
1141,209,"5000 E 41st Ave, Denver, CO 80216, USA",5000 E 41ST AVE DENVER CO,39.7729024,-104.9296683,Med Marijuana Inf Prod Manuf,"ECO GREEN GROW, LLC",FUEGO EXTRACTS,"Med Marijuana Inf Prod Manuf-ECO GREEN GROW, LLC"
1142,209,"5000 E 41st Ave, Denver, CO 80216, USA",5000 E 41ST AVE DENVER CO,39.7729024,-104.9296683,Med Marijuana Opt Prem Cultiv,"GREENER PASTURE COMPASSION CENTER, LLC",VERDE NATURAL,"Med Marijuana Opt Prem Cultiv-GREENER PASTURE COMPASSION CENTER, LLC"
1143,209,"5000 E 41st Ave, Denver, CO 80216, USA",5000 E 41ST AVE DENVER CO,39.7729024,-104.9296683,Retail Marij Opt. Prem. Cultiv,"GREENER PASTURE COMPASSION CENTER, LLC",VERDE NATURAL,"Retail Marij Opt. Prem. Cultiv-GREENER PASTURE COMPASSION CENTER, LLC"
1156,210,"1110 W Virginia Ave, Denver, CO 80223, USA",1110 W Virginia Ave Denver CO,39.7073048,-104.9995286,Retail Marijuana Store,RIA HOLDINGS LIMITED,LAUGHING GRASS,Retail Marijuana Store-RIA HOLDINGS LIMITED
1157,211,"4900-a Acoma St, Denver, CO 80216, USA",4900 N COLORADO BLVD DENVER CO,39.7860029,-104.9884731,Med Marijuana Opt Prem Cultiv,"ALPINE HERBAL WELLNESS, LLC",FROSTED LEAF,"Med Marijuana Opt Prem Cultiv-ALPINE HERBAL WELLNESS, LLC"
1158,212,"2383 S Downing St, Denver, CO 80210, USA",2383 S DOWNING ST DENVER CO,39.6734139,-104.9737315,Medical Marijuana Center,"URBAN CANNABIS II, LLC",HEALING HOUSE,"Medical Marijuana Center-URBAN CANNABIS II, LLC"
1159,212,"2383 S Downing St, Denver, CO 80210, USA",2383 S DOWNING ST DENVER CO,39.6734139,-104.9737315,Retail Marijuana Store,"URBAN CANNABIS II, LLC",HEALING HOUSE,"Retail Marijuana Store-URBAN CANNABIS II, LLC"
1162,213,"2200 S Lipan St, Denver, CO 80223, USA",2200 S LIPAN ST DENVER CO,39.6763756,-105.0014567,Med Marijuana Opt Prem Cultiv,"FIREHOUSE ORGANICS NORTH, LLC",FIREHOUSE ORGANICS,"Med Marijuana Opt Prem Cultiv-FIREHOUSE ORGANICS NORTH, LLC"
1163,215,"12001 E 37th Ave, Denver, CO 80239, USA",12001 E 37TH AVE DENVER CO,39.7684462,-104.8481069,Retail Marij Opt. Prem. Cultiv,"BK HOLDINGS, LLC",,"Retail Marij Opt. Prem. Cultiv-BK HOLDINGS, LLC"
1164,215,"12001 E 37th Ave, Denver, CO 80239, USA",12001 E 37TH AVE DENVER CO,39.7684462,-104.8481069,Med Marijuana Opt Prem Cultiv,"BK HOLDINGS, LLC",,"Med Marijuana Opt Prem Cultiv-BK HOLDINGS, LLC"
1165,215,"12001 E 37th Ave, Denver, CO 80239, USA",12001 E 37TH AVE DENVER CO,39.7684462,-104.8481069,Med Marijuana Inf Prod Manuf,"BK HOLDINGS, LLC",THE HERBAL CENTER,"Med Marijuana Inf Prod Manuf-BK HOLDINGS, LLC"
1172,216,"1045 W 45th Ave, Denver, CO 80211, USA",1045 W 45TH AVE DENVER CO,39.7784865,-105.0003943,Med Marijuana Opt Prem Cultiv,"MAHATMA GANGA, LLC",MAHATMA EXTREME CONCENTRATES,"Med Marijuana Opt Prem Cultiv-MAHATMA GANGA, LLC"
1173,216,"1045 W 45th Ave, Denver, CO 80211, USA",1045 W 45TH AVE DENVER CO,39.7784865,-105.0003943,Retail Marij Opt. Prem. Cultiv,"MAHATMA GANGA, LLC",MAHATMA EXTREME CONCENTRATES,"Retail Marij Opt. Prem. Cultiv-MAHATMA GANGA, LLC"
1174,216,"1045 W 45th Ave, Denver, CO 80211, USA",1045 W 45TH AVE DENVER CO,39.7784865,-105.0003943,Retail Marijuana Inf Prod Mfg,"MAHATMA GANGA, LLC",MAHATMA EXTREME CONCENTRATES,"Retail Marijuana Inf Prod Mfg-MAHATMA GANGA, LLC"
1175,216,"1045 W 45th Ave, Denver, CO 80211, USA",1045 W 45TH AVE DENVER CO,39.7784865,-105.0003943,Med Marijuana Inf Prod Manuf,"MAHATMA GANGA, LLC",MAHATMA EXTREME CONCENTRATES,"Med Marijuana Inf Prod Manuf-MAHATMA GANGA, LLC"
1188,217,"1055 S Fox St, Denver, CO 80223, USA",1055 S FOX ST DENVER CO,39.6973864,-104.9948379,Retail Marij Opt. Prem. Cultiv,CANNABIS CORP,CANNABIS,Retail Marij Opt. Prem. Cultiv-CANNABIS CORP
1189,218,"260 N Broadway, Denver, CO 80203, USA",260 N BROADWAY  DENVER CO,39.720519,-104.987294,Retail Marijuana Store,"PEAK HOLDINGS GROUP, LLC",PEAK DISPENSARY,"Retail Marijuana Store-PEAK HOLDINGS GROUP, LLC"
1190,218,"260 N Broadway, Denver, CO 80203, USA",260 N BROADWAY  DENVER CO,39.720519,-104.987294,Medical Marijuana Center,"PEAK HOLDINGS GROUP, LLC",PEAK,"Medical Marijuana Center-PEAK HOLDINGS GROUP, LLC"
1194,221,"2291 S Kalamath St, Denver, CO 80223, USA",2291 S KALAMATH ST DENVER CO,39.6750256,-105.0009241,Retail Marijuana Inf Prod Mfg,"MILE HIGH WELLNESS II, LLC",GREEN STREET,"Retail Marijuana Inf Prod Mfg-MILE HIGH WELLNESS II, LLC"
1195,221,"2291 S Kalamath St, Denver, CO 80223, USA",2291 S KALAMATH ST DENVER CO,39.6750256,-105.0009241,Retail Marij Opt. Prem. Cultiv,"MILE HIGH WELLNESS II, LLC",MILE HIGH WELLNESS GREEN STREET,"Retail Marij Opt. Prem. Cultiv-MILE HIGH WELLNESS II, LLC"
1196,221,"2291 S Kalamath St, Denver, CO 80223, USA",2291 S KALAMATH ST DENVER CO,39.6750256,-105.0009241,Medical Marijuana Center,"MILE HIGH WELLNESS II, LLC",MILE HIGH WELLNESS - GREEN STREET,"Medical Marijuana Center-MILE HIGH WELLNESS II, LLC"
1197,221,"2291 S Kalamath St, Denver, CO 80223, USA",2291 S KALAMATH ST DENVER CO,39.6750256,-105.0009241,Retail Marijuana Store,"MILE HIGH WELLNESS II, LLC",MILE HIGH WELLNESS - GREEN STREET,"Retail Marijuana Store-MILE HIGH WELLNESS II, LLC"
1198,221,"2291 S Kalamath St, Denver, CO 80223, USA",2291 S KALAMATH ST DENVER CO,39.6750256,-105.0009241,Med Marijuana Inf Prod Manuf,"MILE HIGH WELNESS II, LLC",GREEN STREET,"Med Marijuana Inf Prod Manuf-MILE HIGH WELNESS II, LLC"
1219,222,"1346 W Cedar Ave, Denver, CO 80223, USA",1346 W CEDAR AVE DENVER CO,39.7129448,-105.00503,Med Marijuana Opt Prem Cultiv,"LAB 710, LLC",LAB 710,"Med Marijuana Opt Prem Cultiv-LAB 710, LLC"
1220,222,"1346 W Cedar Ave, Denver, CO 80223, USA",1346 W CEDAR AVE DENVER CO,39.7129448,-105.00503,Med Marijuana Inf Prod Manuf,"LAB 710, LLC",LAB 710,"Med Marijuana Inf Prod Manuf-LAB 710, LLC"
1221,222,"1346 W Cedar Ave, Denver, CO 80223, USA",1346 W CEDAR AVE DENVER CO,39.7129448,-105.00503,Retail Marijuana Inf Prod Mfg,"LAB 710, LLC",LAB 710,"Retail Marijuana Inf Prod Mfg-LAB 710, LLC"
1228,224,"4960 Jackson St, Denver, CO 80216, USA",4960 N JACKSON ST DENVER CO,39.7870037,-104.9424902,Med Marijuana Inf Prod Manuf,"DKC, LLC",KUSH CONCENTRATES,"Med Marijuana Inf Prod Manuf-DKC, LLC"
1229,224,"4960 Jackson St, Denver, CO 80216, USA",4960 N JACKSON ST DENVER CO,39.7870037,-104.9424902,Retail Marijuana Inf Prod Mfg,DKC LLC,KUSH CONCENTRATES,Retail Marijuana Inf Prod Mfg-DKC LLC
1230,224,"4960 Jackson St, Denver, CO 80216, USA",4960 N JACKSON ST DENVER CO,39.7870037,-104.9424902,Retail Marij Opt. Prem. Cultiv,"DKC, LLC",DENVER KUSH CLUB,"Retail Marij Opt. Prem. Cultiv-DKC, LLC"
1237,225,"3702 W Quincy Ave, Denver, CO 80236, USA",3702 W Quincy  Denver CO,39.6383911,-105.0360059,Retail Marijuana Store,"JOIS, LLC",SILVER STEM FINE CANNABIS,"Retail Marijuana Store-JOIS, LLC"
1238,225,"3702 W Quincy Ave, Denver, CO 80236, USA",3702 W Quincy  Denver CO,39.6383911,-105.0360059,Medical Marijuana Center,"JOIS, LLC",SILVER STEM FINE CANNABIS,"Medical Marijuana Center-JOIS, LLC"
1241,226,"4940 E 39th Ave, Denver, CO 80207, USA",4940 E 39TH AVE DENVER CO,39.7714588,-104.9301702,Retail Marij Opt. Prem. Cultiv,4940 CORPORATION LLC,THE GARDEN,Retail Marij Opt. Prem. Cultiv-4940 CORPORATION LLC
1242,227,"70 N Broadway, Denver, CO 80203, USA",70 N BROADWAY  DENVER CO,39.7178536,-104.987193,Retail Marij Opt. Prem. Cultiv,"ABUNDANT HEALTH DENVER, LLC","HERBAN UNDERGROUND, LLC","Retail Marij Opt. Prem. Cultiv-ABUNDANT HEALTH DENVER, LLC"
1243,227,"70 N Broadway, Denver, CO 80203, USA",70 N BROADWAY  DENVER CO,39.7178536,-104.987193,Medical Marijuana Center,"ABUNDANT HEALTH DENVER, LLC",HERBAN UNDERGROUND,"Medical Marijuana Center-ABUNDANT HEALTH DENVER, LLC"
1244,227,"70 N Broadway, Denver, CO 80203, USA",70 N BROADWAY  DENVER CO,39.7178536,-104.987193,Med Marijuana Opt Prem Cultiv,"ABUNDANT HEALTH DENVER, LLC","HERBAN UNDERGROUND, LLC","Med Marijuana Opt Prem Cultiv-ABUNDANT HEALTH DENVER, LLC"
1245,227,"70 N Broadway, Denver, CO 80203, USA",70 N BROADWAY  DENVER CO,39.7178536,-104.987193,Retail Marijuana Store,"ABUNDANT HEALTH DENVER, LLC",HERBAN UNDERGROUND,"Retail Marijuana Store-ABUNDANT HEALTH DENVER, LLC"
1258,228,"4755 Lipan St, Denver, CO 80211, USA",4755 N LIPAN ST DENVER CO,39.7831403,-105.0026892,Medical Marijuana Center,"HERBAL ALTERNATIVES, LLC",SUNNYSIDE DISPENSARY,"Medical Marijuana Center-HERBAL ALTERNATIVES, LLC"
1259,228,"4755 Lipan St, Denver, CO 80211, USA",4755 N LIPAN ST DENVER CO,39.7831403,-105.0026892,Med Marijuana Opt Prem Cultiv,HERBAL ALTERNATIVES LLC,SUNNYSIDE DISPENSARY,Med Marijuana Opt Prem Cultiv-HERBAL ALTERNATIVES LLC
1267,229,"3121 E Colfax Ave, Denver, CO 80206, USA",3121 E COLFAX AVE DENVER CO,39.7403487,-104.9506128,Retail Marijuana Store,"PIONEER INTERESTS COLFAX, LLC",,"Retail Marijuana Store-PIONEER INTERESTS COLFAX, LLC"
1268,230,"1332 S Cherokee St, Denver, CO 80223, USA",1332 S Cherokee St Denver CO,39.6926199,-104.9906982,Marijuana Transporter,INDYSPENSABLE WHOLESALE DISTRIBUTORS,"IDY DISTRIBUTORS, IDY CORP",Marijuana Transporter-INDYSPENSABLE WHOLESALE DISTRIBUTORS
1273,231,"3900 E 48th Ave, Denver, CO 80216, USA",3900 E 48th  Denver CO,39.7832808,-104.9416975,Medical Marijuana Center,KGBI COLORADO LLC,SPARK DISPENSARY,Medical Marijuana Center-KGBI COLORADO LLC
1276,232,"4550 Jackson St, Denver, CO 80216, USA",4550 N Jackson St Denver CO,39.7793899,-104.9426271,Retail Marijuana Inf Prod Mfg,TREATMENTS UNLIMITED LLC,ALTITUDE EAST,Retail Marijuana Inf Prod Mfg-TREATMENTS UNLIMITED LLC
1277,233,"1952 S Acoma St, Denver, CO 80223, USA",1952 S ACOMA ST DENVER CO,39.6808518,-104.9885617,Retail Marijuana Inf Prod Mfg,B'S TREATS LLC,,Retail Marijuana Inf Prod Mfg-B'S TREATS LLC
1278,233,"1952 S Acoma St, Denver, CO 80223, USA",1952 S ACOMA ST DENVER CO,39.6808518,-104.9885617,Med Marijuana Inf Prod Manuf,B'S TREATS LLC,,Med Marijuana Inf Prod Manuf-B'S TREATS LLC
1281,234,"N Bryant St, Denver, CO 80211, USA",678 N BRYANT ST DENVER CO,39.7508151,-105.0183872,Med Marijuana Inf Prod Manuf,CANYON LLC,,Med Marijuana Inf Prod Manuf-CANYON LLC
1282,234,"N Bryant St, Denver, CO 80211, USA",678 N BRYANT ST DENVER CO,39.7508151,-105.0183872,Retail Marijuana Inf Prod Mfg,"CANYON, LLC",,"Retail Marijuana Inf Prod Mfg-CANYON, LLC"
1285,235,"1135 S Jason St, Denver, CO 80223, USA",1135 S JASON ST DENVER CO,39.6960454,-104.9993935,Med Marijuana Inf Prod Manuf,"JULIE CAMILLE, LLC",SWEET GRASS KITCHEN,"Med Marijuana Inf Prod Manuf-JULIE CAMILLE, LLC"
1286,235,"1135 S Jason St, Denver, CO 80223, USA",1135 S JASON ST DENVER CO,39.6960454,-104.9993935,Retail Marijuana Inf Prod Mfg,JULIE CAMILLE LLC,SWEET GRASS KITCHEN,Retail Marijuana Inf Prod Mfg-JULIE CAMILLE LLC
1287,235,"1135 S Jason St, Denver, CO 80223, USA",1135 S JASON ST DENVER CO,39.6960454,-104.9993935,Med Marijuana Opt Prem Cultiv,JULIE CAMILLE LLC,SWEET GRASS KITCHEN,Med Marijuana Opt Prem Cultiv-JULIE CAMILLE LLC
1288,235,"1135 S Jason St, Denver, CO 80223, USA",1135 S JASON ST DENVER CO,39.6960454,-104.9993935,Retail Marij Opt. Prem. Cultiv,"JULIE CAMILLE, LLC",SWEET GRASS KITCHEN,"Retail Marij Opt. Prem. Cultiv-JULIE CAMILLE, LLC"
1301,236,"1100 Yuma Ct, Denver, CO 80204, USA",1100 N YUMA CT DENVER CO,39.734009,-105.014334,Retail Marij Opt. Prem. Cultiv,"URBAN CANNABIS II, LLC",HEALING HOUSE,"Retail Marij Opt. Prem. Cultiv-URBAN CANNABIS II, LLC"
1302,236,"1100 Yuma Ct, Denver, CO 80204, USA",1100 N YUMA CT DENVER CO,39.734009,-105.014334,Med Marijuana Opt Prem Cultiv,"URBAN CANNABIS II, LLC",HEALING HOUSE,"Med Marijuana Opt Prem Cultiv-URBAN CANNABIS II, LLC"
1305,237,"4820 Morrison Rd, Denver, CO 80219, USA",4820  Morrison  Denver CO,39.6992756,-105.0487779,Medical Marijuana Center,"STONE T.M.C., LLC",THE STONE DISPENSARY,"Medical Marijuana Center-STONE T.M.C., LLC"
1306,239,"3795 Paris St, Denver, CO 80239, USA",3795 N PARIS ST DENVER CO,39.7692724,-104.849019,Retail Marijuana Inf Prod Mfg,"FOCUSED LABS, LLC",,"Retail Marijuana Inf Prod Mfg-FOCUSED LABS, LLC"
1307,239,"3795 Paris St, Denver, CO 80239, USA",3795 N PARIS ST DENVER CO,39.7692724,-104.849019,Med Marijuana Inf Prod Manuf,"FOCUSED LABS, LLC",,"Med Marijuana Inf Prod Manuf-FOCUSED LABS, LLC"
1310,240,"3980 Franklin St, Denver, CO 80205, USA",3980 N FRANKLIN ST DENVER CO,39.7726375,-104.9680612,Medical Marijuana Center,"GREEN KIWI 2, LLC",LIVWELL,"Medical Marijuana Center-GREEN KIWI 2, LLC"
1311,240,"3980 Franklin St, Denver, CO 80205, USA",3980 N FRANKLIN ST DENVER CO,39.7726375,-104.9680612,Retail Marijuana Store,"GREEN KIWI 2, LLC",LIVWELL,"Retail Marijuana Store-GREEN KIWI 2, LLC"
1314,241,"6853 Leetsdale Dr, Denver, CO 80224, USA",6853  LEETSDALE DR DENVER CO,39.7005956,-104.9090982,Medical Marijuana Center,"WELLNESS CENTER OF THE ROCKIES, INC.",,"Medical Marijuana Center-WELLNESS CENTER OF THE ROCKIES, INC."
1315,241,"6853 Leetsdale Dr, Denver, CO 80224, USA",6853  LEETSDALE DR DENVER CO,39.7005956,-104.9090982,Retail Marijuana Store,"WELLNESS CENTER OF THE ROCKIES, INC",,"Retail Marijuana Store-WELLNESS CENTER OF THE ROCKIES, INC"
1318,242,"N Bryant St, Denver, CO 80211, USA",695 N BRYANT ST DENVER CO,39.7508151,-105.0183872,Med Marijuana Opt Prem Cultiv,"RANGE, LLC","RANGE, LLC","Med Marijuana Opt Prem Cultiv-RANGE, LLC"
1319,243,"525 Bryant St, Denver, CO 80204, USA",525 N Bryant  Denver CO,39.7243646,-105.0189637,Retail Marij Opt. Prem. Cultiv,PLATINUM GARDENS LLC,,Retail Marij Opt. Prem. Cultiv-PLATINUM GARDENS LLC
1320,244,"5130 E Colfax Ave, Denver, CO 80220, USA",5130 E COLFAX AVE DENVER CO,39.7399424,-104.927136,Retail Marijuana Store,"DRAGON PARTNERS, LLC",GREEN DRAGON COLORADO,"Retail Marijuana Store-DRAGON PARTNERS, LLC"
1321,245,"4525 Ironton St, Denver, CO 80239, USA",4525 N Ironton  Denver CO,39.7793811,-104.8638868,Med Marijuana Opt Prem Cultiv,WASH PARK BOUTIQUE LLC,LUCY SKY CANNABIS BOUTIQUE,Med Marijuana Opt Prem Cultiv-WASH PARK BOUTIQUE LLC
1326,247,"1 Broadway, Denver, CO 80203, USA",1  BROADWAY  DENVER CO,39.7169422,-104.9880121,Retail Marijuana Store,"ARES STRATEGIES, INC",TERRAPIN CARE STATION,"Retail Marijuana Store-ARES STRATEGIES, INC"
1327,248,"2255 S Kalamath St, Denver, CO 80223, USA",2255 S KALAMATH ST DENVER CO,39.675793,-105.0010915,Med Marijuana Inf Prod Manuf,"CONNOISSEURS GENETICS & CONCENTRATES, LLC",,"Med Marijuana Inf Prod Manuf-CONNOISSEURS GENETICS & CONCENTRATES, LLC"
1328,248,"2255 S Kalamath St, Denver, CO 80223, USA",2255 S KALAMATH ST DENVER CO,39.675793,-105.0010915,Retail Marijuana Inf Prod Mfg,CONNOISSEURS GENECTICS & CONCENTRATES LLC,,Retail Marijuana Inf Prod Mfg-CONNOISSEURS GENECTICS & CONCENTRATES LLC
1329,248,"2255 S Kalamath St, Denver, CO 80223, USA",2255 S KALAMATH ST DENVER CO,39.675793,-105.0010915,Med Marijuana Opt Prem Cultiv,CONNOISSEURS GENETICS & CONCENTRATES,,Med Marijuana Opt Prem Cultiv-CONNOISSEURS GENETICS & CONCENTRATES
1336,252,"1285 W Byers Pl, Denver, CO 80223, USA",1285 W BYERS PL DENVER CO,39.7123649,-105.0034961,Retail Marij Opt. Prem. Cultiv,"MMST, LLC",PHRESH CANNABIS COLORADO,"Retail Marij Opt. Prem. Cultiv-MMST, LLC"
1337,253,"879 N Federal Blvd, Denver, CO 80204, USA",879 N Federal Blvd Denver CO,39.7329738,-105.0251809,Med Marijuana Test Facility,"PHYTATECH CO, LLC",,"Med Marijuana Test Facility-PHYTATECH CO, LLC"
1338,256,"1155 S Cherokee St, Denver, CO 80223, USA",1155 S CHEROKEE ST DENVER CO,39.6955928,-104.991428,Retail Marijuana Inf Prod Mfg,"MMJ CHEROKEE, LLC",MMJ AMERICA CHEROKEE,"Retail Marijuana Inf Prod Mfg-MMJ CHEROKEE, LLC"
1339,256,"1155 S Cherokee St, Denver, CO 80223, USA",1155 S CHEROKEE ST DENVER CO,39.6955928,-104.991428,Med Marijuana Inf Prod Manuf,"MMJ CHEROKEE, LLC",MMJ AMERICA CHEROKEE,"Med Marijuana Inf Prod Manuf-MMJ CHEROKEE, LLC"
1340,256,"1155 S Cherokee St, Denver, CO 80223, USA",1155 S CHEROKEE ST DENVER CO,39.6955928,-104.991428,Med Marijuana Opt Prem Cultiv,"MMJ CHEROKEE, LLC",MMJ AMERICA CHEROKEE,"Med Marijuana Opt Prem Cultiv-MMJ CHEROKEE, LLC"
1341,256,"1155 S Cherokee St, Denver, CO 80223, USA",1155 S CHEROKEE ST DENVER CO,39.6955928,-104.991428,Medical Marijuana Center,"MMJ CHEROKEE, LLC",MMJ AMERICA CHEROKEE,"Medical Marijuana Center-MMJ CHEROKEE, LLC"
1354,257,"4705 Oakland St, Denver, CO 80239, USA",4705 N OAKLAND ST DENVER CO,39.7826885,-104.8512081,Retail Marij Opt. Prem. Cultiv,"CARRICK-HARVEST, LLC",VERITAS FINE CANNABIS,"Retail Marij Opt. Prem. Cultiv-CARRICK-HARVEST, LLC"
1355,258,"4620 Peoria St, Denver, CO 80239, USA",4620 N PEORIA ST DENVER CO,39.7802847,-104.8459408,Retail Marijuana Store,"GOLDEN MEDS, INC","GM ENTERPRISE, INC.","Retail Marijuana Store-GOLDEN MEDS, INC"
1356,258,"4620 Peoria St, Denver, CO 80239, USA",4620 N PEORIA ST DENVER CO,39.7802847,-104.8459408,Medical Marijuana Center,"GOLDEN MEDS, INC","GM ENTERPRISE, INC.","Medical Marijuana Center-GOLDEN MEDS, INC"
1360,260,"1909 S Broadway, Denver, CO 80210, USA",1909 S BROADWAY  DENVER CO,39.681847,-104.98788,Medical Marijuana Center,"BK HOLDINGS, LLC",THE HERBAL CENTER,"Medical Marijuana Center-BK HOLDINGS, LLC"
1361,260,"1909 S Broadway, Denver, CO 80210, USA",1909 S BROADWAY  DENVER CO,39.681847,-104.98788,Retail Marijuana Store,"BK HOLDINGS, LLC",THE HERBAL CENTER,"Retail Marijuana Store-BK HOLDINGS, LLC"
1364,262,"1630 N Federal Blvd, Denver, CO 80204, USA",1630 N FEDERAL BLVD DENVER CO,39.7429209,-105.0249842,Retail Marijuana Store,"MILE HIGH MEDICAL CANNABIS, LLC",LIT,"Retail Marijuana Store-MILE HIGH MEDICAL CANNABIS, LLC"
1365,269,"5070 Oakland St, Denver, CO 80239, USA",5070 N OAKLAND ST DENVER CO,39.7897595,-104.8501135,Med Marijuana Opt Prem Cultiv,"LBW CONSULTING, GROUP,LLC",,"Med Marijuana Opt Prem Cultiv-LBW CONSULTING, GROUP,LLC"
1366,269,"5070 Oakland St, Denver, CO 80239, USA",5070 N OAKLAND ST DENVER CO,39.7897595,-104.8501135,Medical Marijuana Center,"LBW CONSULTING GROUP, LLC",,"Medical Marijuana Center-LBW CONSULTING GROUP, LLC"
1367,269,"5070 Oakland St, Denver, CO 80239, USA",5070 N OAKLAND ST DENVER CO,39.7897595,-104.8501135,Retail Marij Opt. Prem. Cultiv,"LBW CONSULTING GROUP, LLC",,"Retail Marij Opt. Prem. Cultiv-LBW CONSULTING GROUP, LLC"
1368,269,"5070 Oakland St, Denver, CO 80239, USA",5070 N OAKLAND ST DENVER CO,39.7897595,-104.8501135,Med Marijuana Inf Prod Manuf,"LBW CONSULTING GROUP, LLC",,"Med Marijuana Inf Prod Manuf-LBW CONSULTING GROUP, LLC"
1381,270,"795 S Jason St, Denver, CO 80223, USA",795 S JASON ST DENVER CO,39.7022992,-104.9997221,Retail Marij Opt. Prem. Cultiv,ROOTS MANAGEMENT LLC,,Retail Marij Opt. Prem. Cultiv-ROOTS MANAGEMENT LLC
1382,272,"1810 S Broadway, Denver, CO 80210, USA",1810 S Broadway  Denver CO,39.6837002,-104.9872836,Medical Marijuana Center,"GANJA GOURMET, LLC",GANJA GOURMET,"Medical Marijuana Center-GANJA GOURMET, LLC"
1383,273,"4394 Grape St, Denver, CO 80216, USA",4394 N GRAPE ST DENVER CO,39.7779764,-104.92403,Med Marijuana Opt Prem Cultiv,"THE GREEN SOLUTION, LLC",,"Med Marijuana Opt Prem Cultiv-THE GREEN SOLUTION, LLC"
1384,273,"4394 Grape St, Denver, CO 80216, USA",4394 N GRAPE ST DENVER CO,39.7779764,-104.92403,Retail Marij Opt. Prem. Cultiv,"THE GREEN SOLUTION, LLC",,"Retail Marij Opt. Prem. Cultiv-THE GREEN SOLUTION, LLC"
1387,274,"1620 Market St, Denver, CO 80202, USA",1620  Market  Denver CO,39.7500198,-104.9975995,Retail Marijuana Store,"DJR COLORADO, LLC",,"Retail Marijuana Store-DJR COLORADO, LLC"
1388,277,"762 Kalamath St, Denver, CO 80204, USA",762 N KALAMATH ST DENVER CO,39.7285232,-104.9998349,Medical Marijuana Center,ALLGREENS LLC,,Medical Marijuana Center-ALLGREENS LLC
1392,278,"6625 Leetsdale Dr, Denver, CO 80224, USA",6625  LEETSDALE DR DENVER CO,39.7021665,-104.9112814,Medical Marijuana Center,UNIQUEITMINDS INC,CHRONORADO MEDICAL,Medical Marijuana Center-UNIQUEITMINDS INC
1393,279,"4801 W Colfax Ave, Denver, CO 80204, USA",4801 W COLFAX AVE DENVER CO,39.7406446,-105.0489606,Medical Marijuana Center,"CANNABIS FOR HEALTH, LLC",PIG N' WHISTLE,"Medical Marijuana Center-CANNABIS FOR HEALTH, LLC"
1394,279,"4801 W Colfax Ave, Denver, CO 80204, USA",4801 W COLFAX AVE DENVER CO,39.7406446,-105.0489606,Retail Marijuana Store,"CANNABIS FOR HEALTH, LLC",PIG N' WHISTLE,"Retail Marijuana Store-CANNABIS FOR HEALTH, LLC"
1397,280,"4575 Joliet St, Denver, CO 80239, USA",4575 N JOLIET ST DENVER CO,39.7802395,-104.8618344,Med Marijuana Opt Prem Cultiv,LITTLE GREEN PHARMACY INC,,Med Marijuana Opt Prem Cultiv-LITTLE GREEN PHARMACY INC
1398,281,"1660 E 40th Ave, Denver, CO 80205, USA",1660 E 40TH AVE DENVER CO,39.7727231,-104.9673156,Med Marijuana Opt Prem Cultiv,"GREEN KIWI 2, LLC",LIVWELL,"Med Marijuana Opt Prem Cultiv-GREEN KIWI 2, LLC"
1399,281,"1660 E 40th Ave, Denver, CO 80205, USA",1660 E 40TH AVE DENVER CO,39.7727231,-104.9673156,Retail Marij Opt. Prem. Cultiv,"GREEN KIWI 2, LLC",LIVWELL,"Retail Marij Opt. Prem. Cultiv-GREEN KIWI 2, LLC"
1402,283,"3960 Grape St, Denver, CO 80207, USA",3960 N Grape  Denver CO,39.77263,-104.9242387,Retail Marijuana Test Facility,NORDIC ANALYTICAL LABORATORIES LLC,,Retail Marijuana Test Facility-NORDIC ANALYTICAL LABORATORIES LLC
1403,284,"1617 Wazee St, Denver, CO 80202, USA",1617  WAZEE ST DENVER CO,39.7517438,-104.9999047,Retail Marij Opt. Prem. Cultiv,"1617 WAZEE STREET, LLC",LODO WELLNESS CENTER,"Retail Marij Opt. Prem. Cultiv-1617 WAZEE STREET, LLC"
1404,284,"1617 Wazee St, Denver, CO 80202, USA",1617  WAZEE ST DENVER CO,39.7517438,-104.9999047,Retail Marijuana Store,"1617 WAZEE STREET, LLC",LODO WELLNESS CENTER,"Retail Marijuana Store-1617 WAZEE STREET, LLC"
1405,284,"1617 Wazee St, Denver, CO 80202, USA",1617  WAZEE ST DENVER CO,39.7517438,-104.9999047,Med Marijuana Opt Prem Cultiv,"1617 WAZEE STREET, LLC",LODO WELLNESS CENTER,"Med Marijuana Opt Prem Cultiv-1617 WAZEE STREET, LLC"
1412,285,"1285 S Bannock St, Denver, CO 80223, USA",1285 S BANNOCK ST DENVER CO,39.6932377,-104.9904579,Med Marijuana Opt Prem Cultiv,"HIGHLINE ANALYTICAL INDUSTRIES, LLC",HONEYBEAR LABS,"Med Marijuana Opt Prem Cultiv-HIGHLINE ANALYTICAL INDUSTRIES, LLC"
1413,285,"1285 S Bannock St, Denver, CO 80223, USA",1285 S BANNOCK ST DENVER CO,39.6932377,-104.9904579,Med Marijuana Inf Prod Manuf,HIGHLINE ANALYTICAL INDUSTRIES LLC,HONEYBEAR LABS,Med Marijuana Inf Prod Manuf-HIGHLINE ANALYTICAL INDUSTRIES LLC
1416,288,"54 Lipan St, Denver, CO 80223, USA",54 N LIPAN ST DENVER CO,39.7176625,-105.0012285,Retail Marij Opt. Prem. Cultiv,"MILE HIGH DISPENSARY, LLC",MILE HIGH DISPENSARY,"Retail Marij Opt. Prem. Cultiv-MILE HIGH DISPENSARY, LLC"
1417,289,"1321 Elati St, Denver, CO 80204, USA",1321 N ELATI ST DENVER CO,39.7372891,-104.9944043,Medical Marijuana Center,"5280 WELLNESS, LLC",MMJ AMERICA GOLDEN TRIANGLE,"Medical Marijuana Center-5280 WELLNESS, LLC"
1418,290,"3054 Larimer St, Denver, CO 80205, USA",3054  LARIMER ST DENVER CO,39.7629004,-104.979376,Retail Marijuana Store,BOTANICO INC,,Retail Marijuana Store-BOTANICO INC
1419,292,"2070 S Huron St, Denver, CO 80223, USA",2070 S HURON ST DENVER CO,39.6789931,-104.9970328,Retail Marijuana Store,THE OUNCE DEPOT LLC,THE FARMERS MARKET,Retail Marijuana Store-THE OUNCE DEPOT LLC
1420,294,"4645 Joliet St, Denver, CO 80239, USA",4645 N Joliet  Denver CO,39.7809934,-104.8617888,Retail Marijuana Inf Prod Mfg,"434 GROUP, LLC",VIOLA'S EXTRACTS,"Retail Marijuana Inf Prod Mfg-434 GROUP, LLC"
1421,294,"4645 Joliet St, Denver, CO 80239, USA",4645 N Joliet  Denver CO,39.7809934,-104.8617888,Retail Marij Opt. Prem. Cultiv,"VIOLA, INC",VIOLA'S EXTRACTS,"Retail Marij Opt. Prem. Cultiv-VIOLA, INC"
1424,298,"1133 Bannock St, Denver, CO 80204, USA",1133 N BANNOCK ST DENVER CO,39.7344405,-104.9906157,Medical Marijuana Center,"COLORADO CANNABIS COMPANY, LLC",PURE MEDICAL DISPENSARY,"Medical Marijuana Center-COLORADO CANNABIS COMPANY, LLC"
1425,299,"11122 E 47th Ave, Denver, CO 80239, USA",11122 E 47TH AVE DENVER CO,39.7821089,-104.8583682,Med Marijuana Opt Prem Cultiv,"PERSONALIZED ORGANIC TREATMENTS, LLC",,"Med Marijuana Opt Prem Cultiv-PERSONALIZED ORGANIC TREATMENTS, LLC"
1426,301,"4237 Josephine St, Denver, CO 80216, USA",4237 N JOSEPHINE ST DENVER CO,39.7758136,-104.9584782,Retail Marij Opt. Prem. Cultiv,"EJB VENTURES, LLC",HARMONY EXTRACTS,"Retail Marij Opt. Prem. Cultiv-EJB VENTURES, LLC"
1427,301,"4237 Josephine St, Denver, CO 80216, USA",4237 N JOSEPHINE ST DENVER CO,39.7758136,-104.9584782,Med Marijuana Opt Prem Cultiv,"EJB VENTURES, LLC",HARMONY EXTRACTS,"Med Marijuana Opt Prem Cultiv-EJB VENTURES, LLC"
1430,302,"5227 Monroe St, Denver, CO 80216, USA",5227 N MONROE ST DENVER CO,39.791794,-104.9455413,Med Marijuana Opt Prem Cultiv,ZENGOLDS LLC,,Med Marijuana Opt Prem Cultiv-ZENGOLDS LLC
1431,305,"6666 E Stapleton Dr S, Denver, CO 80216, USA",6666 E Stapleton South DR Denver CO,39.777668,-104.9113581,Medical Marijuana Center,KAZIMER LLC,ROCKY MOUNTAIN HIGH,Medical Marijuana Center-KAZIMER LLC
1432,305,"6666 E Stapleton Dr S, Denver, CO 80216, USA",6666 E Stapleton South DR Denver CO,39.777668,-104.9113581,Retail Marijuana Store,KAZIMER LLC,BUD CELLAR,Retail Marijuana Store-KAZIMER LLC
1433,305,"6666 E Stapleton Dr S, Denver, CO 80216, USA",6666 E Stapleton South DR Denver CO,39.777668,-104.9113581,Retail Marij Opt. Prem. Cultiv,"COMPASSIONATE CARE GIVERS, INC.",,"Retail Marij Opt. Prem. Cultiv-COMPASSIONATE CARE GIVERS, INC."
1444,307,"3944 N High St, Denver, CO 80205, USA",3944 N HIGH ST DENVER CO,39.7720155,-104.9644632,Retail Marijuana Store,KTA LLC,THE LODGE,Retail Marijuana Store-KTA LLC
1445,307,"3944 N High St, Denver, CO 80205, USA",3944 N HIGH ST DENVER CO,39.7720155,-104.9644632,Medical Marijuana Center,KTA LLC,THE LODGE,Medical Marijuana Center-KTA LLC
1448,308,"4640 Ironton St, Denver, CO 80239, USA",4640 N Ironton St Denver CO,39.7811893,-104.862701,Retail Marij Opt. Prem. Cultiv,SUNHOUSE COLORADO LLC,SUNHOUSE,Retail Marij Opt. Prem. Cultiv-SUNHOUSE COLORADO LLC
1450,311,"4990 Oakland St, Denver, CO 80239, USA",4990 N OAKLAND ST DENVER CO,39.788185,-104.8501135,Retail Marijuana Inf Prod Mfg,"LEFT BANK, LLC",DIXIE ELIXIRS,"Retail Marijuana Inf Prod Mfg-LEFT BANK, LLC"
1451,311,"4990 Oakland St, Denver, CO 80239, USA",4990 N OAKLAND ST DENVER CO,39.788185,-104.8501135,Med Marijuana Inf Prod Manuf,"LEFT BANK, LLC","DIXIE ELIXIRS, LLC","Med Marijuana Inf Prod Manuf-LEFT BANK, LLC"
1454,314,"5300 Joliet St, Denver, CO 80239, USA",5300  JOLIET ST Denver CO,39.7937422,-104.8609222,Retail Marij Opt. Prem. Cultiv,JS INVESTMENTS LLC,EUFLORA,Retail Marij Opt. Prem. Cultiv-JS INVESTMENTS LLC
1455,315,"2042 Arapahoe St, Denver, CO 80205, USA",2042  ARAPAHOE ST DENVER CO,39.752125,-104.989891,Retail Marijuana Store,"MILE HIGH MEDICAL, LLC",MMJ AMERICA UPTOWN,"Retail Marijuana Store-MILE HIGH MEDICAL, LLC"
1456,315,"2042 Arapahoe St, Denver, CO 80205, USA",2042  ARAPAHOE ST DENVER CO,39.752125,-104.989891,Medical Marijuana Center,"MILE HIGH MEDICAL, LLC",MMJ AMERICA UPTOWN,"Medical Marijuana Center-MILE HIGH MEDICAL, LLC"
1459,316,"505 W 40th Ave, Denver, CO 80216, USA",505 W 40TH AVE DENVER CO,39.7720552,-104.9939362,Retail Marijuana Store,"505 CENTER, LLC",PURE MEDICAL DISPENSARY,"Retail Marijuana Store-505 CENTER, LLC"
1460,316,"505 W 40th Ave, Denver, CO 80216, USA",505 W 40TH AVE DENVER CO,39.7720552,-104.9939362,Medical Marijuana Center,"505 CENTER, LLC",PURE MEDICAL DISPENSARY,"Medical Marijuana Center-505 CENTER, LLC"
1463,317,"N Mariposa St, Denver, CO, USA",121 N MARIPOSA ST DENVER CO,39.9363392,-105.00246,Retail Marijuana Inf Prod Mfg,"EJB VENTURES, LLC",HARMONY EXTRACTS,"Retail Marijuana Inf Prod Mfg-EJB VENTURES, LLC"
1465,317,"N Mariposa St, Denver, CO, USA",121 N MARIPOSA ST DENVER CO,39.9363392,-105.00246,Med Marijuana Inf Prod Manuf,"EJB VENTURES, LLC",HARMONY EXTRACTS,"Med Marijuana Inf Prod Manuf-EJB VENTURES, LLC"
1472,318,"3100 Blake St, Denver, CO 80205, USA",3100  BLAKE ST DENVER CO,39.764527,-104.9805513,Medical Marijuana Center,"RINO SUPPLY CO, INC.",,"Medical Marijuana Center-RINO SUPPLY CO, INC."
1473,319,"4765 Oakland St, Denver, CO 80239, USA",4765 N OAKLAND ST DENVER CO,39.7837908,-104.8512081,Med Marijuana Opt Prem Cultiv,TRILL THERAPEUTICS LLC,TRILL ALTERNATIVES,Med Marijuana Opt Prem Cultiv-TRILL THERAPEUTICS LLC
1474,320,"130 Lipan St, Denver, CO 80223, USA",130 N Lipan  Denver CO,39.7190472,-105.0011828,Retail Marij Opt. Prem. Cultiv,"KPST, LLC",5 BUDS,"Retail Marij Opt. Prem. Cultiv-KPST, LLC"
1475,322,"2160 S Lipan St, Denver, CO 80223, USA",2160 S LIPAN ST DENVER CO,39.6773216,-105.0014567,Med Marijuana Opt Prem Cultiv,SIMPLY PURE EDIBLES COLORADO LLC,SIMPLY PURE EDIBLES COLORADO,Med Marijuana Opt Prem Cultiv-SIMPLY PURE EDIBLES COLORADO LLC
1476,322,"2160 S Lipan St, Denver, CO 80223, USA",2160 S LIPAN ST DENVER CO,39.6773216,-105.0014567,Med Marijuana Inf Prod Manuf,SIMPLY PURE EDIBLES COLORADO LLC,SIMPLY PURE EDIBLES,Med Marijuana Inf Prod Manuf-SIMPLY PURE EDIBLES COLORADO LLC
1477,322,"2160 S Lipan St, Denver, CO 80223, USA",2160 S LIPAN ST DENVER CO,39.6773216,-105.0014567,Medical Marijuana Center,SIMPLY PURE EDIBLES COLORADO LLC,SIMPLY PURE EDIBLES,Medical Marijuana Center-SIMPLY PURE EDIBLES COLORADO LLC
1484,324,"5077 N Xenia St, Denver, CO 80238, USA",5077 N COLORADO BLVD DENVER CO,39.7902637,-104.8860857,Retail Marij Opt. Prem. Cultiv,GOLDEN MEDS INC,"GM ENTERPRISE, INC",Retail Marij Opt. Prem. Cultiv-GOLDEN MEDS INC
1485,324,"5077 N Xenia St, Denver, CO 80238, USA",5077 N COLORADO BLVD DENVER CO,39.7902637,-104.8860857,Med Marijuana Opt Prem Cultiv,"GOLDEN MEDS, INC","GM ENTERPRISE, INC.","Med Marijuana Opt Prem Cultiv-GOLDEN MEDS, INC"
1488,325,"505 W 40th Ave, Denver, CO 80216, USA",505 W 40th AVE Denver CO,39.7720552,-104.9939362,Med Marijuana Inf Prod Manuf,"COLORADO CANNABIS COMPANY, LLC",PURE MEDICAL DISPENSARY,"Med Marijuana Inf Prod Manuf-COLORADO CANNABIS COMPANY, LLC"
1489,325,"505 W 40th Ave, Denver, CO 80216, USA",505 W 40th AVE Denver CO,39.7720552,-104.9939362,Retail Marijuana Inf Prod Mfg,"COLORADO CANNABIS COMPANY, LLC",PURE MEDICAL DISPENSARY,"Retail Marijuana Inf Prod Mfg-COLORADO CANNABIS COMPANY, LLC"
1493,331,"4975 N Vasquez Blvd, Denver, CO 80216, USA",4975 N VASQUEZ BLVD DENVER CO,39.786831,-104.946158,Retail Marijuana Store,"DENVER DISPENSARY, LLC","DENVER DISPENSARY, LLC","Retail Marijuana Store-DENVER DISPENSARY, LLC"
1494,331,"4975 N Vasquez Blvd, Denver, CO 80216, USA",4975 N VASQUEZ BLVD DENVER CO,39.786831,-104.946158,Retail Marij Opt. Prem. Cultiv,"THE DENVER DISPENSARY, LLC",DENVER DISPENSARY,"Retail Marij Opt. Prem. Cultiv-THE DENVER DISPENSARY, LLC"
1495,331,"4975 N Vasquez Blvd, Denver, CO 80216, USA",4975 N VASQUEZ BLVD DENVER CO,39.786831,-104.946158,Med Marijuana Opt Prem Cultiv,"DENVER DISPENSARY, LLC",DENVER DISPENSARY LLC,"Med Marijuana Opt Prem Cultiv-DENVER DISPENSARY, LLC"
1496,331,"4975 N Vasquez Blvd, Denver, CO 80216, USA",4975 N VASQUEZ BLVD DENVER CO,39.786831,-104.946158,Medical Marijuana Center,"DENVER DISPENSARY, LLC",DENVER DISPENSARY,"Medical Marijuana Center-DENVER DISPENSARY, LLC"
1509,332,"3899 Quentin St, Denver, CO 80239, USA",3899 N Quentin St Denver CO,39.7707621,-104.8451427,Retail Marijuana Store,ASPEN FOREST LLC,MARY JANE'S HOUSE,Retail Marijuana Store-ASPEN FOREST LLC
1510,332,"3899 Quentin St, Denver, CO 80239, USA",3899 N Quentin St Denver CO,39.7707621,-104.8451427,Retail Marij Opt. Prem. Cultiv,ASPEN FOREST LLC,MARY JANE'S HOUSE,Retail Marij Opt. Prem. Cultiv-ASPEN FOREST LLC
1513,333,"2949 W Alameda Ave, Denver, CO 80219, USA",2949 W ALAMEDA AVE DENVER CO,39.7114875,-105.024465,Medical Marijuana Center,"ROYAL ASSET MANAGEMENT, LLC",DIEGO PELLICER,"Medical Marijuana Center-ROYAL ASSET MANAGEMENT, LLC"
1514,333,"2949 W Alameda Ave, Denver, CO 80219, USA",2949 W ALAMEDA AVE DENVER CO,39.7114875,-105.024465,Retail Marijuana Store,"ROYAL ASSET MANAGEMENT, LLC",DIEGO PELLICER,"Retail Marijuana Store-ROYAL ASSET MANAGEMENT, LLC"
1517,334,"3104 Blake St, Denver, CO 80205, USA",3104  BLAKE ST DENVER CO,39.7646708,-104.98059,Med Marijuana Opt Prem Cultiv,"PLATTE VALLEY DISPENSARY, LLC",PLATTE VALLEY DISPENSARY,"Med Marijuana Opt Prem Cultiv-PLATTE VALLEY DISPENSARY, LLC"
1518,334,"3104 Blake St, Denver, CO 80205, USA",3104  BLAKE ST DENVER CO,39.7646708,-104.98059,Retail Marij Opt. Prem. Cultiv,"PLATTE VALLEY DISPENSARY, LLC",PLATTE VALLEY DISPENSARY,"Retail Marij Opt. Prem. Cultiv-PLATTE VALLEY DISPENSARY, LLC"
1521,335,"12555 E 37th Ave, Denver, CO 80239, USA",12555 E 37th  Denver CO,39.767932,-104.8411753,Med Marijuana Opt Prem Cultiv,"LITTLE MAN 55, LLC",,"Med Marijuana Opt Prem Cultiv-LITTLE MAN 55, LLC"
1523,340,"1001 S Galapago St, Denver, CO 80223, USA",1001 S GALAPAGO ST DENVER CO,39.6983121,-104.9958878,Retail Marijuana Test Facility,"AGRICOR LABORATORIES, LLC",,"Retail Marijuana Test Facility-AGRICOR LABORATORIES, LLC"
1524,340,"1001 S Galapago St, Denver, CO 80223, USA",1001 S GALAPAGO ST DENVER CO,39.6983121,-104.9958878,Med Marijuana Test Facility,"AGRICOR LABORATORIES, LLC",,"Med Marijuana Test Facility-AGRICOR LABORATORIES, LLC"
1527,343,"5475 Peoria St, Denver, CO 80239, USA",5475 N Peoria  Denver CO,39.7952228,-104.8486775,Retail Marij Opt. Prem. Cultiv,HADCAV ENTERPRISES INC.,PURE MEDICAL DISPENSARY,Retail Marij Opt. Prem. Cultiv-HADCAV ENTERPRISES INC.
1531,345,"1075 S Fox St, Denver, CO 80223, USA",1075 S FOX ST DENVER CO,39.6973864,-104.9948379,Medical Marijuana Center,D&D CONSULTING INC.,SOUTHWEST ALTERNATIVE CARE FOX ST,Medical Marijuana Center-D&D CONSULTING INC.
1532,345,"1075 S Fox St, Denver, CO 80223, USA",1075 S FOX ST DENVER CO,39.6973864,-104.9948379,Med Marijuana Opt Prem Cultiv,D&D CONSULTING INC.,SOUTHWEST ALTERNATIVE CARE FOX ST,Med Marijuana Opt Prem Cultiv-D&D CONSULTING INC.
1533,345,"1075 S Fox St, Denver, CO 80223, USA",1075 S FOX ST DENVER CO,39.6973864,-104.9948379,Retail Marijuana Store,D & D CONSULTING INC,SOUTHWEST ALTERNATIVE CARE FOX ST,Retail Marijuana Store-D & D CONSULTING INC
1534,345,"1075 S Fox St, Denver, CO 80223, USA",1075 S FOX ST DENVER CO,39.6973864,-104.9948379,Retail Marij Opt. Prem. Cultiv,D&D CONSULTING INC,SOUTHWEST ALTERNATIVE CARE FOX ST,Retail Marij Opt. Prem. Cultiv-D&D CONSULTING INC
1547,346,"1617 Wazee St, Denver, CO 80202, USA",1617  Wazee  Denver CO,39.7517438,-104.9999047,Medical Marijuana Center,1617 WAZEE STREET LLC,LODO WELLNESS CENTER,Medical Marijuana Center-1617 WAZEE STREET LLC
1548,348,"2121 S Jason St, Denver, CO 80223, USA",2121 S JASON ST DENVER CO,39.6776168,-104.9998134,Med Marijuana Inf Prod Manuf,"ALLIED CONCESSIONS GROUP, INC.",ORGANA LABS,"Med Marijuana Inf Prod Manuf-ALLIED CONCESSIONS GROUP, INC."
1549,349,"150 Rio Grande Blvd, Denver, CO 80223, USA",150 N RIO GRANDE BLVD DENVER CO,39.7190589,-105.0037848,Medical Marijuana Center,NEW AMSTERDAM ORGANICS LTD,NEW AMSTERDAM ORGANICS,Medical Marijuana Center-NEW AMSTERDAM ORGANICS LTD
1550,349,"150 Rio Grande Blvd, Denver, CO 80223, USA",150 N RIO GRANDE BLVD DENVER CO,39.7190589,-105.0037848,Med Marijuana Opt Prem Cultiv,NEW AMSTERDAM ORGANICS LTD,NEW AMSTERDAM ORGANICS,Med Marijuana Opt Prem Cultiv-NEW AMSTERDAM ORGANICS LTD
1553,350,"852 N Broadway, Denver, CO 80203, USA",852 N BROADWAY  DENVER CO,39.7300849,-104.9870776,Retail Marijuana Store,PG RETAIL I LLC,MILE HIGH GREEN CROSS,Retail Marijuana Store-PG RETAIL I LLC
1554,351,"5959 E 39th Ave, Denver, CO 80207, USA",5959 E 39TH AVE DENVER CO,39.7717463,-104.9192655,Med Marijuana Opt Prem Cultiv,"MJLQ, LLC",WHOLE MEDS,"Med Marijuana Opt Prem Cultiv-MJLQ, LLC"
1555,351,"5959 E 39th Ave, Denver, CO 80207, USA",5959 E 39TH AVE DENVER CO,39.7717463,-104.9192655,Med Marijuana Opt Prem Cultiv,"UNIVERSAL HERBS, LLC",UNIVERSAL HERBS,"Med Marijuana Opt Prem Cultiv-UNIVERSAL HERBS, LLC"
1556,351,"5959 E 39th Ave, Denver, CO 80207, USA",5959 E 39TH AVE DENVER CO,39.7717463,-104.9192655,Retail Marij Opt. Prem. Cultiv,M.J.L. Q LLC,WHOLE MEDS,Retail Marij Opt. Prem. Cultiv-M.J.L. Q LLC
1557,351,"5959 E 39th Ave, Denver, CO 80207, USA",5959 E 39TH AVE DENVER CO,39.7717463,-104.9192655,Retail Marij Opt. Prem. Cultiv,"UNIVERSAL HERBS, LLC",UNIVERSAL HERBS,"Retail Marij Opt. Prem. Cultiv-UNIVERSAL HERBS, LLC"
1570,352,"1568 S Federal Blvd, Denver, CO 80219, USA",1568 S FEDERAL BLVD DENVER CO,39.688358,-105.0246258,Retail Marijuana Store,"MILE HIGH THERAPEUTIC NETWORK, LLC",ALTITUDE WEST,"Retail Marijuana Store-MILE HIGH THERAPEUTIC NETWORK, LLC"
1571,354,"505 Bryant St, Denver, CO 80204, USA",505 N BRYANT ST DENVER CO,39.7241056,-105.0189866,Retail Marij Opt. Prem. Cultiv,GAS AND GRASS LLC,ROLLUP,Retail Marij Opt. Prem. Cultiv-GAS AND GRASS LLC
1572,354,"505 Bryant St, Denver, CO 80204, USA",505 N BRYANT ST DENVER CO,39.7241056,-105.0189866,Med Marijuana Opt Prem Cultiv,GAS AND GRASS LLC,ROLLUP,Med Marijuana Opt Prem Cultiv-GAS AND GRASS LLC
1575,356,"3954 N Williams St, Denver, CO 80205, USA",3954 N WILLIAMS ST DENVER CO,39.772388,-104.9656726,Retail Marijuana Store,MJM HOLDINGS LIMITED,STICKY FINGERZ,Retail Marijuana Store-MJM HOLDINGS LIMITED
1576,356,"3954 N Williams St, Denver, CO 80205, USA",3954 N WILLIAMS ST DENVER CO,39.772388,-104.9656726,Medical Marijuana Center,MJM HOLDINGS LIMITED,STICKY FINGERZ,Medical Marijuana Center-MJM HOLDINGS LIMITED
1577,356,"3954 N Williams St, Denver, CO 80205, USA",3954 N WILLIAMS ST DENVER CO,39.772388,-104.9656726,Med Marijuana Opt Prem Cultiv,MJM HOLDINGS LIMITED,STICKY FINGERZ,Med Marijuana Opt Prem Cultiv-MJM HOLDINGS LIMITED
1578,356,"3954 N Williams St, Denver, CO 80205, USA",3954 N WILLIAMS ST DENVER CO,39.772388,-104.9656726,Retail Marij Opt. Prem. Cultiv,MJM HOLDINGS LIMITED,STICKY FINGERZ,Retail Marij Opt. Prem. Cultiv-MJM HOLDINGS LIMITED
1591,357,"2675 W 38th Ave, Denver, CO 80211, USA",2675 W 38TH AVE DENVER CO,39.7695058,-105.0202877,Medical Marijuana Center,URBAN HEALTH & WELLNESS INC,URBAN DISPENSARY,Medical Marijuana Center-URBAN HEALTH & WELLNESS INC
1592,357,"2675 W 38th Ave, Denver, CO 80211, USA",2675 W 38TH AVE DENVER CO,39.7695058,-105.0202877,Retail Marijuana Store,"URBAN HEALTH & WELLNESS, INC.",URBAN DISPENSARY,"Retail Marijuana Store-URBAN HEALTH & WELLNESS, INC."
1595,358,"2286 S Lipan St, Denver, CO 80223, USA",2286 S LIPAN ST DENVER CO,39.6751142,-105.0014567,Retail Marijuana Inf Prod Mfg,ATHELAS BRANDS LLC,ATHELAS,Retail Marijuana Inf Prod Mfg-ATHELAS BRANDS LLC
1596,360,"303 16th St Mall Suite 150, Denver, CO 80202, USA",150 N TEJON ST DENVER CO,39.742786,-104.988647,Med Marijuana Opt Prem Cultiv,"NEW AGE ALTERNATIVE, LLC",SENSE OF HEALING,"Med Marijuana Opt Prem Cultiv-NEW AGE ALTERNATIVE, LLC"
1597,361,"1822 S Bannock St, Denver, CO 80223, USA",1822 S Bannock  Denver CO,39.6836184,-104.9897028,Med Marijuana Inf Prod Manuf,"HEALTHY CREATION EDIBLES, LLC",,"Med Marijuana Inf Prod Manuf-HEALTHY CREATION EDIBLES, LLC"
1599,362,"330 S Dayton St, Denver, CO 80247, USA",330 S DAYTON ST DENVER CO,39.7083543,-104.8749473,Medical Marijuana Center,"LIGHTSHADE LABS, LLC",LIGHTSHADE,"Medical Marijuana Center-LIGHTSHADE LABS, LLC"
1602,365,"2121 S Jason St, Denver, CO 80223, USA",2121 S Jason  Denver CO,39.6776168,-104.9998134,Retail Marijuana Inf Prod Mfg,"ALLIED CONCESSIONS GROUP, INC.",ORGANA LABS,"Retail Marijuana Inf Prod Mfg-ALLIED CONCESSIONS GROUP, INC."
1603,366,"5926 E Colfax Ave, Denver, CO 80220, USA",5926 E COLFAX AVE DENVER CO,39.7399561,-104.9187636,Retail Marijuana Store,"WDG, INC.",BEMINDFUL,"Retail Marijuana Store-WDG, INC."
1604,366,"5926 E Colfax Ave, Denver, CO 80220, USA",5926 E COLFAX AVE DENVER CO,39.7399561,-104.9187636,Medical Marijuana Center,"WDG, INC.",BEMINDFUL,"Medical Marijuana Center-WDG, INC."
1607,369,"1630 N Federal Blvd, Denver, CO 80204, USA",1630 N Federal  Denver CO,39.7429209,-105.0249842,Medical Marijuana Center,"MILE HIGH MEDICAL CANNABIS, LLC",LIT,"Medical Marijuana Center-MILE HIGH MEDICAL CANNABIS, LLC"
1608,371,"3730 E 44th Ave, Denver, CO 80216, USA",3730 E 44TH AVE DENVER CO,39.7782451,-104.9423533,Med Marijuana Opt Prem Cultiv,"DISCOUNT MEDICAL MARIJUANA, LLC",HIGH LEVEL HEALTH,"Med Marijuana Opt Prem Cultiv-DISCOUNT MEDICAL MARIJUANA, LLC"
1609,371,"3730 E 44th Ave, Denver, CO 80216, USA",3730 E 44TH AVE DENVER CO,39.7782451,-104.9423533,Retail Marij Opt. Prem. Cultiv,"DISCOUNT MEDICAL MARIJUANA, LLC",HIGH LEVEL HEALTH,"Retail Marij Opt. Prem. Cultiv-DISCOUNT MEDICAL MARIJUANA, LLC"
1613,373,"900 Vallejo St, Denver, CO 80204, USA",900 N VALLEJO ST DENVER CO,39.731282,-105.0126289,Retail Marij Opt. Prem. Cultiv,"MILE HIGH THERAPEUTIC NETWORK, LLC",ALTITUDE WEST,"Retail Marij Opt. Prem. Cultiv-MILE HIGH THERAPEUTIC NETWORK, LLC"
1615,380,"970 S Oneida St, Denver, CO 80224, USA",970 S ONEIDA ST DENVER CO,39.6987959,-104.9072211,Retail Marijuana Store,"GREEN AROUND YOU, LLC","GOLDEN MEDS, INC.","Retail Marijuana Store-GREEN AROUND YOU, LLC"
1616,380,"970 S Oneida St, Denver, CO 80224, USA",970 S ONEIDA ST DENVER CO,39.6987959,-104.9072211,Medical Marijuana Center,"GREEN AROUND YOU, LLC","GOLDEN MEDS, INC.","Medical Marijuana Center-GREEN AROUND YOU, LLC"
1619,381,"Denver, CO, USA",5095 N Colorado  Denver CO,39.7392358,-104.990251,Retail Marijuana Inf Prod Mfg,COLORADO MOONROCKS LLC,,Retail Marijuana Inf Prod Mfg-COLORADO MOONROCKS LLC
1620,382,"3111 W 38th Ave, Denver, CO 80211, USA",3111 W 38TH AVE DENVER CO,39.7695835,-105.028049,Medical Marijuana Center,HG LTD,HIGHER GRADE,Medical Marijuana Center-HG LTD
1621,384,"4990 Dahlia St, Denver, CO 80216, USA",4990 N DAHLIA ST DENVER CO,39.7860746,-104.9306721,Retail Marij Opt. Prem. Cultiv,"RJJ SHERIDAN, LLC",NATIVE ROOTS LITTLETON,"Retail Marij Opt. Prem. Cultiv-RJJ SHERIDAN, LLC"
1622,384,"4990 Dahlia St, Denver, CO 80216, USA",4990 N DAHLIA ST DENVER CO,39.7860746,-104.9306721,Med Marijuana Opt Prem Cultiv,"RJJ HIGHLANDS, LLC",NATIVE ROOTS HIGHLANDS,"Med Marijuana Opt Prem Cultiv-RJJ HIGHLANDS, LLC"
1623,384,"4990 Dahlia St, Denver, CO 80216, USA",4990 N DAHLIA ST DENVER CO,39.7860746,-104.9306721,Retail Marijuana Inf Prod Mfg,"CONSCIOUS CONFECTIONS II, LLC",NATIVE ROOTS EXTRACTS,"Retail Marijuana Inf Prod Mfg-CONSCIOUS CONFECTIONS II, LLC"
1630,385,"4785 Elati St, Denver, CO 80216, USA",4785 N Elati  Denver CO,39.7833694,-104.9930947,Retail Marijuana Inf Prod Mfg,FRONTIER MANUFACTURING AND LOGISTICS LLC,FRONTIER M&L,Retail Marijuana Inf Prod Mfg-FRONTIER MANUFACTURING AND LOGISTICS LLC
1631,387,"4837 N Washington St, Denver, CO 80205, USA",4837 N WASHINGTON ST DENVER CO,39.7545962,-104.9781132,Medical Marijuana Center,"LOST CREEK VENTURES, INC",BONFIRE CANNABIS COMPANY,"Medical Marijuana Center-LOST CREEK VENTURES, INC"
1632,388,"1911 S Broadway, Denver, CO 80210, USA",1911 S BROADWAY  DENVER CO,39.6818667,-104.9881042,Retail Marijuana Store,HOBBY FARMS LLC,A CUT ABOVE,Retail Marijuana Store-HOBBY FARMS LLC
1633,388,"1911 S Broadway, Denver, CO 80210, USA",1911 S BROADWAY  DENVER CO,39.6818667,-104.9881042,Medical Marijuana Center,HOBBY FARMS LLC,A CUT ABOVE,Medical Marijuana Center-HOBBY FARMS LLC
1636,390,"1941 W Evans Ave, Denver, CO 80223, USA",1941 W Evans  Denver CO,39.6790749,-105.0103976,Retail Marijuana Store,"LIVWELL III, LLC",LIV WELL,"Retail Marijuana Store-LIVWELL III, LLC"
1637,390,"1941 W Evans Ave, Denver, CO 80223, USA",1941 W Evans  Denver CO,39.6790749,-105.0103976,Medical Marijuana Center,"LIVWELL III, LLC",LIVWELL,"Medical Marijuana Center-LIVWELL III, LLC"
1640,391,"734 Sheridan Boulevard, Denver, CO 80214, USA",734 N SHERIDAN BLVD DENVER CO,39.7281375,-105.0531315,Retail Marijuana Store,SISSCO LLC,TRENCHTOWN,Retail Marijuana Store-SISSCO LLC
1641,391,"734 Sheridan Boulevard, Denver, CO 80214, USA",734 N SHERIDAN BLVD DENVER CO,39.7281375,-105.0531315,Medical Marijuana Center,SISSCO LLC,TRENCHTOWN,Medical Marijuana Center-SISSCO LLC
1644,393,"1995 S Broadway, Denver, CO 80223, USA",1995 S BROADWAY  DENVER CO,39.6805083,-104.987877,Medical Marijuana Center,"LITTLE BROWN HOUSE DISPENSARY, LLC",LITTLE BROWNHOUSE,"Medical Marijuana Center-LITTLE BROWN HOUSE DISPENSARY, LLC"
1645,394,"4995 Lima St, Denver, CO 80239, USA",4995 N Lima ST Denver CO,39.7877963,-104.8573193,Medical Marijuana Center,OG MEDICINALS LLC,,Medical Marijuana Center-OG MEDICINALS LLC
1647,397,"4401 E 46th Ave, Denver, CO 80216, USA",4401 E 46TH AVE DENVER CO,39.7811727,-104.9362388,Retail Marijuana Store,DELTA-9 DELIGHTS LLC,REEFER MADNESS,Retail Marijuana Store-DELTA-9 DELIGHTS LLC
1648,398,"2335 S Platte River Dr, Denver, CO 80223, USA",2335 S PLATTE RIVER DR DENVER CO,39.6740677,-104.9986266,Retail Marij Opt. Prem. Cultiv,"HIGH COUNTRY SUPPLY, LLC",COLORADO HARVE2ST COMPANY,"Retail Marij Opt. Prem. Cultiv-HIGH COUNTRY SUPPLY, LLC"
1653,400,"155 Federal Blvd, Denver, CO 80219, USA",155 N FEDERAL BLVD DENVER CO,39.7193345,-105.0254466,Medical Marijuana Center,"3B-FEDERAL1, LLC",BUDDY BOY,"Medical Marijuana Center-3B-FEDERAL1, LLC"
1654,401,"2420 S Colorado Blvd, Denver, CO 80222, USA",2420 S COLORADO BLVD DENVER CO,39.6728499,-104.9402314,Medical Marijuana Center,CONCENTRATE LLC,CONCENTRATE,Medical Marijuana Center-CONCENTRATE LLC
1655,402,"11975 E 40th Ave, Denver, CO 80239, USA",11975 E 40TH AVE DENVER CO,39.7732103,-104.8490475,Retail Marijuana Store,"COLORADO FARMS, INC",LIGHTSHADE LABS,"Retail Marijuana Store-COLORADO FARMS, INC"
1656,402,"11975 E 40th Ave, Denver, CO 80239, USA",11975 E 40TH AVE DENVER CO,39.7732103,-104.8490475,Med Marijuana Opt Prem Cultiv,"COLORADO FARMS, INC.",LIGHTSHADE,"Med Marijuana Opt Prem Cultiv-COLORADO FARMS, INC."
1657,402,"11975 E 40th Ave, Denver, CO 80239, USA",11975 E 40TH AVE DENVER CO,39.7732103,-104.8490475,Medical Marijuana Center,"COLORADO FARMS, INC.",,"Medical Marijuana Center-COLORADO FARMS, INC."
1658,402,"11975 E 40th Ave, Denver, CO 80239, USA",11975 E 40TH AVE DENVER CO,39.7732103,-104.8490475,Retail Marij Opt. Prem. Cultiv,"COLORADO FARMS, INC.",LIGHTSHADE,"Retail Marij Opt. Prem. Cultiv-COLORADO FARMS, INC."
1671,403,"1270 W Cedar Ave, Denver, CO 80223, USA",1270 W Cedar  Denver CO,39.7127468,-105.0035566,Med Marijuana Opt Prem Cultiv,BUDDIES WELLNESS LLC,LA BODEGA,Med Marijuana Opt Prem Cultiv-BUDDIES WELLNESS LLC
1672,404,"1255 S Huron St, Denver, CO 80223, USA",1255 S HURON ST DENVER CO,39.6938713,-104.997143,Med Marijuana Opt Prem Cultiv,"THE GIVING TREE OF DENVER, LLC",,"Med Marijuana Opt Prem Cultiv-THE GIVING TREE OF DENVER, LLC"
1673,404,"1255 S Huron St, Denver, CO 80223, USA",1255 S HURON ST DENVER CO,39.6938713,-104.997143,Retail Marij Opt. Prem. Cultiv,"THE GIVING TREE OF DENVER, LLC",,"Retail Marij Opt. Prem. Cultiv-THE GIVING TREE OF DENVER, LLC"
1674,404,"1255 S Huron St, Denver, CO 80223, USA",1255 S HURON ST DENVER CO,39.6938713,-104.997143,Med Marijuana Inf Prod Manuf,"THE GIVING TREE OF DENVER, LLC",,"Med Marijuana Inf Prod Manuf-THE GIVING TREE OF DENVER, LLC"
1675,404,"1255 S Huron St, Denver, CO 80223, USA",1255 S HURON ST DENVER CO,39.6938713,-104.997143,Retail Marijuana Inf Prod Mfg,"THE GIVING TREE OF DENVER, LLC",,"Retail Marijuana Inf Prod Mfg-THE GIVING TREE OF DENVER, LLC"
1688,405,"1885 W Dartmouth Ave, Englewood, CO 80110, USA",1885 W DARTMOUTH AVE DENVER CO,39.662018,-105.009182,Retail Marij Opt. Prem. Cultiv,"MILE HIGH MEDICAL, LLC",MMJ AMERICA UPTOWN,"Retail Marij Opt. Prem. Cultiv-MILE HIGH MEDICAL, LLC"
1689,405,"1885 W Dartmouth Ave, Englewood, CO 80110, USA",1885 W DARTMOUTH AVE DENVER CO,39.662018,-105.009182,Med Marijuana Opt Prem Cultiv,"MILE HIGH MEDICAL, LLC",MMJ AMERICA UPTOWN,"Med Marijuana Opt Prem Cultiv-MILE HIGH MEDICAL, LLC"
1692,407,"2675 S Santa Fe Dr, Denver, CO 80223, USA",2675 S SANTA FE  DENVER CO,39.6684632,-104.9979586,Retail Marij Opt. Prem. Cultiv,"HOLLY MEDICINAL SERVICES, LLC",THE CLINIC ON COLORADO,"Retail Marij Opt. Prem. Cultiv-HOLLY MEDICINAL SERVICES, LLC"
1693,409,"10975 E 47th Ave, Denver, CO 80239, USA",10975 E 47th AVE Denver CO,39.7827378,-104.8603657,Retail Marijuana Inf Prod Mfg,"JOLET VENTURES, LLC",710 LABS,"Retail Marijuana Inf Prod Mfg-JOLET VENTURES, LLC"
1695,411,"5201 W 48th Ave, Denver, CO 80212, USA",5201 W 48TH AVE DENVER CO,39.7840363,-105.0535725,Medical Marijuana Center,"LEVELS IV, INC",LEVELS IV INC,"Medical Marijuana Center-LEVELS IV, INC"
1696,411,"5201 W 48th Ave, Denver, CO 80212, USA",5201 W 48TH AVE DENVER CO,39.7840363,-105.0535725,Retail Marijuana Store,"LEVELS IV, INC",LEVELS IV INC,"Retail Marijuana Store-LEVELS IV, INC"
1699,412,"2863 Larimer St, Denver, CO 80205, USA",2863  LARIMER ST DENVER CO,39.7613598,-104.9820346,Medical Marijuana Center,"DENVER PATIENTS GROUP, LLC",LIV WELL,"Medical Marijuana Center-DENVER PATIENTS GROUP, LLC"
1700,412,"2863 Larimer St, Denver, CO 80205, USA",2863  LARIMER ST DENVER CO,39.7613598,-104.9820346,Retail Marijuana Store,"DENVER PATIENTS GROUP, LLC",LIVWELL,"Retail Marijuana Store-DENVER PATIENTS GROUP, LLC"
1703,418,"1270 W Cedar Ave, Denver, CO 80223, USA",1270 W CEDAR AVE DENVER CO,39.7127468,-105.0035566,Medical Marijuana Center,BUDDIES WELLNESS LLC,LA BODEGA,Medical Marijuana Center-BUDDIES WELLNESS LLC
1704,419,"777 S Canosa Ct, Denver, CO 80219, USA",777 N Canosa  Denver CO,39.702492,-105.019529,Medical Marijuana Center,"CANOSA PROPERTY INVESTMENTS, LLC",BOTANICO 2,"Medical Marijuana Center-CANOSA PROPERTY INVESTMENTS, LLC"
1705,420,"5475 Peoria St, Denver, CO 80239, USA",5475 N PEORIA ST Denver CO,39.7952228,-104.8486775,Med Marijuana Opt Prem Cultiv,"HADCAV ENTERPRISES, INC.",PURE MEDICAL DISPENSARY,"Med Marijuana Opt Prem Cultiv-HADCAV ENTERPRISES, INC."
1706,420,"5475 Peoria St, Denver, CO 80239, USA",5475 N PEORIA ST Denver CO,39.7952228,-104.8486775,Med Marijuana Opt Prem Cultiv,"505 CENTER, LLC",PURE MEDICAL DISPENSARY,"Med Marijuana Opt Prem Cultiv-505 CENTER, LLC"
1709,422,"2707 W 38th Ave, Denver, CO 80211, USA",2707 W 38TH AVE DENVER CO,39.7694562,-105.0208127,Retail Marijuana Store,"THE GIVING TREE OF DENVER, LLC",,"Retail Marijuana Store-THE GIVING TREE OF DENVER, LLC"
1710,422,"2707 W 38th Ave, Denver, CO 80211, USA",2707 W 38TH AVE DENVER CO,39.7694562,-105.0208127,Medical Marijuana Center,"THE GIVING TREE OF DENVER, LLC",,"Medical Marijuana Center-THE GIVING TREE OF DENVER, LLC"
1713,424,"4985 Ironton St, Denver, CO 80239, USA",4985 N IRONTON ST DENVER CO,39.7874689,-104.86375,Med Marijuana Inf Prod Manuf,"MARY'S MEDICINALS, LLC",,"Med Marijuana Inf Prod Manuf-MARY'S MEDICINALS, LLC"
1714,424,"4985 Ironton St, Denver, CO 80239, USA",4985 N IRONTON ST DENVER CO,39.7874689,-104.86375,Retail Marijuana Inf Prod Mfg,"MARY'S MEDICINALS, LLC",,"Retail Marijuana Inf Prod Mfg-MARY'S MEDICINALS, LLC"
1717,425,"4640 Ironton St, Denver, CO 80239, USA",4640 N Ironton  Denver CO,39.7811893,-104.862701,Retail Marijuana Inf Prod Mfg,SUNHOUSE COLORADO LLC,SUNHOUSE,Retail Marijuana Inf Prod Mfg-SUNHOUSE COLORADO LLC
1718,425,"4640 Ironton St, Denver, CO 80239, USA",4640 N Ironton  Denver CO,39.7811893,-104.862701,Med Marijuana Inf Prod Manuf,SUNHOUSE COLORADO LLC,SUNHOUSE,Med Marijuana Inf Prod Manuf-SUNHOUSE COLORADO LLC
1721,426,"153 Vallejo St, Denver, CO 80223, USA",153 N VALLEJO ST DENVER CO,39.719044,-105.0134626,Marijuana Transporter,"LSC COLORADO, INC",LOW SPARK INC,"Marijuana Transporter-LSC COLORADO, INC"
1722,426,"153 Vallejo St, Denver, CO 80223, USA",153 N VALLEJO ST DENVER CO,39.719044,-105.0134626,Marijuana Transporter,LSC COLORADO INC,LOW SPARK INC,Marijuana Transporter-LSC COLORADO INC
1725,427,"5070 Oakland St, Denver, CO 80239, USA",5070 N Oakland ST Denver CO,39.7897595,-104.8501135,Retail Marijuana Store,LBW CONSULTING GROUP LLC,,Retail Marijuana Store-LBW CONSULTING GROUP LLC
1726,427,"5070 Oakland St, Denver, CO 80239, USA",5070 N Oakland ST Denver CO,39.7897595,-104.8501135,Retail Marijuana Inf Prod Mfg,LBW CONSULTING GROUP LLC,,Retail Marijuana Inf Prod Mfg-LBW CONSULTING GROUP LLC
1729,429,"10665 E 51st Ave, Denver, CO 80239, USA",10665 E 51st Ave Denver CO,39.7907277,-104.8641148,Retail Marij Opt. Prem. Cultiv,GLAS LLC,GLAS,Retail Marij Opt. Prem. Cultiv-GLAS LLC
1730,430,"1640 E Evans Ave, Denver, CO 80210, USA",1640 E EVANS AVE DENVER CO,39.6783367,-104.9678186,Medical Marijuana Center,"CITI-MED, LLC",STARBUDS,"Medical Marijuana Center-CITI-MED, LLC"
1731,430,"1640 E Evans Ave, Denver, CO 80210, USA",1640 E EVANS AVE DENVER CO,39.6783367,-104.9678186,Retail Marijuana Store,"CITI-MED, LLC",STARBUDS,"Retail Marijuana Store-CITI-MED, LLC"
1734,438,"4725 Oakland St, Denver, CO 80239, USA",4725 N Oakland St Denver CO,39.782899,-104.8511651,Med Marijuana Opt Prem Cultiv,ANCIENT ALTERNATIVES LLC,GREEN TREE MEDICINALS,Med Marijuana Opt Prem Cultiv-ANCIENT ALTERNATIVES LLC
1735,439,"219 Vallejo St, Denver, CO 80223, USA",219 N VALLEJO ST DENVER CO,39.7206529,-105.0135083,Medical Marijuana Center,"PERSONALIZED ORGANIC TREATMENTS, LLC",CANNA BOTICA,"Medical Marijuana Center-PERSONALIZED ORGANIC TREATMENTS, LLC"
1736,440,"2150 S Lipan St, Denver, CO 80223, USA",2150 S LIPAN ST DENVER CO,39.6775748,-105.0014796,Retail Marij Opt. Prem. Cultiv,SIMPLY PURE COLORADO LLC,SIMPLY PURE,Retail Marij Opt. Prem. Cultiv-SIMPLY PURE COLORADO LLC
1737,441,"5702 E Colfax Ave, Denver, CO 80220, USA",5702 E COLFAX AVE DENVER CO,39.7399019,-104.9214327,Retail Marijuana Store,HADCAV ENTERPRISES INC.,PURE MEDICAL DISPENSARY,Retail Marijuana Store-HADCAV ENTERPRISES INC.
1738,441,"5702 E Colfax Ave, Denver, CO 80220, USA",5702 E COLFAX AVE DENVER CO,39.7399019,-104.9214327,Medical Marijuana Center,HADCAV ENTERPRISES INC,PURE MEDICAL DISPENSARY,Medical Marijuana Center-HADCAV ENTERPRISES INC
1741,445,"3895 E 45th Ave, Denver, CO 80216, USA",3895 E 45th AVE Denver CO,39.7790348,-104.9420339,Medical Marijuana Center,"IHN HOLDINGS, LLC",5280 WEEDERY LLC,"Medical Marijuana Center-IHN HOLDINGS, LLC"
1742,446,"3895 E 45th Ave, Denver, CO 80216, USA",3895 E 45TH AVE DENVER CO,39.7790348,-104.9420339,Retail Marij Opt. Prem. Cultiv,IHN HOLDINGS LLC,5280 WEEDERY LLC,Retail Marij Opt. Prem. Cultiv-IHN HOLDINGS LLC
1743,446,"3895 E 45th Ave, Denver, CO 80216, USA",3895 E 45TH AVE DENVER CO,39.7790348,-104.9420339,Med Marijuana Opt Prem Cultiv,IHN HOLDINGS LLC,5280 WEEDERY LLC,Med Marijuana Opt Prem Cultiv-IHN HOLDINGS LLC
1747,448,"4105 Jason St, Denver, CO 80211, USA",4105 N JASON ST DENVER CO,39.7731814,-104.9997221,Retail Marij Opt. Prem. Cultiv,"GREEN LIGHT SUPPLY, LLC",,"Retail Marij Opt. Prem. Cultiv-GREEN LIGHT SUPPLY, LLC"
1748,449,"2145 W Evans Ave, Denver, CO 80223, USA",2145 W EVANS AVE DENVER CO,39.6790543,-105.0123898,Retail Marijuana Inf Prod Mfg,"CLEARVIEW INDUSTRIES, LLC",,"Retail Marijuana Inf Prod Mfg-CLEARVIEW INDUSTRIES, LLC"
1749,449,"2145 W Evans Ave, Denver, CO 80223, USA",2145 W EVANS AVE DENVER CO,39.6790543,-105.0123898,Med Marijuana Inf Prod Manuf,CLEARVIEW INDUSTRIES LLC,,Med Marijuana Inf Prod Manuf-CLEARVIEW INDUSTRIES LLC
1752,451,"380 Quivas St, Denver, CO 80223, USA",380 N QUIVAS ST DENVER CO,39.7224554,-105.0067064,Retail Marij Opt. Prem. Cultiv,"L'EAGLE SERVICES, LLC",L'EAGLE,"Retail Marij Opt. Prem. Cultiv-L'EAGLE SERVICES, LLC"
1753,452,"701 W Mississippi Ave, Denver, CO 80223, USA",701 W MISSISSIPPI AVE DENVER CO,39.6969483,-104.9960703,Med Marijuana Inf Prod Manuf,"PNW, LLC",,"Med Marijuana Inf Prod Manuf-PNW, LLC"
1754,453,"219 Vallejo St, Denver, CO 80223, USA",219 N Vallejo St Denver CO,39.7206529,-105.0135083,Retail Marijuana Store,PERSONALIZED ORGANIC TREATMENTS LLC,Canna Botica,Retail Marijuana Store-PERSONALIZED ORGANIC TREATMENTS LLC
1756,454,"1568 S Broadway, Denver, CO 80210, USA",1568 S BROADWAY  DENVER CO,39.6881933,-104.9872836,Retail Marijuana Store,"HIGH COUNTRY SUPPLY, LLC.",COLORADO HARVEST COMPANY,"Retail Marijuana Store-HIGH COUNTRY SUPPLY, LLC."
1759,455,"4305 Brighton Blvd, Denver, CO 80216, USA",4305 N BRIGHTON BLVD DENVER CO,39.7776265,-104.9699854,Retail Marij Opt. Prem. Cultiv,L3ASTOCKCOMPLEX LLC,EUFLORA,Retail Marij Opt. Prem. Cultiv-L3ASTOCKCOMPLEX LLC
1760,455,"4305 Brighton Blvd, Denver, CO 80216, USA",4305 N BRIGHTON BLVD DENVER CO,39.7776265,-104.9699854,Retail Marijuana Store,L3ASTOCKCOMPLEX LLC,EUFLORA,Retail Marijuana Store-L3ASTOCKCOMPLEX LLC
1763,456,"2120 S Birch St, Denver, CO 80222, USA",2120 S BIRCH ST DENVER CO,39.6780251,-104.9359422,Retail Marijuana Test Facility,"AGRISCIENCE LABS, INC",,"Retail Marijuana Test Facility-AGRISCIENCE LABS, INC"
1764,456,"2120 S Birch St, Denver, CO 80222, USA",2120 S BIRCH ST DENVER CO,39.6780251,-104.9359422,Med Marijuana Test Facility,"AGRISCIENCE LABS, INC",,"Med Marijuana Test Facility-AGRISCIENCE LABS, INC"
1768,458,"2251 S Broadway, Denver, CO 80210, USA",2251 S BROADWAY  DENVER CO,39.6757157,-104.9877799,Medical Marijuana Center,"2251SB, LLC",,"Medical Marijuana Center-2251SB, LLC"
1769,458,"2251 S Broadway, Denver, CO 80210, USA",2251 S BROADWAY  DENVER CO,39.6757157,-104.9877799,Retail Marijuana Store,"2251SB, LLC",,"Retail Marijuana Store-2251SB, LLC"
1772,459,"5101 E Colfax Ave, Denver, CO 80220, USA",5101 E COLFAX AVE DENVER CO,39.7403264,-104.9284135,Medical Marijuana Center,"GREENER PASTURE COMPASSION CENTER, LLC",VERDE NATURAL,"Medical Marijuana Center-GREENER PASTURE COMPASSION CENTER, LLC"
1773,459,"5101 E Colfax Ave, Denver, CO 80220, USA",5101 E COLFAX AVE DENVER CO,39.7403264,-104.9284135,Retail Marijuana Store,GREENER PASTURE COMPASSION CENTER LLC,VERDE NATURAL,Retail Marijuana Store-GREENER PASTURE COMPASSION CENTER LLC
1777,465,"2345 S Delaware St, Denver, CO 80223, USA",2345 S DELAWARE ST DENVER CO,39.67383,-104.99266,Med Marijuana Opt Prem Cultiv,"ROCKY MOUNTAIN ORGANIC MEDICINE, INC",,"Med Marijuana Opt Prem Cultiv-ROCKY MOUNTAIN ORGANIC MEDICINE, INC"
1778,466,"Navajo St, Denver, CO 80211, USA",866 N NAVAJO ST DENVER CO,39.7708948,-105.0042023,Med Marijuana Inf Prod Manuf,"ROCKY MOUNTAIN WAYS, LLC",GOOD MEDS,"Med Marijuana Inf Prod Manuf-ROCKY MOUNTAIN WAYS, LLC"
1779,466,"Navajo St, Denver, CO 80211, USA",866 N NAVAJO ST DENVER CO,39.7708948,-105.0042023,Med Marijuana Opt Prem Cultiv,ROCKY MOUNTAIN WAYS LLC,GOOD MEDS,Med Marijuana Opt Prem Cultiv-ROCKY MOUNTAIN WAYS LLC
1780,466,"Navajo St, Denver, CO 80211, USA",866 N NAVAJO ST DENVER CO,39.7708948,-105.0042023,Retail Marij Opt. Prem. Cultiv,ROCKY MOUNTAIN WAYS LLC,GOOD MEDS,Retail Marij Opt. Prem. Cultiv-ROCKY MOUNTAIN WAYS LLC
1788,468,"3460 W 32nd Ave, Denver, CO 80211, USA",3460 W 32ND AVE DENVER CO,39.7619485,-105.0337103,Medical Marijuana Center,HIGHLANDS WELLNESS CENTER LLC,THE CLINIC HIGHLANDS,Medical Marijuana Center-HIGHLANDS WELLNESS CENTER LLC
1789,468,"3460 W 32nd Ave, Denver, CO 80211, USA",3460 W 32ND AVE DENVER CO,39.7619485,-105.0337103,Retail Marijuana Store,HIGHLANDS WELLNESS CENTER LLC,THE CLINIC HIGHLANDS,Retail Marijuana Store-HIGHLANDS WELLNESS CENTER LLC
1792,470,"3930 Blake St, Denver, CO 80205, USA",3930  BLAKE ST DENVER CO,39.772162,-104.970751,Med Marijuana Opt Prem Cultiv,MEDICAL CANNABIS COLORADO LLC,CURE COLORADO,Med Marijuana Opt Prem Cultiv-MEDICAL CANNABIS COLORADO LLC
1794,472,"4700 Kingston St, Denver, CO 80239, USA",4700 N Kingston  Denver CO,39.7826077,-104.8586191,Retail Marij Opt. Prem. Cultiv,"JBC ENTERPRISES, LLC",FAT FACE FARMS,"Retail Marij Opt. Prem. Cultiv-JBC ENTERPRISES, LLC"
1795,473,"577 S Jason St, Denver, CO 80223, USA",577 S JASON ST DENVER CO,39.7061724,-104.9994016,Retail Marij Opt. Prem. Cultiv,ANIMAS HERBAL WELLNESS CENTER INC,PROHIBITION HERB,Retail Marij Opt. Prem. Cultiv-ANIMAS HERBAL WELLNESS CENTER INC
1799,474,"4410 N Washington St, Denver, CO 80205, USA",4410 N WASHINGTON ST DENVER CO,39.7543922,-104.9779073,Retail Marijuana Inf Prod Mfg,"INFUZIONZ, LLC",NECTAR BEE,"Retail Marijuana Inf Prod Mfg-INFUZIONZ, LLC"
1800,474,"4410 N Washington St, Denver, CO 80205, USA",4410 N WASHINGTON ST DENVER CO,39.7543922,-104.9779073,Med Marijuana Inf Prod Manuf,"INFUZIONZ, LLC",NECTAR BEE,"Med Marijuana Inf Prod Manuf-INFUZIONZ, LLC"
1803,475,"10975 E 47th Ave, Denver, CO 80239, USA",10975 E 47TH AVE DENVER CO,39.7827378,-104.8603657,Retail Marij Opt. Prem. Cultiv,"JOLET VENTURES, LLC",710 LABS,"Retail Marij Opt. Prem. Cultiv-JOLET VENTURES, LLC"
1804,477,"2650 6th Ave, Denver, CO 80204, USA",2650 W 6th  Denver CO,39.7242789,-105.0197627,Retail Marij Opt. Prem. Cultiv,"BUSHES, LLC",THE STATION,"Retail Marij Opt. Prem. Cultiv-BUSHES, LLC"
1821,479,"4571 Ivy St, Denver, CO 80216, USA",4571 N Ivy  Denver CO,39.7796332,-104.9203605,Retail Marijuana Store,PRIMA BRANDS LLC,PRIMA CANNABIS COMPANY,Retail Marijuana Store-PRIMA BRANDS LLC
1822,479,"4571 Ivy St, Denver, CO 80216, USA",4571 N Ivy  Denver CO,39.7796332,-104.9203605,Med Marijuana Inf Prod Manuf,PRIMA BRANDS LLC,PRIMA CANNABIS COMPANY,Med Marijuana Inf Prod Manuf-PRIMA BRANDS LLC
1826,483,"3770 Joliet St, Denver, CO 80239, USA",3770 N JOLIET ST DENVER CO,39.7702698,-104.8606942,Med Marijuana Inf Prod Manuf,"TR SCIENTIFIC, LLC",THE ROOT OF IT ALL,"Med Marijuana Inf Prod Manuf-TR SCIENTIFIC, LLC"
1827,483,"3770 Joliet St, Denver, CO 80239, USA",3770 N JOLIET ST DENVER CO,39.7702698,-104.8606942,Retail Marijuana Inf Prod Mfg,"TR SCIENTIFIC, LLC",THE ROOT OF IT ALL,"Retail Marijuana Inf Prod Mfg-TR SCIENTIFIC, LLC"
1830,485,"5140 N Clarkson St, Denver, CO 80205, USA",5140 N CLARKSON ST DENVER CO,39.7546312,-104.9769565,Retail Marij Opt. Prem. Cultiv,GAMMA HOLDINGS INC.,TERRAPIN CARE STATION,Retail Marij Opt. Prem. Cultiv-GAMMA HOLDINGS INC.
1831,488,"N Washington St, Denver, CO, USA",5194 N WASHINGTON ST DENVER CO,39.7358731,-104.9787157,Retail Marijuana Store,"JVJC HOLDINGS III, LLC",,"Retail Marijuana Store-JVJC HOLDINGS III, LLC"
1832,490,"2704 W 8th Ave, Denver, CO 80204, USA",2704 W 8TH AVE DENVER CO,39.7291222,-105.0205159,Med Marijuana Inf Prod Manuf,"ROC LABS, LLC",STANLEY BROTHERS,"Med Marijuana Inf Prod Manuf-ROC LABS, LLC"
1833,491,"3950 Grape St, Denver, CO 80207, USA",3950 N GRAPE ST DENVER CO,39.7724979,-104.924581,Med Marijuana Inf Prod Manuf,"AVICENNA PRODUCTS, LLC",HIGH TECH CONCENTRATES,"Med Marijuana Inf Prod Manuf-AVICENNA PRODUCTS, LLC"
1834,491,"3950 Grape St, Denver, CO 80207, USA",3950 N GRAPE ST DENVER CO,39.7724979,-104.924581,Retail Marijuana Inf Prod Mfg,AVICENNA PRODUCTS LLC,HIGH TECH CONCENTRATES,Retail Marijuana Inf Prod Mfg-AVICENNA PRODUCTS LLC
1837,494,"310 St Paul St, Denver, CO 80206, USA",310 N SAINT PAUL ST DENVER CO,39.721244,-104.950684,Medical Marijuana Center,"CAREGIVERS FOR LIFE, LLC",,"Medical Marijuana Center-CAREGIVERS FOR LIFE, LLC"
1838,499,"1235 Umatilla St, Denver, CO 80204, USA",1235 N UMATILLA ST DENVER CO,39.7355788,-105.0127961,Retail Marij Opt. Prem. Cultiv,"METRO CANNABIS, INC.",SILVER STEM FINE CANNABIS,"Retail Marij Opt. Prem. Cultiv-METRO CANNABIS, INC."
1839,504,"4900 Jackson St, Denver, CO 80216, USA",4900 N JACKSON ST DENVER CO,39.7851053,-104.942262,Retail Marij Opt. Prem. Cultiv,"4900 JACKSON, LLC",SUNDANCE GARDENS,"Retail Marij Opt. Prem. Cultiv-4900 JACKSON, LLC"
1840,505,"2121 E 44th Ave, Denver, CO 80216, USA",2121 E 44th Ave Denver CO,39.777875,-104.9616565,Retail Marij Opt. Prem. Cultiv,THE TEA POT LLC,,Retail Marij Opt. Prem. Cultiv-THE TEA POT LLC
1841,508,"2000 W 32nd Ave, Denver, CO 80211, USA",2000 W 32ND AVE DENVER CO,39.761868,-105.0114996,Retail Marijuana Store,"SIMPLY PURE COLORADO, LLC",SIMPLY PURE,"Retail Marijuana Store-SIMPLY PURE COLORADO, LLC"
1842,509,"3835 Paris St, Denver, CO 80239, USA",3835 N PARIS ST DENVER CO,39.7701602,-104.8491558,Retail Marij Opt. Prem. Cultiv,"D'S TREES, LLC",,"Retail Marij Opt. Prem. Cultiv-D'S TREES, LLC"
1844,511,"5225 Monroe St, Denver, CO 80216, USA",5225 N MONROE ST DENVER CO,39.7917748,-104.9455177,Retail Marij Opt. Prem. Cultiv,GREEN CROSS LLC,GREEN CROSS OF CHERRY CREEK,Retail Marij Opt. Prem. Cultiv-GREEN CROSS LLC
1845,511,"5225 Monroe St, Denver, CO 80216, USA",5225 N MONROE ST DENVER CO,39.7917748,-104.9455177,Med Marijuana Opt Prem Cultiv,GREEN CROSS LLC,GREEN CROSS OF CHERRY CREEK,Med Marijuana Opt Prem Cultiv-GREEN CROSS LLC
1848,516,"1810 S Broadway, Denver, CO 80210, USA",1810 S BROADWAY  DENVER CO,39.6837002,-104.9872836,Retail Marijuana Store,"GANJA GOURMET, LLC",GANJA GOURMET,"Retail Marijuana Store-GANJA GOURMET, LLC"
1849,517,"Navajo St, Denver, CO 80211, USA",875 N NAVAJO ST DENVER CO,39.7708948,-105.0042023,Retail Marij Opt. Prem. Cultiv,NAVAJO MANAGEMENT LLC,,Retail Marij Opt. Prem. Cultiv-NAVAJO MANAGEMENT LLC
1854,520,"4890 Joliet St, Denver, CO 80239, USA",4890 N JOLIET ST DENVER CO,39.7861082,-104.860603,Retail Marij Opt. Prem. Cultiv,"KIND LOVE, LLC",KIND LOVE,"Retail Marij Opt. Prem. Cultiv-KIND LOVE, LLC"
1855,520,"4890 Joliet St, Denver, CO 80239, USA",4890 N JOLIET ST DENVER CO,39.7861082,-104.860603,Med Marijuana Inf Prod Manuf,KIND LOVE LLC,KIND LOVE,Med Marijuana Inf Prod Manuf-KIND LOVE LLC
1856,520,"4890 Joliet St, Denver, CO 80239, USA",4890 N JOLIET ST DENVER CO,39.7861082,-104.860603,Med Marijuana Opt Prem Cultiv,"KIND LOVE, LLC",KIND LOVE,"Med Marijuana Opt Prem Cultiv-KIND LOVE, LLC"
1857,520,"4890 Joliet St, Denver, CO 80239, USA",4890 N JOLIET ST DENVER CO,39.7861082,-104.860603,Retail Marijuana Inf Prod Mfg,"KIND LOVE, LLC",KIND LOVE,"Retail Marijuana Inf Prod Mfg-KIND LOVE, LLC"
1871,523,"7050 Tower Rd, Denver, CO 80249, USA",7050 N TOWER RD DENVER CO,39.8247827,-104.7713055,Retail Marijuana Store,"RJJ TOWER, LLC",NATIVE ROOTS DENVER AIRPROT,"Retail Marijuana Store-RJJ TOWER, LLC"
1872,523,"7050 Tower Rd, Denver, CO 80249, USA",7050 N TOWER RD DENVER CO,39.8247827,-104.7713055,Medical Marijuana Center,"RJJ TOWER, LLC",NATIVE ROOTS DENVER AIRPORT,"Medical Marijuana Center-RJJ TOWER, LLC"
1875,526,"1920 S Cherokee St, Denver, CO 80223, USA",1920 S CHEROKEE ST DENVER CO,39.6817233,-104.9907754,Med Marijuana Opt Prem Cultiv,"BROW 1, LLC",XCLUSIVE CANNABIS,"Med Marijuana Opt Prem Cultiv-BROW 1, LLC"
1876,527,"658 Kalamath St, Denver, CO 80204, USA",658 N KALAMATH ST DENVER CO,39.7268021,-104.9997221,Retail Marij Opt. Prem. Cultiv,"NUHI, LLC",,"Retail Marij Opt. Prem. Cultiv-NUHI, LLC"
1877,531,"1975 S Bannock St, Denver, CO 80223, USA",1975 S BANNOCK ST DENVER CO,39.6807023,-104.9902846,Med Marijuana Opt Prem Cultiv,"COMPASSIONATE PAIN MANAGEMENT, LLC",CPM,"Med Marijuana Opt Prem Cultiv-COMPASSIONATE PAIN MANAGEMENT, LLC"
1878,531,"1975 S Bannock St, Denver, CO 80223, USA",1975 S BANNOCK ST DENVER CO,39.6807023,-104.9902846,Med Marijuana Opt Prem Cultiv,"CPM LAKEWOOD, LLC",AJOYA MEDICAL CANNABIS,"Med Marijuana Opt Prem Cultiv-CPM LAKEWOOD, LLC"
1879,531,"1975 S Bannock St, Denver, CO 80223, USA",1975 S BANNOCK ST DENVER CO,39.6807023,-104.9902846,Retail Marij Opt. Prem. Cultiv,"COMPASSIONATE PAIN MANAGEMENT, LLC",AJOYA,"Retail Marij Opt. Prem. Cultiv-COMPASSIONATE PAIN MANAGEMENT, LLC"
1886,533,"801 W Bayaud Ave, Denver, CO 80223, USA",801 W BAYAUD AVE DENVER CO,39.7153479,-104.9981853,Med Marijuana Opt Prem Cultiv,NKHAT LLC,FROST HARVEST,Med Marijuana Opt Prem Cultiv-NKHAT LLC
1887,534,"20 E 9th Ave, Denver, CO 80203, USA",20 E 9TH AVE DENVER CO,39.7302778,-104.9864848,Retail Marijuana Store,"MAGNA MARKETING, INC",HERBS 4 YOU,"Retail Marijuana Store-MAGNA MARKETING, INC"
1888,535,"1736 N Downing St, Denver, CO 80218, USA",1736 N DOWNING ST DENVER CO,39.7440823,-104.9730775,Retail Marijuana Store,"MAYFLOWER GROUP, LLC",THE HEALTH CENTER,"Retail Marijuana Store-MAYFLOWER GROUP, LLC"
1889,535,"1736 N Downing St, Denver, CO 80218, USA",1736 N DOWNING ST DENVER CO,39.7440823,-104.9730775,Medical Marijuana Center,"MAYFLOWER GROUP, LLC",THE HEALTH CENTER,"Medical Marijuana Center-MAYFLOWER GROUP, LLC"
1892,536,"1822 S Bannock St, Denver, CO 80223, USA",1822 S Bannock St Denver CO,39.6836184,-104.9897028,Retail Marijuana Inf Prod Mfg,HEALTHY CREATION EDIBLES LLC,,Retail Marijuana Inf Prod Mfg-HEALTHY CREATION EDIBLES LLC
1893,537,"4875 E 41st Ave, Denver, CO 80216, USA",4875 E 41ST AVE DENVER CO,39.7747517,-104.9306815,Retail Marijuana Inf Prod Mfg,"RMZ, LLC",,"Retail Marijuana Inf Prod Mfg-RMZ, LLC"
1894,537,"4875 E 41st Ave, Denver, CO 80216, USA",4875 E 41ST AVE DENVER CO,39.7747517,-104.9306815,Med Marijuana Inf Prod Manuf,"RMZ, LLC",,"Med Marijuana Inf Prod Manuf-RMZ, LLC"
1897,538,"3960 Grape St, Denver, CO 80207, USA",3960 N GRAPE ST DENVER CO,39.77263,-104.9242387,Med Marijuana Test Facility,NORDIC ANALYTICAL LABORATORIES LLC,,Med Marijuana Test Facility-NORDIC ANALYTICAL LABORATORIES LLC
1898,540,"1301 S Cherokee St, Denver, CO 80223, USA",1301 S CHEROKEE ST DENVER CO,39.6927989,-104.9913688,Med Marijuana Opt Prem Cultiv,"SWEETWATER PARTNERS, LLC",WS THE RUBY,"Med Marijuana Opt Prem Cultiv-SWEETWATER PARTNERS, LLC"
1899,541,"Quivas St, Denver, CO, USA",400 N Quivas St Denver CO,39.7801532,-105.0080066,Retail Marijuana Inf Prod Mfg,KGBI COLORADO LLC,SENSE OF HEALING,Retail Marijuana Inf Prod Mfg-KGBI COLORADO LLC
1900,542,"7739 E Colfax Ave, Denver, CO 80220, USA",7739 E COLFAX AVE DENVER CO,39.7404732,-104.8979602,Medical Marijuana Center,"RME GROUP, LLC",AFFINITY,"Medical Marijuana Center-RME GROUP, LLC"
1901,542,"7739 E Colfax Ave, Denver, CO 80220, USA",7739 E COLFAX AVE DENVER CO,39.7404732,-104.8979602,Retail Marijuana Store,RME GROUP LLC,AFFINITY,Retail Marijuana Store-RME GROUP LLC
1904,543,"3480 S Galena St, Denver, CO 80231, USA",3480 S GALENA ST DENVER CO,39.6541532,-104.8684522,Medical Marijuana Center,WASH PARK BOUTIQUE LLC,LUCY SKY DISPENSARY,Medical Marijuana Center-WASH PARK BOUTIQUE LLC
1905,544,"5475 Peoria St, Denver, CO 80239, USA",5475 N PEORIA ST  DENVER CO,39.7952228,-104.8486775,Med Marijuana Opt Prem Cultiv,"COLORADO CANNABIS COMPANY, LLC",PURE MEDICAL DISPENSARY,"Med Marijuana Opt Prem Cultiv-COLORADO CANNABIS COMPANY, LLC"
1906,545,"1403 S Cherokee St, Denver, CO 80223, USA",1403 S CHEROKEE ST DENVER CO,39.690907,-104.991351,Retail Marij Opt. Prem. Cultiv,"GM SANTA FE, LLC",GOLDEN MEDS,"Retail Marij Opt. Prem. Cultiv-GM SANTA FE, LLC"
1907,547,"1617 W 12th Ave, Denver, CO 80204, USA",1617 W 12TH AVE DENVER CO,39.7354077,-105.0084991,Retail Marij Opt. Prem. Cultiv,"DUTCH BOY, LLC",DUTCH BOY,"Retail Marij Opt. Prem. Cultiv-DUTCH BOY, LLC"
1908,549,"790 W Evans Ave, Denver, CO 80223, USA",790 W EVANS AVE DENVER CO,39.6781711,-104.9968007,Med Marijuana Opt Prem Cultiv,ADAMS GREEN CROSSING LLC,ADAMS GREEN CROSSING,Med Marijuana Opt Prem Cultiv-ADAMS GREEN CROSSING LLC
1912,550,"80 S Pennsylvania St, Denver, CO 80209, USA",80 S PENNSYLVANIA ST DENVER CO,39.7150953,-104.9812129,Medical Marijuana Center,"BGOOD VENTURES, LLC",BGOOD APOTHECARY,"Medical Marijuana Center-BGOOD VENTURES, LLC"
1913,553,"5141 Franklin St, Denver, CO 80216, USA",5141 N FRANKLIN ST DENVER CO,39.7902105,-104.9689789,Retail Marij Opt. Prem. Cultiv,"LIVWELL I, LLC",LIVWELL,"Retail Marij Opt. Prem. Cultiv-LIVWELL I, LLC"
1914,553,"5141 Franklin St, Denver, CO 80216, USA",5141 N FRANKLIN ST DENVER CO,39.7902105,-104.9689789,Retail Marijuana Inf Prod Mfg,"BEYOND BROADWAY, LLC",INFUSIASM,"Retail Marijuana Inf Prod Mfg-BEYOND BROADWAY, LLC"
1916,553,"5141 Franklin St, Denver, CO 80216, USA",5141 N FRANKLIN ST DENVER CO,39.7902105,-104.9689789,Med Marijuana Inf Prod Manuf,"BEYOND BROADWAY, LLC",INFUSIASM,"Med Marijuana Inf Prod Manuf-BEYOND BROADWAY, LLC"
1929,555,"3900 E 48th Ave, Denver, CO 80216, USA",3900 E 48th Ave Denver CO,39.7832808,-104.9416975,Retail Marijuana Store,"KGBI COLORADO, LLC",SPARK DISPENSARY,"Retail Marijuana Store-KGBI COLORADO, LLC"
1931,556,"395 Yuma St, Denver, CO 80223, USA",395 N YUMA ST DENVER CO,39.722042,-105.0153619,Retail Marij Opt. Prem. Cultiv,DISCOUNT MEDICAL MARIJUANA LLC,HIGH LEVEL HEALTH,Retail Marij Opt. Prem. Cultiv-DISCOUNT MEDICAL MARIJUANA LLC
1935,561,"Denver, CO, USA",4809 N Colorado  Denver CO,39.7392358,-104.990251,Retail Marijuana Inf Prod Mfg,BRONNOR CORP,,Retail Marijuana Inf Prod Mfg-BRONNOR CORP
1936,565,"6767 E 39th Ave, Denver, CO 80207, USA",6767 E 39th Ave Denver CO,39.7712545,-104.9100952,Retail Marijuana Inf Prod Mfg,COLORADO GENERAL SERVICE PROVIDER,CGSP,Retail Marijuana Inf Prod Mfg-COLORADO GENERAL SERVICE PROVIDER
1937,572,"803 S Jason St, Denver, CO 80223, USA",803 S JASON ST DENVER CO,39.7021175,-104.9999047,Med Marijuana Opt Prem Cultiv,"AREN & DAVES DREAM, LLC",SERGEANT GREEN LEAF,"Med Marijuana Opt Prem Cultiv-AREN & DAVES DREAM, LLC"
1938,575,"3955 Oneida St, Denver, CO 80207, USA",3955 N ONEIDA ST DENVER CO,39.7719229,-104.9079966,Retail Marijuana Store,"GREEN KIWI 1, LLC",LIVWELL,"Retail Marijuana Store-GREEN KIWI 1, LLC"
1939,579,"2744 W 4th Ave, Denver, CO 80219, USA",2744 W 4th  Denver CO,39.7218112,-105.0214518,Retail Marij Opt. Prem. Cultiv,CAREGIVERS FOR LIFE LLC,,Retail Marij Opt. Prem. Cultiv-CAREGIVERS FOR LIFE LLC
1940,581,"445 Federal Blvd, Denver, CO 80204, USA",445 N FEDERAL BLVD DENVER CO,39.7237231,-105.0254694,Retail Marijuana Store,ALPINE HERBAL WELLNESS LLC,FROSTED LEAF,Retail Marijuana Store-ALPINE HERBAL WELLNESS LLC
1941,585,"3450 Brighton Blvd, Denver, CO 80216, USA",3450 N BRIGHTON BLVD DENVER CO,39.7699617,-104.9788853,Medical Marijuana Center,"M.J.L.Q., LLC",WHOLE MEDS,"Medical Marijuana Center-M.J.L.Q., LLC"
1942,585,"3450 Brighton Blvd, Denver, CO 80216, USA",3450 N BRIGHTON BLVD DENVER CO,39.7699617,-104.9788853,Retail Marijuana Store,M.J.L.Q LLC,WHOLE MEDS,Retail Marijuana Store-M.J.L.Q LLC
1945,588,"4400 York St, Denver, CO 80216, USA",4400 N YORK ST DENVER CO,39.7779747,-104.9591009,Retail Marij Opt. Prem. Cultiv,"TETRAHYDROCENTER, LLC",TETRAHYDRO CENTER,"Retail Marij Opt. Prem. Cultiv-TETRAHYDROCENTER, LLC"
1946,589,"1110 W Virginia Ave, Denver, CO 80223, USA",1110 W VIRGINIA AVE DENVER CO,39.7073048,-104.9995286,Retail Marij Opt. Prem. Cultiv,RIA HOLDINGS LIMITED,LAUGHING GRASS,Retail Marij Opt. Prem. Cultiv-RIA HOLDINGS LIMITED
1947,589,"1110 W Virginia Ave, Denver, CO 80223, USA",1110 W VIRGINIA AVE DENVER CO,39.7073048,-104.9995286,Medical Marijuana Center,RIA HOLDINGS LIMITED,LAUGHING GRASS,Medical Marijuana Center-RIA HOLDINGS LIMITED
1950,590,"5105 E 38th Ave, Denver, CO 80207, USA",5105 E 38TH AVE DENVER CO,39.7696082,-104.9280713,Med Marijuana Opt Prem Cultiv,"NATURE MED, INC",KIND-MEDS,"Med Marijuana Opt Prem Cultiv-NATURE MED, INC"
1951,590,"5105 E 38th Ave, Denver, CO 80207, USA",5105 E 38TH AVE DENVER CO,39.7696082,-104.9280713,Med Marijuana Opt Prem Cultiv,"NATURE MED, INC.",KIND-MEDS,"Med Marijuana Opt Prem Cultiv-NATURE MED, INC."
1955,595,"1100 S Kalamath St, Denver, CO 80223, USA",1100 S KALAMATH ST DENVER CO,39.6964434,-104.9999047,Med Marijuana Opt Prem Cultiv,"TOP SHELF, LLC",TOP SHELF,"Med Marijuana Opt Prem Cultiv-TOP SHELF, LLC"
1956,597,"794 E 51st Ave, Denver, CO 80216, USA",794 E 51st  Denver CO,39.7889742,-104.9771467,Retail Marij Opt. Prem. Cultiv,"MOUNTAIN GIRL LPT, INC.",,"Retail Marij Opt. Prem. Cultiv-MOUNTAIN GIRL LPT, INC."
1958,600,"11122 E 47th Ave, Denver, CO 80239, USA",11122 E 47th Ave Denver CO,39.7821089,-104.8583682,Retail Marij Opt. Prem. Cultiv,PERSONALIZED ORGANIC TREATMENTS LLC,,Retail Marij Opt. Prem. Cultiv-PERSONALIZED ORGANIC TREATMENTS LLC
1959,601,"2291 S Kalamath St, Denver, CO 80223, USA",2291 S Kalamath  Denver CO,39.6750256,-105.0009241,Med Marijuana Opt Prem Cultiv,"MILE HIGH WELLNESS II, LLC",MILE HIGH WELLNESS - GREEN STREET,"Med Marijuana Opt Prem Cultiv-MILE HIGH WELLNESS II, LLC"
1960,602,"1205 W Evans Ave, Denver, CO 80223, USA",1205 W EVANS AVE DENVER CO,39.6787112,-105.0022784,Retail Marij Opt. Prem. Cultiv,"5280 WELLNESS, LLC",MMJ AMERICA GOLDEN TRIANGLE,"Retail Marij Opt. Prem. Cultiv-5280 WELLNESS, LLC"
1961,602,"1205 W Evans Ave, Denver, CO 80223, USA",1205 W EVANS AVE DENVER CO,39.6787112,-105.0022784,Med Marijuana Opt Prem Cultiv,"5280 WELLNESS, LLC",MMJ AMERICA GOLDEN TRIANGLE,"Med Marijuana Opt Prem Cultiv-5280 WELLNESS, LLC"
1964,604,"4640 Ironton St, Denver, CO 80239, USA",4640 N IRONTON ST DENVER CO,39.7811893,-104.862701,Med Marijuana Opt Prem Cultiv,SUNHOUSE COLORADO LLC,SUNHOUSE,Med Marijuana Opt Prem Cultiv-SUNHOUSE COLORADO LLC
1965,606,"1724 S Broadway, Denver, CO 80210, USA",1724 S BROADWAY  DENVER CO,39.685204,-104.987238,Medical Marijuana Center,"SWEETWATER PARTNERS,LLC",GOOD CHEMISTRY,"Medical Marijuana Center-SWEETWATER PARTNERS,LLC"
1966,606,"1724 S Broadway, Denver, CO 80210, USA",1724 S BROADWAY  DENVER CO,39.685204,-104.987238,Retail Marijuana Store,"SWEETWATER PARTNERS, LLC",GOOD CHEMISTRY,"Retail Marijuana Store-SWEETWATER PARTNERS, LLC"
1969,608,"1881 S Broadway, Denver, CO 80210, USA",1881 S BROADWAY  DENVER CO,39.6824828,-104.9877393,Retail Marijuana Store,"DGS, INC.",THE KIND ROOM,"Retail Marijuana Store-DGS, INC."
1970,608,"1881 S Broadway, Denver, CO 80210, USA",1881 S BROADWAY  DENVER CO,39.6824828,-104.9877393,Medical Marijuana Center,"DGS, INC",THE KIND ROOM,"Medical Marijuana Center-DGS, INC"
1974,613,"2777 S Colorado Blvd, Denver, CO 80222, USA",2777 S COLORADO BLVD DENVER CO,39.6658647,-104.94103,Medical Marijuana Center,"NUTRITIONAL ELEMENTS, LLC",THE HEALTH CENTER,"Medical Marijuana Center-NUTRITIONAL ELEMENTS, LLC"
1975,613,"2777 S Colorado Blvd, Denver, CO 80222, USA",2777 S COLORADO BLVD DENVER CO,39.6658647,-104.94103,Retail Marijuana Store,"NUTRITIONAL ELEMENTS, LLC",THE HEALTH CENTER,"Retail Marijuana Store-NUTRITIONAL ELEMENTS, LLC"
1978,615,"2130 S Lipan St, Denver, CO 80223, USA",2130 S LIPAN ST DENVER CO,39.6779189,-105.0014111,Med Marijuana Opt Prem Cultiv,"WELLNESS CENTER OF THE ROCKIES, INC.",,"Med Marijuana Opt Prem Cultiv-WELLNESS CENTER OF THE ROCKIES, INC."
1979,615,"2130 S Lipan St, Denver, CO 80223, USA",2130 S LIPAN ST DENVER CO,39.6779189,-105.0014111,Retail Marij Opt. Prem. Cultiv,"WELLNESS CENTER OF THE ROCKIES, INC.",,"Retail Marij Opt. Prem. Cultiv-WELLNESS CENTER OF THE ROCKIES, INC."
1982,616,"2615 Welton St, Denver, CO 80205, USA",2615  WELTON ST DENVER CO,39.7542725,-104.9791249,Retail Marijuana Store,"DKC, LLC",DENVER KUSH CLUB,"Retail Marijuana Store-DKC, LLC"
1983,616,"2615 Welton St, Denver, CO 80205, USA",2615  WELTON ST DENVER CO,39.7542725,-104.9791249,Medical Marijuana Center,"DKC, LLC",DENVER KUSH CLUB,"Medical Marijuana Center-DKC, LLC"
1986,617,"2301 7th St, Denver, CO 80211, USA",2301  7TH ST DENVER CO,39.752276,-105.0145354,Retail Marijuana Store,"PLATTE VALLEY DISPENSARY, LLC",PLATTE VALLEY DISPENSARY,"Retail Marijuana Store-PLATTE VALLEY DISPENSARY, LLC"
1987,617,"2301 7th St, Denver, CO 80211, USA",2301  7TH ST DENVER CO,39.752276,-105.0145354,Medical Marijuana Center,"PLATTE VALLEY DISPENSARY, LLC",PLATTE VALLEY DISPENSARY,"Medical Marijuana Center-PLATTE VALLEY DISPENSARY, LLC"
1991,624,"2121 E 44th Ave, Denver, CO 80216, USA",2121 E 44TH AVE DENVER CO,39.777875,-104.9616565,Med Marijuana Opt Prem Cultiv,"THE TEA POT, LLC",,"Med Marijuana Opt Prem Cultiv-THE TEA POT, LLC"
1992,629,"Logan St, Denver, CO 80203, USA",5060 N Logan  Denver CO,39.7320372,-104.9822641,Retail Marijuana Inf Prod Mfg,PUEBLO WELLNESS,BOULDER BLACK GOLD,Retail Marijuana Inf Prod Mfg-PUEBLO WELLNESS
1993,632,"4093 Jackson St, Denver, CO 80216, USA",4093 N Jackson ST Denver CO,39.7736656,-104.9433352,Med Marijuana Inf Prod Manuf,DRAGON ORIGINALS LLC,,Med Marijuana Inf Prod Manuf-DRAGON ORIGINALS LLC
1994,632,"4093 Jackson St, Denver, CO 80216, USA",4093 N Jackson ST Denver CO,39.7736656,-104.9433352,Retail Marijuana Inf Prod Mfg,DRAGON ORIGINALS LLC,,Retail Marijuana Inf Prod Mfg-DRAGON ORIGINALS LLC
1997,633,"135 S Broadway, Denver, CO 80223, USA",135 S BROADWAY  DENVER CO,39.7141598,-104.9880367,Medical Marijuana Center,"TOP SHELF, LLC",TOP SHELF,"Medical Marijuana Center-TOP SHELF, LLC"
1998,635,"4773 Fox St, Denver, CO 80216, USA",4773 N Fox  Denver CO,39.7832395,-104.9950661,Medical Marijuana Center,"FOX STREET  WELLNESS, LLC",FOX CANNABIS,"Medical Marijuana Center-FOX STREET  WELLNESS, LLC"
2000,639,"2440 W Evans Ave, Denver, CO 80219, USA",2440 W EVANS AVE DENVER CO,39.6784132,-105.016955,Medical Marijuana Center,"CG INDUSTRY, LLC",CROSS GENETICS,"Medical Marijuana Center-CG INDUSTRY, LLC"
2001,642,"3835 Elm St, Denver, CO 80207, USA",3835 N Elm ST Denver CO,39.7698867,-104.9298508,Retail Marijuana Store,"JGB VENTURES, LLC",DANK,"Retail Marijuana Store-JGB VENTURES, LLC"
2002,643,"2257 S Kalamath St, Denver, CO 80223, USA",2257 S KALAMATH ST DENVER CO,39.6757645,-105.0007973,Retail Marij Opt. Prem. Cultiv,CALISTOS GARDEN LLC,,Retail Marij Opt. Prem. Cultiv-CALISTOS GARDEN LLC
2004,646,"2490 W 2nd Ave, Denver, CO 80223, USA",2490 W 2ND AVE DENVER CO,39.7185598,-105.0174344,Med Marijuana Opt Prem Cultiv,"COLORADO WELLNESS CENTERS, LLC",LUSH,"Med Marijuana Opt Prem Cultiv-COLORADO WELLNESS CENTERS, LLC"
2005,646,"2490 W 2nd Ave, Denver, CO 80223, USA",2490 W 2ND AVE DENVER CO,39.7185598,-105.0174344,Medical Marijuana Center,COLORADO WELLNESS CENTERS LLC,LUSH,Medical Marijuana Center-COLORADO WELLNESS CENTERS LLC
2009,649,"1201 20th St, Denver, CO 80202, USA",1201  20TH ST DENVER CO,39.752584,-104.991667,Medical Marijuana Center,COMPASSIONATE CARE GIVERS INC,CANNABIS STATION,Medical Marijuana Center-COMPASSIONATE CARE GIVERS INC
2012,652,"1870 S Acoma St, Denver, CO 80223, USA",1870 S ACOMA ST DENVER CO,39.682618,-104.988482,Med Marijuana Opt Prem Cultiv,"DGS, INC",THE KIND BLOOM,"Med Marijuana Opt Prem Cultiv-DGS, INC"
2013,652,"1870 S Acoma St, Denver, CO 80223, USA",1870 S ACOMA ST DENVER CO,39.682618,-104.988482,Retail Marij Opt. Prem. Cultiv,"DGS, INC.",THE KIND ROOM,"Retail Marij Opt. Prem. Cultiv-DGS, INC."
2016,654,"2209 S Jason St, Denver, CO 80223, USA",2209 S JASON ST DENVER CO,39.6765131,-104.9998134,Retail Marij Opt. Prem. Cultiv,"THE HERBAL CURE, LLC",,"Retail Marij Opt. Prem. Cultiv-THE HERBAL CURE, LLC"
2020,655,"890 Navajo St, Denver, CO 80204, USA",890 N NAVAJO ST DENVER CO,39.730187,-105.0039763,Retail Marij Opt. Prem. Cultiv,"GREEN LEAF, LLC",,"Retail Marij Opt. Prem. Cultiv-GREEN LEAF, LLC"
2022,657,"2209 W 32nd Ave, Denver, CO 80211, USA",2209 W 32ND AVE DENVER CO,39.7622251,-105.0131202,Medical Marijuana Center,"RJJ HIGHLANDS, LLC",NATIVE ROOTS HIGHLANDS,"Medical Marijuana Center-RJJ HIGHLANDS, LLC"
2023,657,"2209 W 32nd Ave, Denver, CO 80211, USA",2209 W 32ND AVE DENVER CO,39.7622251,-105.0131202,Retail Marijuana Store,"RJJ HIGHLANDS, LLC",NATIVE ROOTS HIGHLANDS,"Retail Marijuana Store-RJJ HIGHLANDS, LLC"
2026,658,"970 Lincoln St, Denver, CO 80203, USA",970 N LINCOLN ST DENVER CO,39.7317372,-104.985926,Retail Marijuana Store,DISCOUNT MEDICAL MARIJUANA LLC,HIGH LEVEL HEALTH,Retail Marijuana Store-DISCOUNT MEDICAL MARIJUANA LLC
2030,659,"4155 Grape St, Denver, CO 80216, USA",4155 N Grape St Denver CO,39.7743586,-104.9250557,Medical Marijuana Center,TESLA LLC,,Medical Marijuana Center-TESLA LLC
2031,661,"3770 Joliet St, Denver, CO 80239, USA",3770 N Joliet St Denver CO,39.7702698,-104.8606942,Retail Marijuana Inf Prod Mfg,CL PROCESSES LLC,CANNABISTRY LABS,Retail Marijuana Inf Prod Mfg-CL PROCESSES LLC
2032,668,"5885 E Evans Ave, Denver, CO 80222, USA",5885 E EVANS AVE DENVER CO,39.6791961,-104.9196305,Retail Marijuana Store,"CJJ SERVICES, LLC",SACRED SEED,"Retail Marijuana Store-CJJ SERVICES, LLC"
2033,668,"5885 E Evans Ave, Denver, CO 80222, USA",5885 E EVANS AVE DENVER CO,39.6791961,-104.9196305,Med Marijuana Opt Prem Cultiv,"CJJ SERVICES, LLC",SACRED SEED,"Med Marijuana Opt Prem Cultiv-CJJ SERVICES, LLC"
2034,668,"5885 E Evans Ave, Denver, CO 80222, USA",5885 E EVANS AVE DENVER CO,39.6791961,-104.9196305,Retail Marij Opt. Prem. Cultiv,"CJJ SERVICES, LLC",SACRED SEED,"Retail Marij Opt. Prem. Cultiv-CJJ SERVICES, LLC"
2035,668,"5885 E Evans Ave, Denver, CO 80222, USA",5885 E EVANS AVE DENVER CO,39.6791961,-104.9196305,Medical Marijuana Center,CJJ SERVICES LLC,SACRED SEED,Medical Marijuana Center-CJJ SERVICES LLC
2048,670,"963 N Federal Blvd, Denver, CO 80204, USA",963 N Federal BLVD Denver CO,39.7329738,-105.0251809,Retail Marijuana Inf Prod Mfg,PAPILLONS LLC,PAPILLONS,Retail Marijuana Inf Prod Mfg-PAPILLONS LLC
2049,671,"1235 Umatilla St, Denver, CO 80204, USA",1235 N Umatilla  Denver CO,39.7355788,-105.0127961,Med Marijuana Opt Prem Cultiv,RIA HOLDINGS LIMITED,LAUGHING GRASS,Med Marijuana Opt Prem Cultiv-RIA HOLDINGS LIMITED
2050,671,"1235 Umatilla St, Denver, CO 80204, USA",1235 N Umatilla  Denver CO,39.7355788,-105.0127961,Med Marijuana Opt Prem Cultiv,I&S LLC,SILVER STEM FINE CANNABIS,Med Marijuana Opt Prem Cultiv-I&S LLC
2053,676,"380 Quivas St, Denver, CO 80223, USA",380 N Quivas ST Denver CO,39.7224554,-105.0067064,Retail Marijuana Store,L'EAGLE SERVICES LLC,L'EAGLE,Retail Marijuana Store-L'EAGLE SERVICES LLC
2054,678,"11080 E 47th Ave, Denver, CO 80239, USA",11080 E 47TH AVE DENVER CO,39.7820957,-104.8596417,Med Marijuana Opt Prem Cultiv,"LYONS FINEST CONFIDENTIAL CARE, LLC",,"Med Marijuana Opt Prem Cultiv-LYONS FINEST CONFIDENTIAL CARE, LLC"
2055,678,"11080 E 47th Ave, Denver, CO 80239, USA",11080 E 47TH AVE DENVER CO,39.7820957,-104.8596417,Medical Marijuana Center,"LYONS FINEST CONFIDENTIAL CARE, LLC",TUMBLEWEED,"Medical Marijuana Center-LYONS FINEST CONFIDENTIAL CARE, LLC"
2058,680,"5200 E Smith Rd, Denver, CO 80239, USA",5200 E SMITH RD DENVER CO,39.7693259,-104.8766681,Retail Marij Opt. Prem. Cultiv,"VERTICAL INVESTMENT GROUP, LLC",,"Retail Marij Opt. Prem. Cultiv-VERTICAL INVESTMENT GROUP, LLC"
2062,684,"1342 W Cedar Ave, Denver, CO 80223, USA",1342 W CEDAR AVE DENVER CO,39.712774,-105.004838,Med Marijuana Opt Prem Cultiv,NATURES CURE III,THE COLFAX POT SHOP,Med Marijuana Opt Prem Cultiv-NATURES CURE III
2064,692,"4675 Kingston St, Denver, CO 80239, USA",4675 N KINGSTON ST DENVER CO,39.781594,-104.8595996,Med Marijuana Inf Prod Manuf,"NATURAL REMEDIES TECH, LLC",CONCENTRATE REMEDIES,"Med Marijuana Inf Prod Manuf-NATURAL REMEDIES TECH, LLC"
2065,692,"4675 Kingston St, Denver, CO 80239, USA",4675 N KINGSTON ST DENVER CO,39.781594,-104.8595996,Med Marijuana Opt Prem Cultiv,"NATURAL REMEDIES TECH, LLC",CONCENTRATE REMEDIES,"Med Marijuana Opt Prem Cultiv-NATURAL REMEDIES TECH, LLC"
2068,695,"50 Lipan St, Denver, CO 80223, USA",50 N LIPAN ST DENVER CO,39.7173895,-105.0013091,Retail Marij Opt. Prem. Cultiv,LIPAN GROUP LLC,,Retail Marij Opt. Prem. Cultiv-LIPAN GROUP LLC
2069,696,"4260 Kearney St, Denver, CO 80216, USA",4260 N KEARNEY ST DENVER CO,39.7758362,-104.916893,Med Marijuana Opt Prem Cultiv,"MHFS, LLC",,"Med Marijuana Opt Prem Cultiv-MHFS, LLC"
2073,700,"4611 E 46th Ave, Denver, CO 80216, USA",4611 E 46TH AVE DENVER CO,39.7809499,-104.933136,Retail Marij Opt. Prem. Cultiv,"MILE HIGH MEDICAL CANNABIS, LLC",LIT,"Retail Marij Opt. Prem. Cultiv-MILE HIGH MEDICAL CANNABIS, LLC"
2074,700,"4611 E 46th Ave, Denver, CO 80216, USA",4611 E 46TH AVE DENVER CO,39.7809499,-104.933136,Med Marijuana Opt Prem Cultiv,"MILE HIGH MEDICAL CANNABIS, LLC",LIT,"Med Marijuana Opt Prem Cultiv-MILE HIGH MEDICAL CANNABIS, LLC"
2077,701,"10555 E 45th Ave, Denver, CO 80239, USA",10555 E 45th AVE Denver CO,39.7795275,-104.8645385,Retail Marijuana Store,"R.D. INDUSTRIES II, LLC",HOUSE OF DANKNESS,"Retail Marijuana Store-R.D. INDUSTRIES II, LLC"
2078,702,"3855 Quentin St, Denver, CO 80239, USA",3855 N QUENTIN ST DENVER CO,39.7702777,-104.8452339,Med Marijuana Inf Prod Manuf,"Mx, LLC",,"Med Marijuana Inf Prod Manuf-Mx, LLC"
2079,702,"3855 Quentin St, Denver, CO 80239, USA",3855 N QUENTIN ST DENVER CO,39.7702777,-104.8452339,Med Marijuana Opt Prem Cultiv,"Mx, LLC",,"Med Marijuana Opt Prem Cultiv-Mx, LLC"
2087,703,"4820 Morrison Rd, Denver, CO 80219, USA",4820  MORRISON RD DENVER CO,39.6992756,-105.0487779,Retail Marijuana Store,STONE T.M.C. LLC,THE STONE DISPENSARY,Retail Marijuana Store-STONE T.M.C. LLC
2088,704,"4550 S Kipling St, Denver, CO 80127, USA",4550 S KIPLING ST DENVER CO,39.6339478,-105.1089452,Medical Marijuana Center,"JVT ENTERPRISES, INC.",COLORADO CANNABIS CONNECTION,"Medical Marijuana Center-JVT ENTERPRISES, INC."
2089,704,"4550 S Kipling St, Denver, CO 80127, USA",4550 S KIPLING ST DENVER CO,39.6339478,-105.1089452,Retail Marijuana Store,"JVT ENTERPRISES, INC.",COLORADO CANNABIS CONNECTION,"Retail Marijuana Store-JVT ENTERPRISES, INC."
2092,705,"5550 Joliet St, Denver, CO 80239, USA",5550 N Joliet  Denver CO,39.7973535,-104.8606942,Retail Marijuana Store,"TRILL EVOLUTIONS, LLC",TRILL EVOLUTIONS,"Retail Marijuana Store-TRILL EVOLUTIONS, LLC"
2093,705,"5550 Joliet St, Denver, CO 80239, USA",5550 N Joliet  Denver CO,39.7973535,-104.8606942,Retail Marij Opt. Prem. Cultiv,"TRILL EVOLUTIONS, LLC",TRILL EVOLUTIONS,"Retail Marij Opt. Prem. Cultiv-TRILL EVOLUTIONS, LLC"
2096,706,"105 E 7th Ave, Denver, CO 80203, USA",105 E 7TH AVE DENVER CO,39.7275,-104.9855948,Retail Marijuana Store,"JVJC HOLDINGS II, LLC",,"Retail Marijuana Store-JVJC HOLDINGS II, LLC"
2097,710,"2645 S Santa Fe Dr, Denver, CO 80223, USA",2645 S Santa Fe DR Denver CO,39.6683721,-104.9964899,Medical Marijuana Center,"RJJ SANTA FE, LLC",NATIVE ROOTS SANTA FE,"Medical Marijuana Center-RJJ SANTA FE, LLC"
2098,712,"Wyandot St, Denver, CO, USA",830 N WYANDOT ST DENVER CO,39.7777652,-105.0146377,Retail Marij Opt. Prem. Cultiv,"GREENWERKZ, LLC",,"Retail Marij Opt. Prem. Cultiv-GREENWERKZ, LLC"
2103,714,"5060 Federal Blvd, Denver, CO 80221, USA",5060 N LOGAN ST DENVER CO,39.788509,-105.0248609,Med Marijuana Inf Prod Manuf,"HERBANOIDS, LLC",HERBANOIDS,"Med Marijuana Inf Prod Manuf-HERBANOIDS, LLC"
2104,716,"1075 S Jason St, Denver, CO 80223, USA",1075 S Jason St Denver CO,39.6973825,-104.9993569,Retail Marijuana Inf Prod Mfg,JVT ENTERPRISES INC,SPACE LAB,Retail Marijuana Inf Prod Mfg-JVT ENTERPRISES INC
2106,717,"2394 S Broadway, Denver, CO 80210, USA",2394 S BROADWAY  DENVER CO,39.6732089,-104.9873293,Retail Marijuana Store,WASH PARK BOUTIQUE LLC,LUCY SKY CANNABIS BOUTIQUE,Retail Marijuana Store-WASH PARK BOUTIQUE LLC
2110,727,"Wyandot St, Denver, CO, USA",211 N WYANDOT ST DENVER CO,39.7777652,-105.0146377,Med Marijuana Opt Prem Cultiv,ALTERNATIVE MEDICINE ON CAPITOL HILL,,Med Marijuana Opt Prem Cultiv-ALTERNATIVE MEDICINE ON CAPITOL HILL
2113,732,"Navajo St, Denver, CO 80211, USA",866 N Navajo ST Denver CO,39.7708948,-105.0042023,Retail Marijuana Inf Prod Mfg,ROCKY MOUNTAIN WAYS LLC,GOOD MEDS,Retail Marijuana Inf Prod Mfg-ROCKY MOUNTAIN WAYS LLC
2115,740,"4735 Oakland St, Denver, CO 80239, USA",4735 N Oakland  Denver CO,39.7833184,-104.8512081,Retail Marij Opt. Prem. Cultiv,GREEN LIFE SOLUTIONS  LLC,GREEN TREE MEDICINALS,Retail Marij Opt. Prem. Cultiv-GREEN LIFE SOLUTIONS  LLC
2116,741,"6858 E Evans Ave, Denver, CO 80224, USA",6858 E EVANS AVE DENVER CO,39.6780995,-104.9090517,Medical Marijuana Center,"TREATMENTS UNLIMITED, LLC",ALTITUDE EAST,"Medical Marijuana Center-TREATMENTS UNLIMITED, LLC"
2117,741,"6858 E Evans Ave, Denver, CO 80224, USA",6858 E EVANS AVE DENVER CO,39.6780995,-104.9090517,Retail Marijuana Store,"TREATMENTS UNLIMITED, LLC",ALTITUDE EAST,"Retail Marijuana Store-TREATMENTS UNLIMITED, LLC"
2120,742,"4800 Brighton Blvd, Denver, CO 80216, USA",4800 N BRIGHTON BLVD DENVER CO,39.7839857,-104.9665169,Medical Marijuana Center,GREEN GARDENS LLC,GREEN FIELDS,Medical Marijuana Center-GREEN GARDENS LLC
2121,743,"8151 E Colfax Ave, Denver, CO 80220, USA",8151 E COLFAX AVE DENVER CO,39.7404591,-104.8931484,Retail Marijuana Store,"METRO CANNABIS, INC.",SILVER STEM FINE CANNABIS,"Retail Marijuana Store-METRO CANNABIS, INC."
2122,743,"8151 E Colfax Ave, Denver, CO 80220, USA",8151 E COLFAX AVE DENVER CO,39.7404591,-104.8931484,Medical Marijuana Center,"METRO CANNABIS, INC.",SILVER STEM FINE CANNABIS,"Medical Marijuana Center-METRO CANNABIS, INC."
2125,745,"155 Federal Blvd, Denver, CO 80219, USA",155 N Federal BLVD Denver CO,39.7193345,-105.0254466,Retail Marijuana Store,"3B-FEDERAL1, LLC",BUDDY BOY,"Retail Marijuana Store-3B-FEDERAL1, LLC"
2126,746,"2119 Larimer St, Denver, CO 80205, USA",2119  LARIMER ST DENVER CO,39.7543635,-104.9911382,Medical Marijuana Center,BALLPARK HOLISTIC DISPENSARY CORP,BALLPARK HOLISTIC DISPENSARY,Medical Marijuana Center-BALLPARK HOLISTIC DISPENSARY CORP
2127,746,"2119 Larimer St, Denver, CO 80205, USA",2119  LARIMER ST DENVER CO,39.7543635,-104.9911382,Retail Marijuana Store,BALLPARK HOLISTIC DISPENSARY CORP,BALLPARK HOLISTIC DISPSENSARY,Retail Marijuana Store-BALLPARK HOLISTIC DISPENSARY CORP
2130,748,"1500 E Colfax Ave, Denver, CO 80218, USA",1500 E COLFAX AVE DENVER CO,39.7398384,-104.969362,Medical Marijuana Center,"NATURES CURE III, LLC",THE COLFAX POT SHOP,"Medical Marijuana Center-NATURES CURE III, LLC"
2131,748,"1500 E Colfax Ave, Denver, CO 80218, USA",1500 E COLFAX AVE DENVER CO,39.7398384,-104.969362,Retail Marijuana Store,"NATURES CURE III, LLC",THE COLFAX POT SHOP,"Retail Marijuana Store-NATURES CURE III, LLC"
2135,752,"74 N Federal Blvd, Denver, CO 80204, USA",74 N FEDERAL BLVD DENVER CO,39.7404447,-105.0252495,Retail Marijuana Store,CONCENTRATE LLC,CONCENTRATE,Retail Marijuana Store-CONCENTRATE LLC
2138,759,"380 Quivas St, Denver, CO 80223, USA",380 N Quivas  Denver CO,39.7224554,-105.0067064,Retail Marijuana Inf Prod Mfg,L'EAGLE SERVICES LLC,L'EAGLE SERVICES LLC,Retail Marijuana Inf Prod Mfg-L'EAGLE SERVICES LLC
2139,760,"4401 Zenobia St, Denver, CO 80212, USA",4401 N ZENOBIA ST DENVER CO,39.7767328,-105.0525679,Medical Marijuana Center,"GM 4401, LLC",GOLDEN MEDS,"Medical Marijuana Center-GM 4401, LLC"
2140,763,"1619 W 12th Ave, Denver, CO 80204, USA",1619 W 12TH AVE DENVER CO,39.7353748,-105.0086128,Med Marijuana Opt Prem Cultiv,"SISSCO, LLC",TRENCHTOWN,"Med Marijuana Opt Prem Cultiv-SISSCO, LLC"
2141,763,"1619 W 12th Ave, Denver, CO 80204, USA",1619 W 12TH AVE DENVER CO,39.7353748,-105.0086128,Retail Marij Opt. Prem. Cultiv,"SISSCO, LLC",TRENCHTOWN,"Retail Marij Opt. Prem. Cultiv-SISSCO, LLC"
2144,764,"6666 E Stapleton Dr S, Denver, CO 80216, USA",6666 E STAPLETON DR DENVER CO,39.777668,-104.9113581,Med Marijuana Opt Prem Cultiv,P&C EXPRESS LLC,ROCKY MOUNTAIN HIGH DISPENSARY,Med Marijuana Opt Prem Cultiv-P&C EXPRESS LLC
2145,767,"4745 W 38th Ave, Denver, CO 80212, USA",4745 W 38th  Denver CO,39.7695635,-105.0484583,Retail Marijuana Store,CANNABIS CORP,THE JOINT BY CANNABIS,Retail Marijuana Store-CANNABIS CORP
2146,768,"4950 E 41st Ave, Denver, CO 80216, USA",4950 E 41ST AVE DENVER CO,39.7737111,-104.9298052,Med Marijuana Opt Prem Cultiv,"LOTUS MEDICAL, LLC",,"Med Marijuana Opt Prem Cultiv-LOTUS MEDICAL, LLC"
2147,770,"2215 E Mississippi Ave, Denver, CO 80210, USA",2215 E MISSISSIPPI AVE DENVER CO,39.6967685,-104.961474,Retail Marijuana Store,"WASH PARK BOUTIQUE, LLC",LUCY SKY CANNABIS BOUTIQUE,"Retail Marijuana Store-WASH PARK BOUTIQUE, LLC"
2148,771,"2731 W Short Pl, Denver, CO 80204, USA",2731 W SHORT PL DENVER CO,39.7231123,-105.0212921,Retail Marij Opt. Prem. Cultiv,"JOIS, LLC",SILVER STEM FINE CANNABIS,"Retail Marij Opt. Prem. Cultiv-JOIS, LLC"
2149,771,"2731 W Short Pl, Denver, CO 80204, USA",2731 W SHORT PL DENVER CO,39.7231123,-105.0212921,Med Marijuana Opt Prem Cultiv,"JOIS, LLC",Silver Stem Fine Cannabis,"Med Marijuana Opt Prem Cultiv-JOIS, LLC"
2152,774,"4000 Morrison Rd, Denver, CO 80219, USA",4000  MORRISON RD DENVER CO,39.7058978,-105.039939,Retail Marijuana Store,"RJJ MORRISON II, LLC","NATIVE ROOTS MORRISON, NATIVE ROOTS WEST DENVER","Retail Marijuana Store-RJJ MORRISON II, LLC"
2153,777,"1001 Tejon St, Denver, CO 80204, USA",1001 N Tejon  Denver CO,39.7326303,-105.0116822,Med Marijuana Opt Prem Cultiv,KIND PAIN MANAGEMENT INC,KIND PAIN MANAGEMENT,Med Marijuana Opt Prem Cultiv-KIND PAIN MANAGEMENT INC
2154,778,"155 S Pecos St, Denver, CO 80223, USA",155 S PECOS ST DENVER CO,39.7137013,-105.0064781,Med Marijuana Opt Prem Cultiv,CANNABIS FOR HEALTH LLC,PIG N WHISTLE,Med Marijuana Opt Prem Cultiv-CANNABIS FOR HEALTH LLC
2155,779,"2563 15th St, Denver, CO 80211, USA",2563  15th  Denver CO,39.7582707,-105.011317,Retail Marijuana Store,MHFS LLC,GOOD CHEMISTRY,Retail Marijuana Store-MHFS LLC
2156,782,"4571 Ivy St, Denver, CO 80216, USA",4571 N Ivy ST Denver CO,39.7796332,-104.9203605,Retail Marijuana Inf Prod Mfg,PRIMA BRANDS LLC,PRIMA CANNABIS COMPANY,Retail Marijuana Inf Prod Mfg-PRIMA BRANDS LLC
2157,785,"3400 S Oneida Way, Denver, CO 80224, USA",3400 S ONEIDA WAY DENVER CO,39.6538948,-104.9083616,Medical Marijuana Center,GREEN CROSS LLC,GREEN CROSS OF CHERRY CREEK,Medical Marijuana Center-GREEN CROSS LLC
2158,787,"4995 Lima St, Denver, CO 80239, USA",4995 N LIMA ST DENVER CO,39.7877963,-104.8573193,Med Marijuana Opt Prem Cultiv,"OG MEDICINALS, LLC",,"Med Marijuana Opt Prem Cultiv-OG MEDICINALS, LLC"
2159,787,"4995 Lima St, Denver, CO 80239, USA",4995 N LIMA ST DENVER CO,39.7877963,-104.8573193,Retail Marij Opt. Prem. Cultiv,"OG MEDICINALS, LLC",,"Retail Marij Opt. Prem. Cultiv-OG MEDICINALS, LLC"
2162,788,"3880 Holly St, Denver, CO 80207, USA",3880 N HOLLY ST DENVER CO,39.7705814,-104.9215468,Med Marijuana Opt Prem Cultiv,"H&J SERVICES, INC.",BEMINDFUL,"Med Marijuana Opt Prem Cultiv-H&J SERVICES, INC."
2163,791,"9782 E Girard Ave, Denver, CO 80231, USA",9782 E Girard Ave Denver CO,39.6539121,-104.873806,Med Marijuana Inf Prod Manuf,THOMASH LLC,ALCHEMY FOOD CO,Med Marijuana Inf Prod Manuf-THOMASH LLC
2164,795,"3899 Quentin St, Denver, CO 80239, USA",3899 N QUENTIN ST DENVER CO,39.7707621,-104.8451427,Medical Marijuana Center,ASPEN FOREST LLC,MARY JANE'S HOUSE,Medical Marijuana Center-ASPEN FOREST LLC
2165,795,"3899 Quentin St, Denver, CO 80239, USA",3899 N QUENTIN ST DENVER CO,39.7707621,-104.8451427,Med Marijuana Opt Prem Cultiv,ASPEN FOREST LLC,MARY JANE'S HOUSE,Med Marijuana Opt Prem Cultiv-ASPEN FOREST LLC
2168,796,"543 Bryant St, Denver, CO 80204, USA",543  BRYANT ST DENVER CO,39.724657,-105.0189866,Medical Marijuana Center,"FIREHOUSE ORGANICS CENTRAL, LLC",FIREHOUSE ORGANICS,"Medical Marijuana Center-FIREHOUSE ORGANICS CENTRAL, LLC"
2170,803,"665 Kalamath St, Denver, CO 80204, USA",665  KALAMATH ST DENVER CO,39.7268515,-105.0005438,Retail Marij Opt. Prem. Cultiv,TIMBERLINE HERBAL CLINIC & WELLNESS CENTER LLC,,Retail Marij Opt. Prem. Cultiv-TIMBERLINE HERBAL CLINIC & WELLNESS CENTER LLC
2172,806,"N Colorado Blvd, Denver, CO 80216, USA",5095 N Colorado Blvd Denver CO,39.7893805,-104.9400496,Med Marijuana Inf Prod Manuf,COLORADO MOONROCKS LLC,,Med Marijuana Inf Prod Manuf-COLORADO MOONROCKS LLC
2173,808,"N Bryant St, Denver, CO 80211, USA",695 N Bryant ST Denver CO,39.7508151,-105.0183872,Retail Marij Opt. Prem. Cultiv,"4095 SHELTER, LLC",EVERBLOOM,"Retail Marij Opt. Prem. Cultiv-4095 SHELTER, LLC"
2174,809,"9206 E Hampden Ave, Denver, CO 80231, USA",9206 E HAMPDEN AVE DENVER CO,39.6522316,-104.8807509,Retail Marijuana Store,TETRAHYDROCENTER LLC,"TETRAHYDROCENTER, LLC",Retail Marijuana Store-TETRAHYDROCENTER LLC
2175,810,"5124 Havana St, Denver, CO 80239, USA",5124 N Havana  Denver CO,39.7909428,-104.8654831,Retail Marijuana Inf Prod Mfg,CAREGIVERS FOR LIFE LLC,,Retail Marijuana Inf Prod Mfg-CAREGIVERS FOR LIFE LLC
2176,810,"5124 Havana St, Denver, CO 80239, USA",5124 N Havana  Denver CO,39.7909428,-104.8654831,Med Marijuana Inf Prod Manuf,"CAREGIVERS FOR LIFE, LLC",,"Med Marijuana Inf Prod Manuf-CAREGIVERS FOR LIFE, LLC"
2179,817,"2744 W 4th Ave, Denver, CO 80219, USA",2744 W 4TH AVE DENVER CO,39.7218112,-105.0214518,Med Marijuana Opt Prem Cultiv,"CAREGIVERS FOR LIFE, LLC",,"Med Marijuana Opt Prem Cultiv-CAREGIVERS FOR LIFE, LLC"
2180,819,"1355 Santa Fe Dr, Denver, CO 80204, USA",1355 N SANTA FE DR DENVER CO,39.7375076,-104.9991743,Retail Marijuana Store,"GMC, LLC",GREEN MAN CANNABIS,"Retail Marijuana Store-GMC, LLC"
2181,821,"1269 Elati St, Denver, CO 80204, USA",1269 N ELATI ST DENVER CO,39.7365803,-104.9944043,Retail Marijuana Store,HG LTD,HIGHER GRADE,Retail Marijuana Store-HG LTD
2185,826,"835 E 50th Ave, Denver, CO 80216, USA",835 E 50TH AVE DENVER CO,39.7884147,-104.9760784,Med Marijuana Opt Prem Cultiv,"STANDING AKIMBO, LLC",,"Med Marijuana Opt Prem Cultiv-STANDING AKIMBO, LLC"
2186,830,"5050 York St, Denver, CO 80216, USA",5050 N YORK ST Denver CO,39.7883816,-104.9583707,Retail Marij Opt. Prem. Cultiv,"TWOG-YORK, LLC",BUDDY BOY,"Retail Marij Opt. Prem. Cultiv-TWOG-YORK, LLC"
2187,831,"10625 E 51st Ave, Denver, CO 80239, USA",10625 E 51ST AVE DENVER CO,39.790871,-104.8645253,Retail Marij Opt. Prem. Cultiv,"SHRED INVESTMENTS, LLC",HIGH WEST CANNABIS,"Retail Marij Opt. Prem. Cultiv-SHRED INVESTMENTS, LLC"
2189,839,"3925 Oneida St, Denver, CO 80207, USA",3925 N ONEIDA ST DENVER CO,39.771608,-104.9079966,Retail Marijuana Inf Prod Mfg,"ABSTRACT ALCHEMY, LLC",,"Retail Marijuana Inf Prod Mfg-ABSTRACT ALCHEMY, LLC"
2190,839,"3925 Oneida St, Denver, CO 80207, USA",3925 N ONEIDA ST DENVER CO,39.771608,-104.9079966,Med Marijuana Inf Prod Manuf,"ABSTRACT ALCHEMY, LLC",,"Med Marijuana Inf Prod Manuf-ABSTRACT ALCHEMY, LLC"
2193,841,"260 Santa Fe Dr, Denver, CO 80223, USA",260 N SANTA FE DR DENVER CO,39.7204941,-104.9984212,Medical Marijuana Center,"NATURE MED, INC",KIND-MEDS,"Medical Marijuana Center-NATURE MED, INC"
2194,842,"2895 W 8th Ave, Denver, CO 80204, USA",2895 W 8TH AVE DENVER CO,39.7296153,-105.0233465,Medical Marijuana Center,"PINEAPPLE EXCHANGE, LLC",PINEAPPLE EXCHANGE,"Medical Marijuana Center-PINEAPPLE EXCHANGE, LLC"
2199,847,"2020 S Broadway, Denver, CO 80210, USA",2020 S BROADWAY  DENVER CO,39.6796931,-104.9870326,Retail Marijuana Store,CO-AGRONOMICS LLC,THE GREEN DEPOT,Retail Marijuana Store-CO-AGRONOMICS LLC
2200,851,"3995 E 50th Ave, Denver, CO 80216, USA",3995 E 50TH AVE DENVER CO,39.7874672,-104.9411327,Retail Marijuana Store,TIMBERLINE HERBAL CLINIC & WELLNESS CENTER LLC,,Retail Marijuana Store-TIMBERLINE HERBAL CLINIC & WELLNESS CENTER LLC
2201,855,"4695 Kingston St, Denver, CO 80239, USA",4695 N Kingston  Denver CO,39.7820664,-104.8595996,Retail Marij Opt. Prem. Cultiv,"LYONS FINEST CONFIDENTIAL CARE, LLC",TUMBLEWEED,"Retail Marij Opt. Prem. Cultiv-LYONS FINEST CONFIDENTIAL CARE, LLC"
2202,859,"Wyandot St, Denver, CO, USA",221 N WYANDOT ST DENVER CO,39.7777652,-105.0146377,Retail Marij Opt. Prem. Cultiv,TETRAHYDROCENTER LLC,TETRAHYDRO CENTER,Retail Marij Opt. Prem. Cultiv-TETRAHYDROCENTER LLC
2203,860,"777 Canosa Ct, Denver, CO 80204, USA",777 N CANOSA CT DENVER CO,39.7290235,-105.0202192,Retail Marijuana Store,"CANOSA PROPERTY INVESTMENTS, LLC",BOTANICO 2,"Retail Marijuana Store-CANOSA PROPERTY INVESTMENTS, LLC"
2204,861,"1191 S Bannock St, Denver, CO 80223, USA",1191 S Bannock St Denver CO,39.695182,-104.9904787,Retail Marij Opt. Prem. Cultiv,"OPTIONS MEDICAL CENTER WR, LLC",OPTIONS,"Retail Marij Opt. Prem. Cultiv-OPTIONS MEDICAL CENTER WR, LLC"
2211,878,"1955 S Quince St, Denver, CO 80231, USA",1955 S QUINCE ST DENVER CO,39.6809054,-104.9017466,Retail Marij Opt. Prem. Cultiv,"REDWOOD INVESTMENT PARTNERS, LLC",BONSAI CULTIVATION,"Retail Marij Opt. Prem. Cultiv-REDWOOD INVESTMENT PARTNERS, LLC"
2212,881,"1250 Grant St, Denver, CO 80203, USA",1250 N Grant St Denver CO,39.7361664,-104.9832178,Retail Marijuana Store,MMRD LLC,,Retail Marijuana Store-MMRD LLC
2213,883,"3770 Paris St, Denver, CO 80239, USA",3770 N PARIS ST Denver CO,39.7693675,-104.8482894,Med Marijuana Opt Prem Cultiv,"PEAK HOLDINGS GROUP, LLC",PEAK,"Med Marijuana Opt Prem Cultiv-PEAK HOLDINGS GROUP, LLC"
2214,887,"2262 S Broadway, Denver, CO 80210, USA",2262 S BROADWAY  DENVER CO,39.6755013,-104.9872836,Retail Marijuana Store,SOLACE MEDS BROADWAY LLC,,Retail Marijuana Store-SOLACE MEDS BROADWAY LLC
2215,889,"4840 Jackson St, Denver, CO 80216, USA",4840 N JACKSON ST DENVER CO,39.7846875,-104.9427812,Retail Marij Opt. Prem. Cultiv,NATURES CURE III LLC,THE COLFAX POT SHOP,Retail Marij Opt. Prem. Cultiv-NATURES CURE III LLC
2216,895,"2748 W Alameda Ave, Denver, CO 80219, USA",2748 W ALAMEDA AVE DENVER CO,39.7109594,-105.0217486,Retail Marijuana Store,"ALCC, LLC",THE DAB BY NEXT HARVEST,"Retail Marijuana Store-ALCC, LLC"
2217,896,"4615 E Colfax Ave, Denver, CO 80220, USA",4615 E COLFAX AVE DENVER CO,39.7403953,-104.9332957,Retail Marijuana Store,SOLACE MEDS- COLFAX LLC,,Retail Marijuana Store-SOLACE MEDS- COLFAX LLC
2218,897,"745 Federal Blvd, Denver, CO 80204, USA",745 N Federal  Denver CO,39.7281507,-105.0254923,Med Marijuana Inf Prod Manuf,"NATURE MED, INC.",KIND-MEDS,"Med Marijuana Inf Prod Manuf-NATURE MED, INC."
2219,910,"2645 S Santa Fe Dr, Denver, CO 80223, USA",2645 S Santa Fe  Denver CO,39.6683721,-104.9964899,Retail Marijuana Store,"RJJ SANTA FE, LLC",NATIVE ROOTS SANTA FE,"Retail Marijuana Store-RJJ SANTA FE, LLC"
2220,913,"4360 Vine St, Denver, CO 80216, USA",4360 N VINE ST DENVER CO,39.7775002,-104.9621129,Retail Marij Opt. Prem. Cultiv,"MN NETWORK, LLC",,"Retail Marij Opt. Prem. Cultiv-MN NETWORK, LLC"
2221,915,"777 Umatilla St, Denver, CO 80204, USA",777 N UMATILLA ST DENVER CO,39.7286385,-105.0123746,Med Marijuana Opt Prem Cultiv,"3B-UMATILLA, LLC",BUDDY BOY,"Med Marijuana Opt Prem Cultiv-3B-UMATILLA, LLC"
2222,917,"4 S Santa Fe Dr, Denver, CO 80223, USA",4 S Santa Fe Dr Denver CO,39.7164275,-104.9981929,Retail Marijuana Store,KARMACEUTICALS LLC,KARMACEUTICALS,Retail Marijuana Store-KARMACEUTICALS LLC
2223,919,"1444 Wazee St, Denver, CO 80202, USA",1444  WAZEE ST DENVER CO,39.7496615,-105.0013654,Medical Marijuana Center,LOTUS MEDICAL LLC,,Medical Marijuana Center-LOTUS MEDICAL LLC
2224,921,"4525 Ironton St, Denver, CO 80239, USA",4525 N IRONTON ST DENVER CO,39.7793811,-104.8638868,Retail Marij Opt. Prem. Cultiv,"WASH PARK BOUTIQUE, LLC",LUCY SKY CANNABIS BOUTIQUE,"Retail Marij Opt. Prem. Cultiv-WASH PARK BOUTIQUE, LLC"
2225,922,"403 16th St Mall, Denver, CO 80202, USA",403  16TH ST DENVER CO,39.7435494,-104.9896017,Retail Marijuana Store,JS INVESTMENTS LLC,EUFLORA,Retail Marijuana Store-JS INVESTMENTS LLC
2229,937,"1620 Market St, Denver, CO 80202, USA",1620  MARKET ST DENVER CO,39.7500198,-104.9975995,Medical Marijuana Center,"DJR COLORADO, LLC",,"Medical Marijuana Center-DJR COLORADO, LLC"
2230,938,"3722 Chestnut Pl, Denver, CO 80216, USA",3722  Chestnut  Denver CO,39.7735708,-104.9776302,Medical Marijuana Center,"WEISS & COMPANY, LLC",,"Medical Marijuana Center-WEISS & COMPANY, LLC"
2231,942,"310 St Paul St, Denver, CO 80206, USA",310 N Saint Paul ST Denver CO,39.721244,-104.950684,Retail Marijuana Store,"CAREGIVERS FOR LIFE, LLC",,"Retail Marijuana Store-CAREGIVERS FOR LIFE, LLC"
2232,945,"3801 Jason St, Denver, CO 80211, USA",3801 N Jason  Denver CO,39.7694378,-104.999608,Medical Marijuana Center,STANDING AKIMBO LLC,,Medical Marijuana Center-STANDING AKIMBO LLC
2233,949,"4668 Glencoe St, Denver, CO 80216, USA",4668 N Glencoe  Denver CO,39.7807408,-104.9255255,Retail Marij Opt. Prem. Cultiv,"SMART CARE, LLC",SMART CARE EXTRACTS,"Retail Marij Opt. Prem. Cultiv-SMART CARE, LLC"
2234,952,"1150 W Custer Pl, Denver, CO 80223, USA",1150 W CUSTER PL DENVER CO,39.7064128,-105.0004981,Retail Marij Opt. Prem. Cultiv,MEDICALLY CORRECT LLC,INCREDIBLES,Retail Marij Opt. Prem. Cultiv-MEDICALLY CORRECT LLC
2236,954,"1410 S Santa Fe Dr, Denver, CO 80223, USA",1410 S SANTA FE DR DENVER CO,39.6908832,-104.9915514,Retail Marijuana Store,"GM SANTA FE, LLC",GOLDEN MEDS,"Retail Marijuana Store-GM SANTA FE, LLC"
2237,956,"12001 E 37th Ave, Denver, CO 80239, USA",12001 E 37th Ave Denver CO,39.7684462,-104.8481069,Retail Marijuana Inf Prod Mfg,"BK HOLDINGS, LLC",THE HERBAL CENTER,"Retail Marijuana Inf Prod Mfg-BK HOLDINGS, LLC"